{"type":"FeatureCollection","features":[{"type":"Feature","properties":{"lower":1800.0,"upper":3600.0,"color":"#6a176e"},"geometry":{"type":"Polygon","coordinates":[[[-121.942493257,37.463518211],[-121.941989334,37.463918194],[-121.941390514,37.463918194],[-121.941390514,37.463442887],[-121.941390514,37.462967577],[-121.941071188,37.462714113],[-121.941390514,37.462896956],[-121.941989334,37.462919526],[-121.942568453,37.462492265],[-121.942588154,37.462406625],[-121.942649163,37.462492265],[-121.942633761,37.462967577],[-121.942588154,37.463108274],[-121.941989334,37.463244019],[-121.941906818,37.463442887],[-121.941989334,37.463518211],[-121.942493257,37.463518211]]]}},{"type":"Feature","properties":{"lower":1800.0,"upper":3600.0,"color":"#6a176e"},"geometry":{"type":"Polygon","coordinates":[[[-121.944384614,37.462492265],[-121.943785794,37.462967577],[-121.943458509,37.462967577],[-121.943428465,37.462492265],[-121.943428465,37.462016949],[-121.943377849,37.46154163],[-121.943186974,37.46136544],[-121.942588154,37.461132061],[-121.942558905,37.461066308],[-121.941989334,37.460717859],[-121.941838878,37.460590983],[-121.941989334,37.460320157],[-121.942493911,37.460516176],[-121.942588154,37.460590983],[-121.943186974,37.461066308],[-121.943785794,37.460590983],[-121.943785794,37.461066308],[-121.943785794,37.46154163],[-121.944384614,37.462016949],[-121.944384614,37.462492265]]]}},{"type":"Feature","properties":{"lower":1800.0,"upper":3600.0,"color":"#6a176e"},"geometry":{"type":"Polygon","coordinates":[[[-121.939256789,37.462016949],[-121.938995235,37.462016949],[-121.938710949,37.462016949],[-121.938710949,37.46154163],[-121.938995235,37.461084829],[-121.939256789,37.46154163],[-121.939256789,37.462016949]]]}},{"type":"Feature","properties":{"lower":1800.0,"upper":3600.0,"color":"#6a176e"},"geometry":{"type":"Polygon","coordinates":[[[-121.938108071,37.461312754],[-121.937797595,37.461066308],[-121.937198775,37.460590983],[-121.937797595,37.460590983],[-121.938396415,37.460590983],[-121.938995235,37.460590983],[-121.939341761,37.460866046],[-121.938995235,37.461055671],[-121.938396415,37.460883545],[-121.938108071,37.461066308],[-121.938108071,37.461312754]]]}},{"type":"Feature","properties":{"lower":1800.0,"upper":3600.0,"color":"#6a176e"},"geometry":{"type":"Polygon","coordinates":[[[-121.941989334,37.459640325],[-121.941989334,37.459764045],[-121.94166516,37.459640325],[-121.941525943,37.459532823],[-121.941989334,37.459164991],[-121.941989334,37.459640325]]]}},{"type":"Feature","properties":{"lower":1800.0,"upper":3600.0,"color":"#6a176e"},"geometry":{"type":"Polygon","coordinates":[[[-121.9372799,37.459575929],[-121.937198775,37.459640325],[-121.937077991,37.459544449],[-121.937198775,37.459575929],[-121.9372799,37.459575929]]]}},{"type":"Feature","properties":{"lower":1800.0,"upper":3600.0,"color":"#6a176e"},"geometry":{"type":"Polygon","coordinates":[[[-121.941989334,37.458689654],[-121.941989334,37.459164991],[-121.941390514,37.458689654],[-121.941989334,37.458689654]]]}},{"type":"Feature","properties":{"lower":1800.0,"upper":3600.0,"color":"#6a176e"},"geometry":{"type":"Polygon","coordinates":[[[-121.938396415,37.458689654],[-121.938280125,37.458781964],[-121.937797595,37.458781964],[-121.93759052,37.458689654],[-121.937797595,37.458348959],[-121.937967217,37.458348959],[-121.938396415,37.458689654]]]}},{"type":"Feature","properties":{"lower":1800.0,"upper":3600.0,"color":"#6a176e"},"geometry":{"type":"Polygon","coordinates":[[[-121.935094608,37.458933909],[-121.934803495,37.459164991],[-121.934204676,37.459164991],[-121.934803495,37.458689654],[-121.934204676,37.458214314],[-121.934803495,37.458214314],[-121.93516779,37.458503489],[-121.935094608,37.458689654],[-121.935094608,37.458933909]]]}},{"type":"Feature","properties":{"lower":1800.0,"upper":3600.0,"color":"#6a176e"},"geometry":{"type":"Polygon","coordinates":[[[-121.940791694,37.458689654],[-121.940192874,37.458689654],[-121.939594055,37.458689654],[-121.940069021,37.458312628],[-121.940192874,37.458269632],[-121.940288978,37.458290601],[-121.940791694,37.458689654]]]}},{"type":"Feature","properties":{"lower":1800.0,"upper":3600.0,"color":"#6a176e"},"geometry":{"type":"Polygon","coordinates":[[[-121.937015091,37.458214314],[-121.936599955,37.458366764],[-121.936354507,37.458409149],[-121.936599955,37.458214314],[-121.937021978,37.457879312],[-121.937015091,37.458214314]]]}},{"type":"Feature","properties":{"lower":1800.0,"upper":3600.0,"color":"#6a176e"},"geometry":{"type":"Polygon","coordinates":[[[-121.940681593,37.457263625],[-121.940192874,37.457719139],[-121.940167891,37.457719139],[-121.939594055,37.457263625],[-121.940192874,37.457263625],[-121.940681593,37.457263625]]]}},{"type":"Feature","properties":{"lower":3600.0,"upper":5400.0,"color":"#bc3754"},"geometry":{"type":"Polygon","coordinates":[[[-121.942588154,37.463442887],[-121.942493257,37.463518211],[-121.941989334,37.463518211],[-121.941906818,37.463442887],[-121.941989334,37.463244019],[-121.942588154,37.463108274],[-121.942633761,37.462967577],[-121.942649163,37.462492265],[-121.942588154,37.462406625],[-121.942568453,37.462492265],[-121.941989334,37.462919526],[-121.941390514,37.462896956],[-121.941071188,37.462714113],[-121.940791694,37.462492265],[-121.940192874,37.462492265],[-121.939594055,37.462016949],[-121.939256789,37.462016949],[-121.939256789,37.46154163],[-121.938995235,37.461084829],[-121.938710949,37.46154163],[-121.938710949,37.462016949],[-121.938396415,37.462016949],[-121.938396415,37.46154163],[-121.938108071,37.461312754],[-121.938108071,37.461066308],[-121.938396415,37.460883545],[-121.938995235,37.461055671],[-121.939341761,37.460866046],[-121.939594055,37.461066308],[-121.940081036,37.461066308],[-121.940192874,37.461143336],[-121.940733976,37.46154163],[-121.940733976,37.462016949],[-121.940791694,37.462052605],[-121.941390514,37.462491198],[-121.941392643,37.462492265],[-121.941989334,37.462640095],[-121.942189706,37.462492265],[-121.942302898,37.462016949],[-121.942302898,37.46154163],[-121.941989334,37.461178777],[-121.941390514,37.461156735],[-121.941023631,37.461066308],[-121.941328167,37.460590983],[-121.940791694,37.460229323],[-121.940791694,37.460115655],[-121.940192874,37.459640325],[-121.940791694,37.459640325],[-121.941390514,37.459640325],[-121.941525943,37.459532823],[-121.94166516,37.459640325],[-121.941989334,37.459764045],[-121.941989334,37.460115655],[-121.942493911,37.460516176],[-121.941989334,37.460320157],[-121.941838878,37.460590983],[-121.941989334,37.460717859],[-121.942558905,37.461066308],[-121.942588154,37.461132061],[-121.943186974,37.46136544],[-121.943377849,37.46154163],[-121.943428465,37.462016949],[-121.943428465,37.462492265],[-121.943458509,37.462967577],[-121.943186974,37.462967577],[-121.942588154,37.463442887]]]}},{"type":"Feature","properties":{"lower":3600.0,"upper":5400.0,"color":"#bc3754"},"geometry":{"type":"Polygon","coordinates":[[[-121.937583267,37.459335121],[-121.9372799,37.459575929],[-121.937198775,37.459575929],[-121.937077991,37.459544449],[-121.936626321,37.45918592],[-121.937198775,37.459335121],[-121.937583267,37.459335121]]]}},{"type":"Feature","properties":{"lower":3600.0,"upper":5400.0,"color":"#bc3754"},"geometry":{"type":"Polygon","coordinates":[[[-121.938280125,37.458781964],[-121.937997364,37.459006416],[-121.937797595,37.459006416],[-121.937198775,37.458803291],[-121.936599955,37.459066013],[-121.936001135,37.459112589],[-121.93593512,37.459112589],[-121.935402315,37.458689654],[-121.936001135,37.458689654],[-121.936354507,37.458409149],[-121.936599955,37.458366764],[-121.937015091,37.458214314],[-121.937021978,37.457879312],[-121.937198775,37.457738971],[-121.937198775,37.457263625],[-121.937797595,37.457738971],[-121.937797595,37.458214314],[-121.937967217,37.458348959],[-121.937797595,37.458348959],[-121.93759052,37.458689654],[-121.937797595,37.458781964],[-121.938280125,37.458781964]]]}},{"type":"Feature","properties":{"lower":3600.0,"upper":5400.0,"color":"#bc3754"},"geometry":{"type":"Polygon","coordinates":[[[-121.935402315,37.458689654],[-121.935094608,37.458933909],[-121.935094608,37.458689654],[-121.93516779,37.458503489],[-121.935402315,37.458689654]]]}},{"type":"Feature","properties":{"lower":3600.0,"upper":5400.0,"color":"#bc3754"},"geometry":{"type":"Polygon","coordinates":[[[-121.940192874,37.458214314],[-121.940288978,37.458290601],[-121.940192874,37.458269632],[-121.940069021,37.458312628],[-121.940192874,37.458214314]]]}},{"type":"Feature","properties":{"lower":3600.0,"upper":5400.0,"color":"#bc3754"},"geometry":{"type":"Polygon","coordinates":[[[-121.940791694,37.457263625],[-121.940192874,37.457738971],[-121.940167891,37.457719139],[-121.940192874,37.457719139],[-121.940681593,37.457263625],[-121.940791694,37.457263625]]]}},{"type":"Feature","properties":{"lower":5400.0,"upper":7200.0,"color":"#f37819"},"geometry":{"type":"Polygon","coordinates":[[[-121.942189706,37.462492265],[-121.941989334,37.462640095],[-121.941392643,37.462492265],[-121.941390514,37.462491198],[-121.940791694,37.462052605],[-121.940733976,37.462016949],[-121.940733976,37.46154163],[-121.940192874,37.461143336],[-121.940081036,37.461066308],[-121.940192874,37.461066308],[-121.940526414,37.460801555],[-121.940791694,37.460801555],[-121.941011894,37.460590983],[-121.940791694,37.460442537],[-121.940791694,37.460229323],[-121.941328167,37.460590983],[-121.941023631,37.461066308],[-121.941390514,37.461156735],[-121.941989334,37.461178777],[-121.942302898,37.46154163],[-121.942302898,37.462016949],[-121.942189706,37.462492265]]]}},{"type":"Feature","properties":{"lower":5400.0,"upper":7200.0,"color":"#f37819"},"geometry":{"type":"Polygon","coordinates":[[[-121.937797595,37.459164991],[-121.937583267,37.459335121],[-121.937198775,37.459335121],[-121.936626321,37.45918592],[-121.936599955,37.459164991],[-121.936001135,37.459164991],[-121.93593512,37.459112589],[-121.936001135,37.459112589],[-121.936599955,37.459066013],[-121.937198775,37.458803291],[-121.937797595,37.459006416],[-121.937997364,37.459006416],[-121.937797595,37.459164991]]]}},{"type":"Feature","properties":{"lower":7200.0,"upper":9000.0,"color":"#f6d746"},"geometry":{"type":"Polygon","coordinates":[[[-121.941011894,37.460590983],[-121.940791694,37.460801555],[-121.940526414,37.460801555],[-121.940791694,37.460590983],[-121.940791694,37.460442537],[-121.941011894,37.460590983]]]}}]}
