{"type":"FeatureCollection","features":[{"type":"Feature","properties":{"lower":1125.0,"upper":1265.625,"color":"#240c4f"},"geometry":{"type":"Polygon","coordinates":[[[-121.937882001,37.460170668],[-121.93792267,37.460202949],[-121.937882001,37.460202949],[-121.937326076,37.460202949],[-121.937285408,37.460170668],[-121.937882001,37.460170668]]]}},{"type":"Feature","properties":{"lower":1125.0,"upper":1265.625,"color":"#240c4f"},"geometry":{"type":"Polygon","coordinates":[[[-121.937285408,37.460170668],[-121.937256692,37.460170668],[-121.937245282,37.460138817],[-121.937285408,37.460170668]]]}},{"type":"Feature","properties":{"lower":1265.625,"upper":1406.25,"color":"#2b0b57"},"geometry":{"type":"Polygon","coordinates":[[[-121.93792267,37.460202949],[-121.938060179,37.460312101],[-121.937882001,37.460312101],[-121.937463586,37.460312101],[-121.937326076,37.460202949],[-121.937882001,37.460202949],[-121.93792267,37.460202949]]]}},{"type":"Feature","properties":{"lower":1265.625,"upper":1406.25,"color":"#2b0b57"},"geometry":{"type":"Polygon","coordinates":[[[-121.937256692,37.460170668],[-121.937159597,37.460170668],[-121.937109607,37.460031121],[-121.937245282,37.460138817],[-121.937256692,37.460170668]]]}},{"type":"Feature","properties":{"lower":1265.625,"upper":1406.25,"color":"#2b0b57"},"geometry":{"type":"Polygon","coordinates":[[[-121.934374168,37.45874997],[-121.934302442,37.458835024],[-121.934267079,37.45874997],[-121.93425799,37.458714684],[-121.934302442,37.45874997],[-121.934374168,37.458693034],[-121.934374168,37.45874997]]]}},{"type":"Feature","properties":{"lower":1265.625,"upper":1406.25,"color":"#2b0b57"},"geometry":{"type":"Polygon","coordinates":[[[-121.933848483,37.459223539],[-121.933705849,37.459223539],[-121.933109256,37.459223539],[-121.933109256,37.459184264],[-121.933705849,37.459184264],[-121.933848483,37.459223539]]]}},{"type":"Feature","properties":{"lower":1406.25,"upper":1546.875,"color":"#320a5e"},"geometry":{"type":"Polygon","coordinates":[[[-121.939671781,37.460644228],[-121.93975882,37.460713317],[-121.939671781,37.460713317],[-121.939162226,37.460713317],[-121.939075187,37.460644228],[-121.939671781,37.460644228]]]}},{"type":"Feature","properties":{"lower":1406.25,"upper":1546.875,"color":"#320a5e"},"geometry":{"type":"Polygon","coordinates":[[[-121.938060179,37.460312101],[-121.938197688,37.460421252],[-121.937882001,37.460421252],[-121.937601095,37.460421252],[-121.937463586,37.460312101],[-121.937882001,37.460312101],[-121.938060179,37.460312101]]]}},{"type":"Feature","properties":{"lower":1406.25,"upper":1546.875,"color":"#320a5e"},"geometry":{"type":"Polygon","coordinates":[[[-121.937159597,37.460170668],[-121.937062502,37.460170668],[-121.936973931,37.459923424],[-121.937109607,37.460031121],[-121.937159597,37.460170668]]]}},{"type":"Feature","properties":{"lower":1406.25,"upper":1546.875,"color":"#320a5e"},"geometry":{"type":"Polygon","coordinates":[[[-121.936688815,37.45874997],[-121.936768687,37.458813371],[-121.936688815,37.458813371],[-121.936092222,37.458775098],[-121.936070695,37.45874997],[-121.936070695,37.458276397],[-121.936014784,37.458214928],[-121.936092222,37.458276397],[-121.936688815,37.458276397],[-121.936688815,37.45874997]]]}},{"type":"Feature","properties":{"lower":1406.25,"upper":1546.875,"color":"#320a5e"},"geometry":{"type":"Polygon","coordinates":[[[-121.934524785,37.45874997],[-121.934302442,37.45901363],[-121.93419282,37.45874997],[-121.934164645,37.458640588],[-121.93425799,37.458714684],[-121.934267079,37.45874997],[-121.934302442,37.458835024],[-121.934374168,37.45874997],[-121.934374168,37.458693034],[-121.934524785,37.458573476],[-121.934524785,37.45874997]]]}},{"type":"Feature","properties":{"lower":1406.25,"upper":1546.875,"color":"#320a5e"},"geometry":{"type":"Polygon","coordinates":[[[-121.934057174,37.459223539],[-121.933848483,37.459223539],[-121.933705849,37.459184264],[-121.933109256,37.459184264],[-121.933109256,37.4591268],[-121.933705849,37.4591268],[-121.934057174,37.459223539]]]}},{"type":"Feature","properties":{"lower":1546.875,"upper":1687.5,"color":"#390963"},"geometry":{"type":"Polygon","coordinates":[[[-121.93975882,37.460713317],[-121.93989644,37.460822556],[-121.939671781,37.460822556],[-121.939299847,37.460822556],[-121.939162226,37.460713317],[-121.939671781,37.460713317],[-121.93975882,37.460713317]]]}},{"type":"Feature","properties":{"lower":1546.875,"upper":1687.5,"color":"#390963"},"geometry":{"type":"Polygon","coordinates":[[[-121.938197688,37.460421252],[-121.938335198,37.460530404],[-121.937882001,37.460530404],[-121.937738604,37.460530404],[-121.937601095,37.460421252],[-121.937882001,37.460421252],[-121.938197688,37.460421252]]]}},{"type":"Feature","properties":{"lower":1546.875,"upper":1687.5,"color":"#390963"},"geometry":{"type":"Polygon","coordinates":[[[-121.937062502,37.460170668],[-121.936965408,37.460170668],[-121.936838256,37.459815728],[-121.936973931,37.459923424],[-121.937062502,37.460170668]]]}},{"type":"Feature","properties":{"lower":1546.875,"upper":1687.5,"color":"#390963"},"geometry":{"type":"Polygon","coordinates":[[[-121.937285408,37.459223539],[-121.93712698,37.459349296],[-121.936688815,37.459349296],[-121.936464277,37.459223539],[-121.936092222,37.459045259],[-121.935839259,37.45874997],[-121.935839259,37.458276397],[-121.935495628,37.457898599],[-121.935374973,37.457898599],[-121.935495628,37.457802822],[-121.936014784,37.458214928],[-121.936070695,37.458276397],[-121.936070695,37.45874997],[-121.936092222,37.458775098],[-121.936688815,37.458813371],[-121.936768687,37.458813371],[-121.937285408,37.459223539]]]}},{"type":"Feature","properties":{"lower":1546.875,"upper":1687.5,"color":"#390963"},"geometry":{"type":"Polygon","coordinates":[[[-121.934675402,37.45874997],[-121.934302442,37.459192236],[-121.934118561,37.45874997],[-121.934071301,37.458566491],[-121.934164645,37.458640588],[-121.93419282,37.45874997],[-121.934302442,37.45901363],[-121.934524785,37.45874997],[-121.934524785,37.458573476],[-121.934675402,37.458453917],[-121.934675402,37.45874997]]]}},{"type":"Feature","properties":{"lower":1546.875,"upper":1687.5,"color":"#390963"},"geometry":{"type":"Polygon","coordinates":[[[-121.934265866,37.459223539],[-121.934057174,37.459223539],[-121.933705849,37.4591268],[-121.933109256,37.4591268],[-121.933109256,37.459069337],[-121.933705849,37.459069337],[-121.934265866,37.459223539]]]}},{"type":"Feature","properties":{"lower":1687.5,"upper":1828.125,"color":"#400a67"},"geometry":{"type":"Polygon","coordinates":[[[-121.93989644,37.460822556],[-121.94003406,37.460931794],[-121.939671781,37.460931794],[-121.939437467,37.460931794],[-121.939299847,37.460822556],[-121.939671781,37.460822556],[-121.93989644,37.460822556]]]}},{"type":"Feature","properties":{"lower":1687.5,"upper":1828.125,"color":"#400a67"},"geometry":{"type":"Polygon","coordinates":[[[-121.938335198,37.460530404],[-121.938472707,37.460639555],[-121.937882001,37.460639555],[-121.937876114,37.460639555],[-121.937738604,37.460530404],[-121.937882001,37.460530404],[-121.938335198,37.460530404]]]}},{"type":"Feature","properties":{"lower":1687.5,"upper":1828.125,"color":"#400a67"},"geometry":{"type":"Polygon","coordinates":[[[-121.936965408,37.460170668],[-121.936868313,37.460170668],[-121.936702581,37.459708032],[-121.936838256,37.459815728],[-121.936965408,37.460170668]]]}},{"type":"Feature","properties":{"lower":1687.5,"upper":1828.125,"color":"#400a67"},"geometry":{"type":"Polygon","coordinates":[[[-121.93712698,37.459349296],[-121.936729177,37.459665066],[-121.936688815,37.459665066],[-121.936092222,37.459588288],[-121.935495628,37.459612233],[-121.935446348,37.459657986],[-121.934899035,37.459223539],[-121.934302442,37.459223539],[-121.934265866,37.459223539],[-121.933705849,37.459069337],[-121.933109256,37.459069337],[-121.933109256,37.459011873],[-121.933705849,37.459011873],[-121.934044301,37.45874997],[-121.933977956,37.458492395],[-121.934071301,37.458566491],[-121.934118561,37.45874997],[-121.934302442,37.459192236],[-121.934675402,37.45874997],[-121.934675402,37.458453917],[-121.934826019,37.458334358],[-121.934826019,37.45874997],[-121.934899035,37.458925285],[-121.935495628,37.459028287],[-121.935607824,37.45874997],[-121.935607824,37.458276397],[-121.935495628,37.458153046],[-121.935054429,37.458153046],[-121.935374973,37.457898599],[-121.935495628,37.457898599],[-121.935839259,37.458276397],[-121.935839259,37.45874997],[-121.936092222,37.459045259],[-121.936464277,37.459223539],[-121.936688815,37.459349296],[-121.93712698,37.459349296]]]}},{"type":"Feature","properties":{"lower":1828.125,"upper":1968.75,"color":"#470b6a"},"geometry":{"type":"Polygon","coordinates":[[[-121.94003406,37.460931794],[-121.940171681,37.461041033],[-121.939671781,37.461041033],[-121.939575087,37.461041033],[-121.939437467,37.460931794],[-121.939671781,37.460931794],[-121.94003406,37.460931794]]]}},{"type":"Feature","properties":{"lower":1828.125,"upper":1968.75,"color":"#470b6a"},"geometry":{"type":"Polygon","coordinates":[[[-121.938478594,37.460644228],[-121.937882001,37.460644228],[-121.937876114,37.460639555],[-121.937882001,37.460639555],[-121.938472707,37.460639555],[-121.938478594,37.460644228]]]}},{"type":"Feature","properties":{"lower":1828.125,"upper":1968.75,"color":"#470b6a"},"geometry":{"type":"Polygon","coordinates":[[[-121.936868313,37.460170668],[-121.936771218,37.460170668],[-121.936688815,37.459940642],[-121.936092222,37.459940642],[-121.935806877,37.459944168],[-121.935495628,37.459697105],[-121.935446348,37.459657986],[-121.935495628,37.459612233],[-121.936092222,37.459588288],[-121.936688815,37.459665066],[-121.936729177,37.459665066],[-121.936688815,37.459697105],[-121.936702581,37.459708032],[-121.936868313,37.460170668]]]}},{"type":"Feature","properties":{"lower":1828.125,"upper":1968.75,"color":"#470b6a"},"geometry":{"type":"Polygon","coordinates":[[[-121.935607824,37.45874997],[-121.935495628,37.459028287],[-121.934899035,37.458925285],[-121.934826019,37.45874997],[-121.934826019,37.458334358],[-121.934899035,37.458276397],[-121.935054429,37.458153046],[-121.935495628,37.458153046],[-121.935607824,37.458276397],[-121.935607824,37.45874997]]]}},{"type":"Feature","properties":{"lower":1828.125,"upper":1968.75,"color":"#470b6a"},"geometry":{"type":"Polygon","coordinates":[[[-121.934044301,37.45874997],[-121.933705849,37.459011873],[-121.933109256,37.459011873],[-121.933109256,37.45895441],[-121.933705849,37.45895441],[-121.933970042,37.45874997],[-121.933884611,37.458418298],[-121.933977956,37.458492395],[-121.934044301,37.45874997]]]}},{"type":"Feature","properties":{"lower":1968.75,"upper":2109.375,"color":"#4d0d6c"},"geometry":{"type":"Polygon","coordinates":[[[-121.940268374,37.461117785],[-121.939671781,37.461117785],[-121.939575087,37.461041033],[-121.939671781,37.461041033],[-121.940171681,37.461041033],[-121.940268374,37.461117785]]]}},{"type":"Feature","properties":{"lower":1968.75,"upper":2109.375,"color":"#4d0d6c"},"geometry":{"type":"Polygon","coordinates":[[[-121.936771218,37.460170668],[-121.936688815,37.460170668],[-121.936092222,37.460170668],[-121.935806877,37.459944168],[-121.936092222,37.459940642],[-121.936688815,37.459940642],[-121.936771218,37.460170668]]]}},{"type":"Feature","properties":{"lower":1968.75,"upper":2109.375,"color":"#4d0d6c"},"geometry":{"type":"Polygon","coordinates":[[[-121.933970042,37.45874997],[-121.933705849,37.45895441],[-121.933109256,37.45895441],[-121.933109256,37.458896946],[-121.933705849,37.458896946],[-121.933895783,37.45874997],[-121.933791266,37.458344202],[-121.933884611,37.458418298],[-121.933970042,37.45874997]]]}},{"type":"Feature","properties":{"lower":2109.375,"upper":2250.0,"color":"#540f6d"},"geometry":{"type":"Polygon","coordinates":[[[-121.933895783,37.45874997],[-121.933705849,37.458896946],[-121.933109256,37.458896946],[-121.933109256,37.458839482],[-121.933705849,37.458839482],[-121.933821524,37.45874997],[-121.933705849,37.458300881],[-121.933675005,37.458300881],[-121.933705849,37.458276397],[-121.933791266,37.458344202],[-121.933895783,37.45874997]]]}},{"type":"Feature","properties":{"lower":2250.0,"upper":2390.625,"color":"#5a116e"},"geometry":{"type":"Polygon","coordinates":[[[-121.933821524,37.45874997],[-121.933705849,37.458839482],[-121.933109256,37.458839482],[-121.933109256,37.458782019],[-121.933705849,37.458782019],[-121.933747265,37.45874997],[-121.933705849,37.458589179],[-121.933311816,37.458589179],[-121.933675005,37.458300881],[-121.933705849,37.458300881],[-121.933821524,37.45874997]]]}},{"type":"Feature","properties":{"lower":2390.625,"upper":2531.25,"color":"#61136e"},"geometry":{"type":"Polygon","coordinates":[[[-121.933747265,37.45874997],[-121.933705849,37.458782019],[-121.933109256,37.458782019],[-121.933109256,37.45874997],[-121.933311816,37.458589179],[-121.933705849,37.458589179],[-121.933747265,37.45874997]]]}}]}
