{"type":"FeatureCollection","features":[{"type":"Feature","properties":{"lower":0.0,"upper":1800.0,"color":"#160b39"},"geometry":{"type":"Polygon","coordinates":[[[-121.943012273,37.460556774],[-121.942417653,37.460556774],[-121.942417653,37.46008478],[-121.943012273,37.460556774]]]}},{"type":"Feature","properties":{"lower":0.0,"upper":1800.0,"color":"#160b39"},"geometry":{"type":"Polygon","coordinates":[[[-121.941228414,37.46008478],[-121.940633794,37.460556774],[-121.940039174,37.460556774],[-121.939444555,37.460556774],[-121.938849935,37.460556774],[-121.938348352,37.460556774],[-121.938255315,37.460533849],[-121.937689577,37.460533849],[-121.938255315,37.46008478],[-121.938019167,37.459897331],[-121.938255315,37.459897331],[-121.938849935,37.460002872],[-121.939079186,37.46008478],[-121.939444555,37.460487269],[-121.940039174,37.460381541],[-121.940332012,37.46008478],[-121.940633794,37.46008478],[-121.941228414,37.46008478]]]}},{"type":"Feature","properties":{"lower":0.0,"upper":1800.0,"color":"#160b39"},"geometry":{"type":"Polygon","coordinates":[[[-121.942860555,37.459733214],[-121.942417653,37.46008478],[-121.942085551,37.459821165],[-121.942417653,37.459821165],[-121.942860555,37.459733214]]]}},{"type":"Feature","properties":{"lower":0.0,"upper":1800.0,"color":"#160b39"},"geometry":{"type":"Polygon","coordinates":[[[-121.943606892,37.459140783],[-121.943368177,37.459330272],[-121.943012273,37.459330272],[-121.942878363,37.459247079],[-121.943012273,37.459140783],[-121.943606892,37.459140783]]]}},{"type":"Feature","properties":{"lower":0.0,"upper":1800.0,"color":"#160b39"},"geometry":{"type":"Polygon","coordinates":[[[-121.936471456,37.459612783],[-121.936128615,37.459612783],[-121.935987709,37.459228792],[-121.936471456,37.459612783]]]}},{"type":"Feature","properties":{"lower":0.0,"upper":1800.0,"color":"#160b39"},"geometry":{"type":"Polygon","coordinates":[[[-121.935627445,37.45941482],[-121.935282217,37.459140783],[-121.935767442,37.459140783],[-121.935627445,37.45941482]]]}},{"type":"Feature","properties":{"lower":0.0,"upper":1800.0,"color":"#160b39"},"geometry":{"type":"Polygon","coordinates":[[[-121.941228414,37.45866878],[-121.941263825,37.45869689],[-121.941228414,37.45869689],[-121.940752075,37.459140783],[-121.940633794,37.459140783],[-121.940039174,37.459140783],[-121.939444555,37.45866878],[-121.939444555,37.458196774],[-121.938849935,37.457724765],[-121.938255315,37.458196774],[-121.937660696,37.45866878],[-121.937066076,37.45866878],[-121.937660696,37.458196774],[-121.937660696,37.457724765],[-121.937660696,37.457252753],[-121.938255315,37.457252753],[-121.938849935,37.457252753],[-121.939444555,37.457252753],[-121.939444555,37.457724765],[-121.940039174,37.458196774],[-121.940633794,37.45866878],[-121.941228414,37.45866878]]]}},{"type":"Feature","properties":{"lower":0.0,"upper":1800.0,"color":"#160b39"},"geometry":{"type":"Polygon","coordinates":[[[-121.934092978,37.458196774],[-121.934367426,37.45841463],[-121.934092978,37.45841463],[-121.933772806,37.45841463],[-121.933498358,37.458196774],[-121.934092978,37.458196774]]]}},{"type":"Feature","properties":{"lower":1800.0,"upper":3600.0,"color":"#6a176e"},"geometry":{"type":"Polygon","coordinates":[[[-121.940332012,37.46008478],[-121.940039174,37.460381541],[-121.939444555,37.460487269],[-121.939079186,37.46008478],[-121.938849935,37.460002872],[-121.938255315,37.459897331],[-121.938019167,37.459897331],[-121.937660696,37.459612783],[-121.938255315,37.459612783],[-121.938849935,37.459612783],[-121.939444555,37.46008478],[-121.940039174,37.46008478],[-121.940332012,37.46008478]]]}},{"type":"Feature","properties":{"lower":1800.0,"upper":3600.0,"color":"#6a176e"},"geometry":{"type":"Polygon","coordinates":[[[-121.938348352,37.460556774],[-121.938255315,37.460556774],[-121.937660696,37.460556774],[-121.937689577,37.460533849],[-121.938255315,37.460533849],[-121.938348352,37.460556774]]]}},{"type":"Feature","properties":{"lower":1800.0,"upper":3600.0,"color":"#6a176e"},"geometry":{"type":"Polygon","coordinates":[[[-121.943012273,37.459612783],[-121.942860555,37.459733214],[-121.942417653,37.459821165],[-121.942085551,37.459821165],[-121.941823033,37.459612783],[-121.941228414,37.459140783],[-121.940752075,37.459140783],[-121.941228414,37.45869689],[-121.941263825,37.45869689],[-121.941823033,37.459140783],[-121.942417653,37.459612783],[-121.942878363,37.459247079],[-121.943012273,37.459330272],[-121.943368177,37.459330272],[-121.943012273,37.459612783]]]}},{"type":"Feature","properties":{"lower":1800.0,"upper":3600.0,"color":"#6a176e"},"geometry":{"type":"Polygon","coordinates":[[[-121.936128615,37.459612783],[-121.935876837,37.459612783],[-121.935627445,37.45941482],[-121.935767442,37.459140783],[-121.935876837,37.459140783],[-121.935987709,37.459228792],[-121.936128615,37.459612783]]]}},{"type":"Feature","properties":{"lower":1800.0,"upper":3600.0,"color":"#6a176e"},"geometry":{"type":"Polygon","coordinates":[[[-121.934687597,37.45866878],[-121.934092978,37.45866878],[-121.933772806,37.45841463],[-121.934092978,37.45841463],[-121.934367426,37.45841463],[-121.934687597,37.45866878]]]}}]}
