{"type":"FeatureCollection","features":[{"type":"Feature","properties":{"lower":1100.0,"upper":2200.0,"color":"#6a176e"},"geometry":{"type":"Polygon","coordinates":[[[46.034847682,15.586293014],[46.035400374,15.586825381],[46.035953066,15.586825381],[46.036505758,15.586825381],[46.037058449,15.586825381],[46.037611141,15.586825381],[46.037611141,15.586293014],[46.037058449,15.586293014],[46.036505758,15.585760646],[46.036505758,15.585228276],[46.035953066,15.584695905],[46.035400374,15.585228276],[46.034847682,15.584695905],[46.034847682,15.584163532],[46.03429499,15.584163532],[46.033742299,15.584163532],[46.033189607,15.583631159],[46.033189607,15.583098784],[46.032788107,15.583098784],[46.033033925,15.583631159],[46.033105666,15.584163532],[46.032954716,15.584695905],[46.033189607,15.584719098],[46.033229537,15.584695905],[46.033742299,15.584222389],[46.03429499,15.584189939],[46.034831966,15.584695905],[46.034847682,15.584750713],[46.035062865,15.585228276],[46.035400374,15.585543778],[46.035566636,15.585760646],[46.035400374,15.586143926],[46.034847682,15.585879661],[46.03441855,15.585879661],[46.034847682,15.586293014]]]}},{"type":"Feature","properties":{"lower":1100.0,"upper":2200.0,"color":"#6a176e"},"geometry":{"type":"Polygon","coordinates":[[[46.032636915,15.585760646],[46.033189607,15.586293014],[46.033496427,15.586293014],[46.033189607,15.58615202],[46.032789317,15.585760646],[46.032636915,15.58541796],[46.032437077,15.585228276],[46.032558385,15.584695905],[46.032112775,15.584163532],[46.032084223,15.584152578],[46.031531532,15.583935049],[46.03097884,15.583916344],[46.03068239,15.583631159],[46.030426148,15.58334719],[46.029873456,15.583243426],[46.029331214,15.583108849],[46.029873456,15.583631159],[46.029873456,15.584163532],[46.030426148,15.583631159],[46.03097884,15.584163532],[46.031531532,15.584163532],[46.032084223,15.584695905],[46.032084223,15.585228276],[46.032636915,15.585760646]]]}},{"type":"Feature","properties":{"lower":1100.0,"upper":2200.0,"color":"#6a176e"},"geometry":{"type":"Polygon","coordinates":[[[46.028215381,15.583098784],[46.028768073,15.583631159],[46.029308324,15.583110767],[46.029308324,15.583098784],[46.028768073,15.582794512],[46.028215381,15.582931021],[46.027662689,15.582569363],[46.027660207,15.582566407],[46.02757751,15.582034029],[46.027550717,15.58150165],[46.027405355,15.580969269],[46.027205309,15.580436887],[46.027662689,15.580083038],[46.027772067,15.579904504],[46.028183509,15.579372119],[46.02820024,15.578839733],[46.02820024,15.578825148],[46.027662689,15.578307345],[46.027109998,15.578839733],[46.026557306,15.578307345],[46.026004614,15.577774956],[46.025451922,15.577774956],[46.02489923,15.578307345],[46.02489923,15.578839733],[46.025451922,15.578307345],[46.026004614,15.578839733],[46.026557306,15.579372119],[46.026004614,15.579904504],[46.026557306,15.579904504],[46.027109998,15.580436887],[46.027109998,15.580969269],[46.026557306,15.58150165],[46.026004614,15.580969269],[46.025451922,15.580436887],[46.02489923,15.580969269],[46.024346539,15.580436887],[46.024346539,15.580969269],[46.02489923,15.58150165],[46.02489923,15.582034029],[46.025451922,15.58150165],[46.026004614,15.582034029],[46.026004614,15.582566407],[46.026004614,15.583098784],[46.026557306,15.582566407],[46.027109998,15.582566407],[46.027662689,15.583098784],[46.028215381,15.583098784]]]}},{"type":"Feature","properties":{"lower":1100.0,"upper":2200.0,"color":"#6a176e"},"geometry":{"type":"Polygon","coordinates":[[[46.031906836,15.582034029],[46.032084223,15.582165878],[46.032084223,15.582034029],[46.032084223,15.58150165],[46.031531532,15.580969269],[46.03097884,15.580436887],[46.030426148,15.579904504],[46.030426148,15.579372119],[46.029873456,15.578839733],[46.029320765,15.578839733],[46.028768073,15.578307345],[46.02823049,15.578825179],[46.02823049,15.578839733],[46.028768073,15.579076049],[46.029271533,15.579372119],[46.029320765,15.579425516],[46.029714136,15.579904504],[46.029873456,15.580155411],[46.030069559,15.580436887],[46.029873456,15.580840521],[46.029827738,15.580969269],[46.029873456,15.581011129],[46.030299297,15.580969269],[46.030426148,15.580942832],[46.030448506,15.580969269],[46.03097884,15.581217633],[46.031239605,15.58150165],[46.031531532,15.581806603],[46.031906836,15.582034029]]]}},{"type":"Feature","properties":{"lower":1100.0,"upper":2200.0,"color":"#6a176e"},"geometry":{"type":"Polygon","coordinates":[[[46.025451922,15.579904504],[46.025451922,15.580436887],[46.026004614,15.579904504],[46.025451922,15.579372119],[46.025451922,15.579904504]]]}},{"type":"Feature","properties":{"lower":2200.0,"upper":3300.0,"color":"#bc3754"},"geometry":{"type":"Polygon","coordinates":[[[46.032789317,15.585760646],[46.033189607,15.58615202],[46.033496427,15.586293014],[46.033742299,15.586293014],[46.03429499,15.585760646],[46.03441855,15.585879661],[46.034847682,15.585879661],[46.035400374,15.586143926],[46.035566636,15.585760646],[46.035400374,15.585543778],[46.035062865,15.585228276],[46.034847682,15.584750713],[46.034831966,15.584695905],[46.03429499,15.584189939],[46.033742299,15.584222389],[46.033229537,15.584695905],[46.033189607,15.584719098],[46.032954716,15.584695905],[46.033105666,15.584163532],[46.033033925,15.583631159],[46.032788107,15.583098784],[46.032636915,15.583098784],[46.032084223,15.582566407],[46.032084223,15.582165878],[46.031906836,15.582034029],[46.031531532,15.581806603],[46.031239605,15.58150165],[46.03097884,15.581217633],[46.030448506,15.580969269],[46.030426148,15.580942832],[46.030299297,15.580969269],[46.029873456,15.581011129],[46.029827738,15.580969269],[46.029873456,15.580840521],[46.030069559,15.580436887],[46.029873456,15.580155411],[46.029714136,15.579904504],[46.029320765,15.579425516],[46.029271533,15.579372119],[46.028768073,15.579076049],[46.02823049,15.578839733],[46.02823049,15.578825179],[46.028215381,15.578839733],[46.02820024,15.578825148],[46.02820024,15.578839733],[46.028183509,15.579372119],[46.027772067,15.579904504],[46.027662689,15.580083038],[46.027205309,15.580436887],[46.027405355,15.580969269],[46.027550717,15.58150165],[46.02757751,15.582034029],[46.027660207,15.582566407],[46.027662689,15.582569363],[46.028215381,15.582931021],[46.028768073,15.582794512],[46.029308324,15.583098784],[46.029308324,15.583110767],[46.029320765,15.583098784],[46.029331214,15.583108849],[46.029873456,15.583243426],[46.030426148,15.58334719],[46.03068239,15.583631159],[46.03097884,15.583916344],[46.031531532,15.583935049],[46.032084223,15.584152578],[46.032112775,15.584163532],[46.032558385,15.584695905],[46.032437077,15.585228276],[46.032636915,15.58541796],[46.032789317,15.585760646]],[[46.033189607,15.585950961],[46.032994957,15.585760646],[46.032849085,15.585228276],[46.033189607,15.584980676],[46.033679876,15.584695905],[46.033742299,15.58463826],[46.03429499,15.58463431],[46.034360361,15.584695905],[46.03441705,15.585228276],[46.03429499,15.585339662],[46.033742299,15.585483927],[46.033567446,15.585760646],[46.033189607,15.585950961]],[[46.028768073,15.580693062],[46.028681444,15.580436887],[46.028768073,15.579922519],[46.029097129,15.580436887],[46.028768073,15.580693062]],[[46.032084223,15.583857703],[46.031718686,15.583631159],[46.031531532,15.583389284],[46.031288536,15.583098784],[46.03097884,15.582871424],[46.030426148,15.582797216],[46.029873456,15.582877704],[46.029320765,15.582772406],[46.029005996,15.582566407],[46.029044886,15.582034029],[46.028882739,15.58150165],[46.029320765,15.580989569],[46.029873404,15.58150165],[46.029873456,15.581501721],[46.030426148,15.581834214],[46.03078731,15.582034029],[46.03097884,15.582181862],[46.031531532,15.582285953],[46.031935764,15.582566407],[46.032084223,15.582664488],[46.032375689,15.583098784],[46.032375689,15.583631159],[46.032084223,15.583857703]]]}},{"type":"Feature","properties":{"lower":3300.0,"upper":4400.0,"color":"#f37819"},"geometry":{"type":"Polygon","coordinates":[[[46.032994957,15.585760646],[46.033189607,15.585950961],[46.033567446,15.585760646],[46.033742299,15.585483927],[46.03429499,15.585339662],[46.03441705,15.585228276],[46.034360361,15.584695905],[46.03429499,15.58463431],[46.033742299,15.58463826],[46.033679876,15.584695905],[46.033189607,15.584980676],[46.032849085,15.585228276],[46.032994957,15.585760646]]]}},{"type":"Feature","properties":{"lower":3300.0,"upper":4400.0,"color":"#f37819"},"geometry":{"type":"Polygon","coordinates":[[[46.031718686,15.583631159],[46.032084223,15.583857703],[46.032375689,15.583631159],[46.032375689,15.583098784],[46.032084223,15.582664488],[46.031935764,15.582566407],[46.031531532,15.582285953],[46.03097884,15.582181862],[46.03078731,15.582034029],[46.030426148,15.581834214],[46.029873456,15.581501721],[46.029873404,15.58150165],[46.029320765,15.580989569],[46.028882739,15.58150165],[46.029044886,15.582034029],[46.029005996,15.582566407],[46.029320765,15.582772406],[46.029873456,15.582877704],[46.030426148,15.582797216],[46.03097884,15.582871424],[46.031288536,15.583098784],[46.031531532,15.583389284],[46.031718686,15.583631159]],[[46.029320765,15.581691249],[46.029205467,15.58150165],[46.029320765,15.581366859],[46.029466231,15.58150165],[46.029320765,15.581691249]]]}},{"type":"Feature","properties":{"lower":3300.0,"upper":4400.0,"color":"#f37819"},"geometry":{"type":"Polygon","coordinates":[[[46.028681444,15.580436887],[46.028768073,15.580693062],[46.029097129,15.580436887],[46.028768073,15.579922519],[46.028681444,15.580436887]]]}},{"type":"Feature","properties":{"lower":4400.0,"upper":5500.0,"color":"#f6d746"},"geometry":{"type":"Polygon","coordinates":[[[46.029205467,15.58150165],[46.029320765,15.581691249],[46.029466231,15.58150165],[46.029320765,15.581366859],[46.029205467,15.58150165]]]}}]}
