{
"type": "FeatureCollection",
"name": "emi20240803t190415p13004-C_l3a-vis-ch4-mfa-v3_plume-outline",
"crs": { "type": "name", "properties": { "name": "urn:ogc:def:crs:OGC:1.3:CRS84" } },
"features": [
{ "type": "Feature", "properties": { "plume_id": "emi20240803t190415p13004-C", "plume_lat": 37.461355262065496, "plume_lon": -121.94001327259812, "plume_area_sqm": 5568047.2940153182 }, "geometry": { "type": "Polygon", "coordinates": [ [ [ -121.943423699773774, 37.464704036081308 ], [ -121.943430380396521, 37.464229348530871 ], [ -121.94402589614333, 37.464234672115381 ], [ -121.944032572845742, 37.463759984434908 ], [ -121.944628084985524, 37.46376530492828 ], [ -121.944648102862914, 37.462341241379235 ], [ -121.944052602013443, 37.462335921158036 ], [ -121.944072629771824, 37.460911857527968 ], [ -121.9434771403685, 37.460906534578896 ], [ -121.943483819737793, 37.460431846714499 ], [ -121.944079305378153, 37.460437169572792 ], [ -121.944085980827865, 37.459962481578387 ], [ -121.94468146286188, 37.459967801345968 ], [ -121.944688134392209, 37.45949311322159 ], [ -121.945283612819864, 37.459498429898552 ], [ -121.945296947885694, 37.458549053350744 ], [ -121.944701476983425, 37.458543736855106 ], [ -121.944708148044327, 37.458069048613019 ], [ -121.9441126810611, 37.458063729208305 ], [ -121.94411935572802, 37.457589041017684 ], [ -121.943523892663805, 37.457583718703994 ], [ -121.943543927012087, 37.456159654168971 ], [ -121.942948475391375, 37.456154329128026 ], [ -121.94295515695633, 37.455679640962018 ], [ -121.942359709254447, 37.455674313012423 ], [ -121.942366394424695, 37.455199624898029 ], [ -121.938198291240823, 37.455162245902955 ], [ -121.938191579736539, 37.455636933379871 ], [ -121.936405240874095, 37.455620868545353 ], [ -121.936411963664341, 37.4551461813424 ], [ -121.935816521454072, 37.455140820490065 ], [ -121.935823247848504, 37.454666133339281 ], [ -121.933441495633531, 37.454644660302172 ], [ -121.933448236917371, 37.454169973478329 ], [ -121.932257369281785, 37.45415921914713 ], [ -121.932264117930885, 37.453684532467435 ], [ -121.931668688112168, 37.453679150894693 ], [ -121.931675440364572, 37.4532044642675 ], [ -121.93108001446582, 37.45319907978736 ], [ -121.931086770321357, 37.452724393212748 ], [ -121.929300504860663, 37.452708222053026 ], [ -121.929307271841964, 37.452233535714939 ], [ -121.92871185410047, 37.452228139422154 ], [ -121.928718624684365, 37.451753453136831 ], [ -121.9257415571671, 37.451726427147896 ], [ -121.925816229952616, 37.446504880487396 ], [ -121.925220858294892, 37.446499467308229 ], [ -121.925227649534918, 37.446024781104867 ], [ -121.924632281796676, 37.446019365019644 ], [ -121.924639076637575, 37.445544678869382 ], [ -121.924043712818829, 37.445539259878196 ], [ -121.924050511260376, 37.445064573781089 ], [ -121.925836591914447, 37.445080821482541 ], [ -121.925843378916682, 37.444606135069051 ], [ -121.926438735693225, 37.444611544880686 ], [ -121.92644551877639, 37.444136858335646 ], [ -121.927040871952144, 37.444142265056833 ], [ -121.927047651116439, 37.443667578380314 ], [ -121.927643000691361, 37.443672982011151 ], [ -121.927670100720277, 37.441774234543743 ], [ -121.927074766183665, 37.441768831281557 ], [ -121.927081544553005, 37.441294144408701 ], [ -121.926486213934709, 37.441288738240786 ], [ -121.926492995904354, 37.440814051420865 ], [ -121.924707016282028, 37.4407978152068 ], [ -121.924727395068359, 37.439373755342203 ], [ -121.925322710172694, 37.439379170134316 ], [ -121.92537022878787, 37.43605636176266 ], [ -121.924774939994023, 37.436050947617034 ], [ -121.924781731489077, 37.435576260642058 ], [ -121.924186446612794, 37.43557084359152 ], [ -121.924200036641381, 37.434621469708595 ], [ -121.923604759440764, 37.434616049845701 ], [ -121.923611557974027, 37.434141362937773 ], [ -121.924206831416626, 37.434146782708218 ], [ -121.924220420489064, 37.433197408589656 ], [ -121.923625154562217, 37.433191989004108 ], [ -121.923638750512666, 37.432242614913363 ], [ -121.923043492260646, 37.432237192515807 ], [ -121.923063896263059, 37.430813131362626 ], [ -121.92246864944299, 37.430807706245801 ], [ -121.922475454215416, 37.430333019208746 ], [ -121.921880211312271, 37.430327591187783 ], [ -121.92189382789266, 37.429378217181025 ], [ -121.921298592663476, 37.429372786348658 ], [ -121.921305404471212, 37.428898099378998 ], [ -121.920710173158838, 37.428892665642763 ], [ -121.920716988563754, 37.428417978726529 ], [ -121.92131221611919, 37.428423412370094 ], [ -121.921319027607396, 37.427948725321897 ], [ -121.921914251565724, 37.427954155876357 ], [ -121.9219346738019, 37.426530094218229 ], [ -121.922529886649841, 37.426535521498487 ], [ -121.922557099037519, 37.424636771700854 ], [ -121.92196190121507, 37.424631344790917 ], [ -121.921968707669265, 37.424156657335907 ], [ -121.921373513762589, 37.424151227522522 ], [ -121.921380323813224, 37.42367654012088 ], [ -121.919594754319988, 37.423660232982797 ], [ -121.919587933001182, 37.424134920106255 ], [ -121.918992739733895, 37.424129478308814 ], [ -121.91898591449899, 37.424604165300167 ], [ -121.91779552093243, 37.424593272531439 ], [ -121.917788688025027, 37.425067959297692 ], [ -121.917193487725868, 37.425062508326249 ], [ -121.917186650901911, 37.425537194960256 ], [ -121.916591447006795, 37.425531740899679 ], [ -121.916570924303443, 37.426955800286812 ], [ -121.91597570929936, 37.426950342950811 ], [ -121.915962019181535, 37.427899715492977 ], [ -121.916557241698968, 37.427905173015176 ], [ -121.916550400156069, 37.42837985932043 ], [ -121.917145626590781, 37.428385313939259 ], [ -121.917131950537524, 37.429334686618006 ], [ -121.916536716588908, 37.429329231813071 ], [ -121.916523032379871, 37.43027860414859 ], [ -121.91711827384276, 37.43028405913963 ], [ -121.917097757597716, 37.431708117627458 ], [ -121.916502504862791, 37.431702662357253 ], [ -121.916488819048993, 37.432652034299942 ], [ -121.917084079299059, 37.432657489756245 ], [ -121.917063560648046, 37.43408154765482 ], [ -121.91646828912458, 37.43407609191933 ], [ -121.916475132593234, 37.433601406085479 ], [ -121.915284597543661, 37.433590485809589 ], [ -121.915277746559283, 37.434065171457156 ], [ -121.914682475517594, 37.434059706730473 ], [ -121.914675620614602, 37.434534392245531 ], [ -121.912889797180682, 37.43451797980314 ], [ -121.912882930842784, 37.43499266499898 ], [ -121.912287652928754, 37.434987188097203 ], [ -121.912280782671687, 37.435461873160314 ], [ -121.91168550116069, 37.435456393167918 ], [ -121.911644253684003, 37.438304502160548 ], [ -121.912239557745551, 37.438309982713804 ], [ -121.912232686360511, 37.438784667501857 ], [ -121.912827994341953, 37.438790145151025 ], [ -121.912821126554562, 37.439264829993206 ], [ -121.913416438455897, 37.439270304738201 ], [ -121.913409574266367, 37.43974498963447 ], [ -121.91221894310695, 37.439734036960068 ], [ -121.912212071238415, 37.440208721630242 ], [ -121.911616752141413, 37.440203240703056 ], [ -121.911609876352628, 37.440677925240436 ], [ -121.911014553657822, 37.440672441221992 ], [ -121.911000794078035, 37.441621809991787 ], [ -121.911596124291265, 37.441627294197311 ], [ -121.911589248018657, 37.44210197861679 ], [ -121.912184582152506, 37.442107459917928 ], [ -121.912170836642446, 37.443056828826002 ], [ -121.912766178456437, 37.44306230731609 ], [ -121.91275930921924, 37.443536991804613 ], [ -121.913354654953977, 37.443542467390074 ], [ -121.913340923515705, 37.444491836436043 ], [ -121.912745570261478, 37.444486360663802 ], [ -121.912704349521263, 37.447334466298202 ], [ -121.913299725336103, 37.447339942630819 ], [ -121.91329285840915, 37.447814626859078 ], [ -121.913888238145461, 37.447820100286556 ], [ -121.913881374817962, 37.448294784568866 ], [ -121.915072142294406, 37.448305722614748 ], [ -121.91506528632712, 37.448780407044318 ], [ -121.916256061967971, 37.448791333282138 ], [ -121.916262910414034, 37.448316648666243 ], [ -121.916858294714814, 37.448322107194066 ], [ -121.916865139239746, 37.447847422445768 ], [ -121.918055900801804, 37.447858330319583 ], [ -121.918049063797923, 37.448333015253915 ], [ -121.918644448580068, 37.448338464785927 ], [ -121.918630781612592, 37.449287834722625 ], [ -121.918035389309139, 37.449282385004722 ], [ -121.918028551824193, 37.449757069821196 ], [ -121.917433155920278, 37.449751617011593 ], [ -121.917412631220301, 37.451175670946292 ], [ -121.918008038407123, 37.451181124034896 ], [ -121.918001200280656, 37.45165580869422 ], [ -121.91859661138902, 37.451661258876847 ], [ -121.918589776863399, 37.452135943589823 ], [ -121.920971437943876, 37.452157714701904 ], [ -121.92096461830333, 37.452632399746904 ], [ -121.92036919903174, 37.452626961374669 ], [ -121.920335079621623, 37.455000385546626 ], [ -121.920930517701265, 37.455005824382596 ], [ -121.92092369710096, 37.455480509191879 ], [ -121.919137372056653, 37.455464183407528 ], [ -121.919130540010499, 37.455938867899093 ], [ -121.918535094887474, 37.455933419879294 ], [ -121.918541930695596, 37.455458735480626 ], [ -121.917946489494867, 37.455453284554352 ], [ -121.917967007242552, 37.454029231401464 ], [ -121.918562437157988, 37.454034682048871 ], [ -121.918582942177508, 37.452610628263521 ], [ -121.9179875235466, 37.452605177894988 ], [ -121.91799436199382, 37.452130493314236 ], [ -121.917398947284639, 37.45212504003964 ], [ -121.917405789332705, 37.451650355512612 ], [ -121.916810378545222, 37.451644899332045 ], [ -121.916817224193949, 37.451170214858777 ], [ -121.91562641062302, 37.451159293686999 ], [ -121.91563326363331, 37.4506846093607 ], [ -121.915037860849964, 37.450679144369659 ], [ -121.915044717460461, 37.450204460097254 ], [ -121.914449318598869, 37.450198992200612 ], [ -121.914456178809445, 37.449724307982173 ], [ -121.913860783869609, 37.449718837180036 ], [ -121.913867647680036, 37.449244153015606 ], [ -121.912676865804968, 37.449233202601839 ], [ -121.912690607985425, 37.448283834528617 ], [ -121.912095224810827, 37.448278355010594 ], [ -121.912102099419798, 37.447803671008501 ], [ -121.911506720166969, 37.447798188585395 ], [ -121.911513598375109, 37.447323504637488 ], [ -121.910918223043964, 37.447318019309428 ], [ -121.910925104851131, 37.446843335415771 ], [ -121.910329733441714, 37.44683784718282 ], [ -121.91033661884768, 37.446363163343477 ], [ -121.90855051686934, 37.446346680935193 ], [ -121.908543620182726, 37.446821364493424 ], [ -121.906757508379584, 37.446804854818261 ], [ -121.906750600250362, 37.447279538055618 ], [ -121.90555985233766, 37.447268516425467 ], [ -121.905552936525694, 37.447743199435529 ], [ -121.904957559052235, 37.447737684028716 ], [ -121.904950639317633, 37.448212366905388 ], [ -121.904355258246028, 37.448206848405952 ], [ -121.904334486786496, 37.449630896517753 ], [ -121.904929879139971, 37.449636415299558 ], [ -121.904922958756117, 37.450111098018986 ], [ -121.905518355032711, 37.450116613896157 ], [ -121.905511438247444, 37.450591296670346 ], [ -121.90610683844713, 37.450596809642768 ], [ -121.906099925260634, 37.451071492471662 ], [ -121.90729073366829, 37.451082509607943 ], [ -121.907283827841795, 37.451557192585419 ], [ -121.908474644419513, 37.451568197913907 ], [ -121.908447049584154, 37.453466930181499 ], [ -121.909042473160994, 37.453472428722428 ], [ -121.909035577809149, 37.453947111784835 ], [ -121.909631005309251, 37.453952607420341 ], [ -121.909624113557314, 37.454427290537168 ], [ -121.910219544980663, 37.454432783267166 ], [ -121.910198880040369, 37.455856832662803 ], [ -121.910794322910704, 37.455862322674434 ], [ -121.910787438036124, 37.456337005821325 ], [ -121.911382884829919, 37.456342492927135 ], [ -121.91137600355593, 37.456817176128297 ], [ -121.912566905151792, 37.45682814152854 ], [ -121.91256003124073, 37.457302824877409 ], [ -121.91732367416347, 37.457346567243746 ], [ -121.917303141759703, 37.458770619292459 ], [ -121.917898609135463, 37.458776073869217 ], [ -121.917891768442374, 37.459250757899895 ], [ -121.917296297304048, 37.459245303230119 ], [ -121.917275762973858, 37.460669354807308 ], [ -121.917871245400406, 37.460674809756149 ], [ -121.917857562570092, 37.461624177463868 ], [ -121.91845305268302, 37.461629629598711 ], [ -121.918446214790279, 37.462104313486599 ], [ -121.919041708826654, 37.462109762714327 ], [ -121.919034874536706, 37.462584446655853 ], [ -121.91963037249657, 37.462589892976339 ], [ -121.919623541809614, 37.463064576971455 ], [ -121.922005550303481, 37.463086332622893 ], [ -121.921998734509771, 37.463561016949704 ], [ -121.923785253849232, 37.46357730246374 ], [ -121.923792058352745, 37.463102617859228 ], [ -121.924387561355147, 37.463108040270889 ], [ -121.924394361935768, 37.462633355534621 ], [ -121.924989861334367, 37.462638774853652 ], [ -121.925003454490721, 37.461689405078438 ], [ -121.925598946522385, 37.461694821212575 ], [ -121.925632907809288, 37.459321395625366 ], [ -121.925037434591999, 37.45931597995304 ], [ -121.925044230134091, 37.458841294810114 ], [ -121.924448760838814, 37.45883587623036 ], [ -121.924455559984011, 37.458361191140575 ], [ -121.923860094610703, 37.458355769653508 ], [ -121.923866897358863, 37.457881084616915 ], [ -121.923271435907566, 37.457875660222641 ], [ -121.923278242258505, 37.457400975239253 ], [ -121.922682784729162, 37.457395547937885 ], [ -121.922696404476525, 37.45644617803837 ], [ -121.922100954631304, 37.456440747922613 ], [ -121.922107768027473, 37.455966063006535 ], [ -121.923894106756009, 37.455982344077647 ], [ -121.923887304646044, 37.456457029271377 ], [ -121.924482754970157, 37.456462450388628 ], [ -121.9244759564628, 37.456937135635535 ], [ -121.92507141070854, 37.456942553845671 ], [ -121.925064615803976, 37.457417239145705 ], [ -121.925660073971343, 37.457422654448635 ], [ -121.925653282669771, 37.45789733980174 ], [ -121.927439669414298, 37.45791356798955 ], [ -121.927446449428814, 37.45743888235971 ], [ -121.928041908232771, 37.45744428566416 ], [ -121.928048684326001, 37.456969599902891 ], [ -121.928644139526639, 37.456975000115619 ], [ -121.928637367195705, 37.457449685968982 ], [ -121.92923282631746, 37.457455083274176 ], [ -121.929212519658904, 37.458879140874778 ], [ -121.929807990226792, 37.458884535456313 ], [ -121.929801224785734, 37.459359221336634 ], [ -121.930396699274951, 37.459364613010351 ], [ -121.930389937437923, 37.459839298943351 ], [ -121.930985415848468, 37.459844687709108 ], [ -121.930978657615654, 37.460319373694723 ], [ -121.931574139947543, 37.460324759552449 ], [ -121.931567385319141, 37.460799445590659 ], [ -121.932162871572388, 37.460804828540219 ], [ -121.932156120548541, 37.461279514630952 ], [ -121.93275161072313, 37.461284894672261 ], [ -121.932744863304052, 37.461759580815482 ], [ -121.935722335364659, 37.461786436479116 ], [ -121.935715606603324, 37.462261123041039 ], [ -121.936311105252486, 37.462266485264863 ], [ -121.936304380096601, 37.462741171878982 ], [ -121.936899882666793, 37.462746531194007 ], [ -121.936893161116572, 37.463221217860259 ], [ -121.937488667607809, 37.463226574266415 ], [ -121.937481949663393, 37.463701260984749 ], [ -121.939863992257145, 37.463722656971413 ], [ -121.939857289209485, 37.464197344015346 ], [ -121.940452804014782, 37.46420268560226 ], [ -121.940446104573596, 37.464677372698027 ], [ -121.943423699773774, 37.464704036081308 ] ], [ [ -121.917919130252074, 37.457352021541453 ], [ -121.91732367416347, 37.457346567243746 ], [ -121.917330517977021, 37.456871883148921 ], [ -121.917925970303401, 37.45687733735361 ], [ -121.917919130252074, 37.457352021541453 ] ], [ [ -121.916331386041136, 37.443569800346111 ], [ -121.915140693123902, 37.443558876157951 ], [ -121.915147547322618, 37.44308419129618 ], [ -121.915742889941271, 37.443089654796118 ], [ -121.915749740219667, 37.442614969801852 ], [ -121.916345079239449, 37.442620430210617 ], [ -121.91635877179543, 37.441671059917951 ], [ -121.916954103456945, 37.441676517142568 ], [ -121.916933575660451, 37.44310057280186 ], [ -121.916338232720577, 37.443095115298007 ], [ -121.916331386041136, 37.443569800346111 ] ], [ [ -121.917604138936895, 37.437884487138355 ], [ -121.917008837186771, 37.43787903365584 ], [ -121.917015678180974, 37.437404348043202 ], [ -121.917610976172469, 37.437409801432707 ], [ -121.917604138936895, 37.437884487138355 ] ] ] } }
]
}
