{
"type": "FeatureCollection",
"name": "emi20240807t172838p12003-A_l3a-vis-ch4-mfa-v3_plume-outline",
"crs": { "type": "name", "properties": { "name": "urn:ogc:def:crs:OGC:1.3:CRS84" } },
"features": [
{ "type": "Feature", "properties": { "plume_id": "emi20240807t172838p12003-A", "plume_lat": 37.46205055669374, "plume_lon": -121.94322820769055, "plume_area_sqm": 1909474.5810525119 }, "geometry": { "type": "Polygon", "coordinates": [ [ [ -121.943878485720376, 37.471774743156779 ], [ -121.943885190887727, 37.471298228567306 ], [ -121.945080920753824, 37.47130891079707 ], [ -121.945087618175336, 37.470832395985205 ], [ -121.945685479550988, 37.470837732472255 ], [ -121.945692173020916, 37.470361217529515 ], [ -121.946290030760267, 37.470366550900984 ], [ -121.946303409639782, 37.469413520714255 ], [ -121.945705559487948, 37.469408187525353 ], [ -121.945712252485094, 37.468931672463974 ], [ -121.945114406284475, 37.468926336342292 ], [ -121.945121102917554, 37.46844982133269 ], [ -121.944523260668149, 37.468444482278358 ], [ -121.944529960937004, 37.46796796732059 ], [ -121.942736446516093, 37.467951932287967 ], [ -121.942743158007218, 37.467475417565147 ], [ -121.946330165508783, 37.467507459866255 ], [ -121.946336854082304, 37.467030944555404 ], [ -121.946934685424353, 37.46703627426399 ], [ -121.946941370047199, 37.466559758822349 ], [ -121.947539197753471, 37.466565085415887 ], [ -121.947565919499056, 37.464659022889236 ], [ -121.946968106964661, 37.464653696660406 ], [ -121.947001524570553, 37.462271118068301 ], [ -121.946403731156366, 37.462265789271996 ], [ -121.946443849843121, 37.459406694203949 ], [ -121.945846079338793, 37.459401362931906 ], [ -121.94585276902734, 37.458924847040116 ], [ -121.945255002472294, 37.45891951283636 ], [ -121.945261695794969, 37.458442996996325 ], [ -121.94466393318919, 37.458437659860955 ], [ -121.944677326944856, 37.45748462824502 ], [ -121.944079572079772, 37.457479288269553 ], [ -121.944086272512493, 37.457002772493681 ], [ -121.943488521596564, 37.456997429586863 ], [ -121.943495225662801, 37.456520913862924 ], [ -121.942897478695997, 37.456515568024862 ], [ -121.942904186395594, 37.456039052352878 ], [ -121.941110957816804, 37.456022996977275 ], [ -121.941117676731778, 37.455546481540608 ], [ -121.940519937979559, 37.455541123795157 ], [ -121.94052666052734, 37.455064608410673 ], [ -121.941124395488558, 37.455069966064414 ], [ -121.941131114087156, 37.454593450548657 ], [ -121.941728845415639, 37.454598805088182 ], [ -121.941735560065212, 37.454122289441202 ], [ -121.942333287760974, 37.454127640866609 ], [ -121.942360129615892, 37.452221577516795 ], [ -121.941762417082586, 37.45221622645785 ], [ -121.941769130941751, 37.451739710613154 ], [ -121.941171422356916, 37.451734356623632 ], [ -121.941178139848276, 37.451257840831047 ], [ -121.939385026414001, 37.451241761004653 ], [ -121.939391755117811, 37.450765245447805 ], [ -121.937000954584576, 37.450743763737243 ], [ -121.936994210720016, 37.451220278926307 ], [ -121.934005694675875, 37.451193358330713 ], [ -121.93399893170124, 37.451669873019327 ], [ -121.933401225179495, 37.451664479741545 ], [ -121.933394458255293, 37.452140994298254 ], [ -121.932796748102547, 37.452135597905915 ], [ -121.93276966365022, 37.454041655367611 ], [ -121.932171938494676, 37.454036255583318 ], [ -121.932165163192266, 37.454512769757386 ], [ -121.931567434405466, 37.454507366858181 ], [ -121.931553875740249, 37.455460394902616 ], [ -121.932151612108825, 37.455465797986818 ], [ -121.93213806038726, 37.456418826058005 ], [ -121.931540316436497, 37.456413422788792 ], [ -121.93152675649425, 37.457366450516702 ], [ -121.932124508027528, 37.457371853970905 ], [ -121.9321109550296, 37.458324881725552 ], [ -121.931513195913439, 37.458319478086331 ], [ -121.931499634694063, 37.459272505497687 ], [ -121.932097401393449, 37.459277909321912 ], [ -121.932077069742462, 37.460707450419719 ], [ -121.932674847976926, 37.460712851498343 ], [ -121.932668074232808, 37.461189365210927 ], [ -121.933265856418828, 37.46119476335884 ], [ -121.933259086307331, 37.46167127712426 ], [ -121.935052445197755, 37.461687453705736 ], [ -121.935038927250105, 37.462640481671748 ], [ -121.935636721449839, 37.462645868003477 ], [ -121.93562996602968, 37.463122382019343 ], [ -121.936227764180899, 37.463127765419877 ], [ -121.936221012394185, 37.463604279488344 ], [ -121.937416616758412, 37.463615037403315 ], [ -121.937409872397893, 37.464091551616391 ], [ -121.939203291512797, 37.464107666088687 ], [ -121.939196558371535, 37.464584180538054 ], [ -121.940392179493017, 37.464594908585603 ], [ -121.940378727906193, 37.465547937732936 ], [ -121.939780909680564, 37.465542575037361 ], [ -121.939774179856641, 37.466019089459898 ], [ -121.939176357996516, 37.466013723648778 ], [ -121.93916962422108, 37.466490237939908 ], [ -121.938571798726429, 37.466484869013151 ], [ -121.938565060999323, 37.466961383172837 ], [ -121.937967231870175, 37.466956011130328 ], [ -121.937947006356978, 37.468385553096105 ], [ -121.938544846866037, 37.468390925414475 ], [ -121.938538108504304, 37.468867439415909 ], [ -121.939135952965515, 37.468872808802203 ], [ -121.939129218238705, 37.46934932285599 ], [ -121.940324915223954, 37.469360052740114 ], [ -121.940311460469488, 37.47031308109635 ], [ -121.940909316787213, 37.470318441685777 ], [ -121.940902592966225, 37.470794955896309 ], [ -121.941500453236145, 37.470800313553234 ], [ -121.941493733050805, 37.471276827815927 ], [ -121.942091597272892, 37.471282182540257 ], [ -121.942084880723371, 37.471758696855062 ], [ -121.943878485720376, 37.471774743156779 ] ] ] } }
]
}
