{
"type": "FeatureCollection",
"name": "emi20240926t213956p14002-A_l3a-vis-ch4-mfa-v3_plume-outline",
"crs": { "type": "name", "properties": { "name": "urn:ogc:def:crs:OGC:1.3:CRS84" } },
"features": [
{ "type": "Feature", "properties": { "plume_id": "emi20240926t213956p14002-A", "plume_lat": 37.459618047653152, "plume_lon": -121.9424858151001, "plume_area_sqm": 1668609.2217340602 }, "geometry": { "type": "Polygon", "coordinates": [ [ [ -121.944959486772504, 37.466487601245184 ], [ -121.944966144014387, 37.466013916930152 ], [ -121.945560415464044, 37.466019221756575 ], [ -121.945567068802063, 37.465545537312195 ], [ -121.946161336659387, 37.465550839060455 ], [ -121.946167986093712, 37.465077154486785 ], [ -121.946762250358674, 37.465082453157002 ], [ -121.946768895889477, 37.464608768454092 ], [ -121.947363156562091, 37.464614064046351 ], [ -121.947389722139164, 37.462719324483544 ], [ -121.94679547645724, 37.462714029251728 ], [ -121.946802121210382, 37.462240344353454 ], [ -121.946207879431427, 37.462235046224208 ], [ -121.946214527776391, 37.461761361377029 ], [ -121.945620289900418, 37.46175606035046 ], [ -121.945626941837048, 37.461282375554411 ], [ -121.945032707864044, 37.461277071630626 ], [ -121.945039363392155, 37.460803386885758 ], [ -121.945633593617998, 37.460808690719283 ], [ -121.94564024524324, 37.460335005845081 ], [ -121.946234471877645, 37.460340306601033 ], [ -121.946261061834349, 37.458445566352687 ], [ -121.945666850187465, 37.458440265957549 ], [ -121.945673501034349, 37.457966580887977 ], [ -121.945079293289766, 37.457961277595963 ], [ -121.945085947727563, 37.457487592577579 ], [ -121.944491743885294, 37.457482286388803 ], [ -121.944498401913819, 37.457008601421634 ], [ -121.943904201973865, 37.457003292336189 ], [ -121.943910863592919, 37.4565296074203 ], [ -121.94331666755528, 37.456524295438285 ], [ -121.94332333276472, 37.456050610573726 ], [ -121.941540756826981, 37.456034656977756 ], [ -121.941534080378673, 37.456508341570824 ], [ -121.94034568970882, 37.456497690724667 ], [ -121.940352373649674, 37.456024006312859 ], [ -121.939758182295634, 37.45601867650015 ], [ -121.93976486982622, 37.455544992139949 ], [ -121.938576495080142, 37.455534323735542 ], [ -121.938583189946414, 37.455060639517811 ], [ -121.937989006554446, 37.45505530092629 ], [ -121.937995705010024, 37.454581616760329 ], [ -121.936807346188516, 37.454570930798923 ], [ -121.936827463089472, 37.453149878612088 ], [ -121.936233295151524, 37.453144531424378 ], [ -121.936240004216927, 37.452670847374925 ], [ -121.935645840181635, 37.45266549729174 ], [ -121.935652552835549, 37.452191813294242 ], [ -121.935058392702928, 37.452186460315694 ], [ -121.935065108945196, 37.451712776370201 ], [ -121.933282640727143, 37.451696699789657 ], [ -121.933289368048264, 37.451223016078679 ], [ -121.932695216035739, 37.451217651337075 ], [ -121.932701946944675, 37.450743967678314 ], [ -121.93210779883492, 37.450738600041753 ], [ -121.9321145333315, 37.450264916435245 ], [ -121.930332101183808, 37.450248795882409 ], [ -121.930325355451728, 37.450722479214569 ], [ -121.928542913489508, 37.450706331511206 ], [ -121.928536156363833, 37.451180014529434 ], [ -121.927942005614071, 37.451174625897458 ], [ -121.92793524458493, 37.451648308784897 ], [ -121.927341090248049, 37.451642917074871 ], [ -121.927327560224185, 37.452590282548904 ], [ -121.926139237043756, 37.452579489802517 ], [ -121.926132464303166, 37.453053172297203 ], [ -121.92553829920513, 37.453047771352445 ], [ -121.925531522560391, 37.453521453716107 ], [ -121.924937353875279, 37.453516049692901 ], [ -121.924930573326208, 37.453989731925482 ], [ -121.924336401054077, 37.453984324823736 ], [ -121.924309262286855, 37.455879052994881 ], [ -121.924903449542782, 37.455884460464709 ], [ -121.924896668200134, 37.456358142501728 ], [ -121.925490859360949, 37.456363547076755 ], [ -121.925484081605831, 37.456837229166638 ], [ -121.926672471895813, 37.456848029539984 ], [ -121.926679242158372, 37.456374347266291 ], [ -121.927867625589641, 37.456385135508469 ], [ -121.927860862819642, 37.45685881796576 ], [ -121.929049254376594, 37.456869594443944 ], [ -121.929042498941016, 37.457343277045517 ], [ -121.930230898623179, 37.457354041759302 ], [ -121.930203905272563, 37.459248772507301 ], [ -121.930798120337002, 37.459254150749828 ], [ -121.930791375351276, 37.459727833430605 ], [ -121.931385594320417, 37.459733208777457 ], [ -121.931378852923757, 37.460206891510602 ], [ -121.931973075797586, 37.460212263961658 ], [ -121.931966337990133, 37.46068594674712 ], [ -121.932560564768664, 37.460691316302295 ], [ -121.932553830550631, 37.461164999140031 ], [ -121.934336523072901, 37.461181090155414 ], [ -121.934329799938808, 37.461654773227878 ], [ -121.9349240348416, 37.461660131016096 ], [ -121.934917315297412, 37.462133814140621 ], [ -121.935511554104792, 37.462139169032518 ], [ -121.93550483815072, 37.462612852209091 ], [ -121.936099080862647, 37.462618204204588 ], [ -121.936092368498848, 37.46309188743313 ], [ -121.937875108819341, 37.463107925767261 ], [ -121.937881809940706, 37.4626342422658 ], [ -121.938476053280525, 37.462639582311112 ], [ -121.938469355906662, 37.463113265903452 ], [ -121.9390636031507, 37.463118603052038 ], [ -121.939056909367665, 37.463592286696112 ], [ -121.939651160515993, 37.463597620947859 ], [ -121.939644470323927, 37.464071304643625 ], [ -121.9420214914729, 37.464092612136632 ], [ -121.942014816115346, 37.464566296155887 ], [ -121.942609075541156, 37.464571615650371 ], [ -121.942595731853118, 37.465518983752666 ], [ -121.943189998930919, 37.465524300440329 ], [ -121.943183330600689, 37.465997984523341 ], [ -121.943777601582624, 37.466003298313538 ], [ -121.943770936844459, 37.46647698244788 ], [ -121.944959486772504, 37.466487601245184 ] ], [ [ -121.932040445199263, 37.455475433956572 ], [ -121.930257889446793, 37.45545931038567 ], [ -121.930271383911048, 37.454511944464258 ], [ -121.932053917187545, 37.454528067486379 ], [ -121.932040445199263, 37.455475433956572 ] ] ] } }
]
}
