{
  "type": "FeatureCollection",
  "name": "emi20240420t101448p07050-A_l3a-vis-ch4-mfa-v3_plume-outline",
  "crs": {
    "type": "name",
    "properties": {
      "name": "urn:ogc:def:crs:OGC:1.3:CRS84"
    }
  },
  "features": [
    {
      "type": "Feature",
      "properties": {
        "plume_id": "emi20240420t101448p07050-A",
        "plume_lat": 15.586459832180779,
        "plume_lon": 46.036003399263535,
        "plume_area_sqm": 16988409.814784024
      },
      "geometry": {
        "type": "Polygon",
        "coordinates": [
          [
            [
              46.00870964179168,
              15.594112003118465
            ],
            [
              46.00870703137959,
              15.593577458023846
            ],
            [
              46.00815550760177,
              15.593579987334362
            ],
            [
              46.008152898717086,
              15.593045442122392
            ],
            [
              46.007601376265185,
              15.59304796995921
            ],
            [
              46.00759094743956,
              15.59090978848396
            ],
            [
              46.00814246418548,
              15.59090726101084
            ],
            [
              46.008139855804366,
              15.59037271566703
            ],
            [
              46.0048307623783,
              15.590387859223066
            ],
            [
              46.00482816265573,
              15.589853313308113
            ],
            [
              46.004276648159376,
              15.589855832304815
            ],
            [
              46.004274049963435,
              15.589321286272865
            ],
            [
              46.00372253679303,
              15.589323803796567
            ],
            [
              46.0037043622126,
              15.585581980200883
            ],
            [
              46.00315285892419,
              15.585584495708547
            ],
            [
              46.003155453566166,
              15.586119042106095
            ],
            [
              46.00260394875168,
              15.586121556322187
            ],
            [
              46.00260654206793,
              15.58665610278385
            ],
            [
              46.00205503572736,
              15.586658615708284
            ],
            [
              46.002057627717775,
              15.587193162234009
            ],
            [
              46.001506119851136,
              15.58719567386667
            ],
            [
              46.0015087105156,
              15.58773022045642
            ],
            [
              45.999854182037495,
              15.587737747332092
            ],
            [
              45.99985159565116,
              15.587203200471526
            ],
            [
              45.999300087384675,
              15.587205706575427
            ],
            [
              45.99929750252421,
              15.58667115959833
            ],
            [
              45.9987459955839,
              15.586673664229911
            ],
            [
              45.99874341224918,
              15.58613911713634
            ],
            [
              45.99708889510771,
              15.586146622468137
            ],
            [
              45.99709147416461,
              15.58668116983178
            ],
            [
              45.99653996682557,
              15.586683668934777
            ],
            [
              45.99654254455607,
              15.587218216361991
            ],
            [
              45.99488801766392,
              15.587225705647548
            ],
            [
              45.99488544421143,
              15.586691157950854
            ],
            [
              45.99433393647454,
              15.586693651525243
            ],
            [
              45.99433136454737,
              15.586159103712472
            ],
            [
              45.99377985813712,
              15.586161595815033
            ],
            [
              45.99377214722904,
              15.58455795194962
            ],
            [
              45.99432364936178,
              15.584555460116091
            ],
            [
              45.9943210778319,
              15.584020912197936
            ],
            [
              45.99376957712488,
              15.584023403941794
            ],
            [
              45.993767007119985,
              15.58348885590762
            ],
            [
              45.99321550773938,
              15.58349134617995
            ],
            [
              45.99321037087855,
              15.58242224985333
            ],
            [
              45.992658874249926,
              15.582424738564654
            ],
            [
              45.992653740636875,
              15.581355641953522
            ],
            [
              45.99320523441454,
              15.581353153421349
            ],
            [
              45.99320266633133,
              15.580818605165845
            ],
            [
              45.99375415858439,
              15.580816115341632
            ],
            [
              45.99375158917504,
              15.580281567149404
            ],
            [
              45.994303079903496,
              15.58027907603325
            ],
            [
              45.99430050916812,
              15.579744527904367
            ],
            [
              45.99540348747648,
              15.579739541706875
            ],
            [
              45.99540606106243,
              15.580274089656271
            ],
            [
              45.99595755149279,
              15.58027159439545
            ],
            [
              45.995954976481556,
              15.579737046535877
            ],
            [
              45.996506465387164,
              15.579734549983366
            ],
            [
              45.996503889050175,
              15.579200002187314
            ],
            [
              45.995952401569795,
              15.579202498649956
            ],
            [
              45.99594982675751,
              15.578667950737703
            ],
            [
              45.995398340602826,
              15.578670445729069
            ],
            [
              45.995395767315124,
              15.578135897700651
            ],
            [
              45.99484428248615,
              15.578138391220838
            ],
            [
              45.99483913905906,
              15.577069294905476
            ],
            [
              45.993736174803246,
              15.577074277443007
            ],
            [
              45.993733606088654,
              15.576539729066434
            ],
            [
              45.99318212523681,
              15.576542218173696
            ],
            [
              45.993179558046364,
              15.576007669681177
            ],
            [
              45.99152511917062,
              15.576015128447125
            ],
            [
              45.991522556353914,
              15.575480579659716
            ],
            [
              45.99097107795539,
              15.575483063063286
            ],
            [
              45.990968516662505,
              15.57494851416013
            ],
            [
              45.99041703958982,
              15.574950996093218
            ],
            [
              45.99041192015039,
              15.573881898029192
            ],
            [
              45.98986044582823,
              15.57388437840257
            ],
            [
              45.989863004073804,
              15.574418927537064
            ],
            [
              45.98876005228358,
              15.574423884319401
            ],
            [
              45.9887574968874,
              15.573889335006426
            ],
            [
              45.98710307273571,
              15.573896759554914
            ],
            [
              45.98710562385781,
              15.57443130913525
            ],
            [
              45.98600267108097,
              15.574436252107352
            ],
            [
              45.986000122808264,
              15.573901702349028
            ],
            [
              45.985448647696806,
              15.573904171674618
            ],
            [
              45.985446100947215,
              15.573369621801055
            ],
            [
              45.984894627162,
              15.5733720896568
            ],
            [
              45.984892081935406,
              15.572837539668043
            ],
            [
              45.984340609476426,
              15.57284000605404
            ],
            [
              45.98433806577273,
              15.57230545595014
            ],
            [
              45.98378659463998,
              15.57230792086649
            ],
            [
              45.983778968391995,
              15.570704270130589
            ],
            [
              45.983227501434286,
              15.570706733399945
            ],
            [
              45.98322496097242,
              15.570172183013296
            ],
            [
              45.982673495340855,
              15.570174644813303
            ],
            [
              45.9826608016251,
              15.567501892042015
            ],
            [
              45.98321226013589,
              15.567499430685345
            ],
            [
              45.983209720263126,
              15.566964880140823
            ],
            [
              45.98376117725175,
              15.566962417492478
            ],
            [
              45.983756094952945,
              15.565893316501926
            ],
            [
              45.98430754899553,
              15.56589085265078
            ],
            [
              45.98430500656965,
              15.5653563022048
            ],
            [
              45.984856459090125,
              15.565353837062228
            ],
            [
              45.98485391533876,
              15.564819286678764
            ],
            [
              45.985405366337126,
              15.564816820244872
            ],
            [
              45.98540027628205,
              15.563747719576732
            ],
            [
              45.98595172433466,
              15.563745251940528
            ],
            [
              45.98594917803111,
              15.56321070165591
            ],
            [
              45.98650062456168,
              15.563208232728634
            ],
            [
              45.98649807693303,
              15.562673682506666
            ],
            [
              45.98704952194156,
              15.562671212288416
            ],
            [
              45.987046972987926,
              15.56213666212916
            ],
            [
              45.987598416474405,
              15.562134190620043
            ],
            [
              45.98759331601598,
              15.561065090400717
            ],
            [
              45.988144756557055,
              15.56106261768993
            ],
            [
              45.988142205052434,
              15.56052806762992
            ],
            [
              45.98869364407153,
              15.560525593628517
            ],
            [
              45.98869109124231,
              15.559991043631356
            ],
            [
              45.989242528739425,
              15.559988568339428
            ],
            [
              45.98923997458571,
              15.559454018405173
            ],
            [
              45.989791410560855,
              15.55945154182282
            ],
            [
              45.98978885508275,
              15.558916991951518
            ],
            [
              45.99034028953592,
              15.558914514078843
            ],
            [
              45.99033517603005,
              15.557845414435937
            ],
            [
              45.990886607538215,
              15.557842935362396
            ],
            [
              45.9908840495106,
              15.557308385590845
            ],
            [
              45.99143547949686,
              15.55730590522723
            ],
            [
              45.99143292014525,
              15.556771355518782
            ],
            [
              45.9919843486096,
              15.556768873865193
            ],
            [
              45.99197922735763,
              15.555699774548293
            ],
            [
              45.99253065287726,
              15.555697291694335
            ],
            [
              45.99252809097706,
              15.555162742085937
            ],
            [
              45.993079514974845,
              15.555160257942255
            ],
            [
              45.993076951751036,
              15.55462570839711
            ],
            [
              45.99362837422697,
              15.554623222963802
            ],
            [
              45.99362580967966,
              15.554088673481955
            ],
            [
              45.99417723063375,
              15.554086186759132
            ],
            [
              45.994172098991584,
              15.553017087895835
            ],
            [
              45.994723517001304,
              15.553014599973286
            ],
            [
              45.994720949906615,
              15.55248005059189
            ],
            [
              45.99527236639455,
              15.552477561380059
            ],
            [
              45.99526979797674,
              15.551943012062114
            ],
            [
              45.9958212129429,
              15.551940521561118
            ],
            [
              45.99581864320208,
              15.551405972306668
            ],
            [
              45.99637005664646,
              15.551403480516596
            ],
            [
              45.99637262780965,
              15.551938029681198
            ],
            [
              45.99692404257694,
              15.551935536422365
            ],
            [
              45.99691632511882,
              15.550331889119352
            ],
            [
              45.99746773551967,
              15.550329394751433
            ],
            [
              45.99746516181046,
              15.549794845687785
            ],
            [
              45.998016570689536,
              15.549792350031092
            ],
            [
              45.99801399565776,
              15.54925780103114
            ],
            [
              46.000219624488686,
              15.5492478049777
            ],
            [
              46.00022220520902,
              15.549782353617182
            ],
            [
              46.000773613589416,
              15.549779851066925
            ],
            [
              46.00077619583178,
              15.550314399589864
            ],
            [
              46.00132760553446,
              15.550311895570601
            ],
            [
              46.00133277316345,
              15.551380992357014
            ],
            [
              46.00243559795798,
              15.551375979820753
            ],
            [
              46.00243818476711,
              15.551910527993769
            ],
            [
              46.00298959843665,
              15.551908019566914
            ],
            [
              46.00299218676826,
              15.55244256762318
            ],
            [
              46.00409501665172,
              15.552437546451719
            ],
            [
              46.00408724342315,
              15.550833902747097
            ],
            [
              46.00353583279856,
              15.550836413750678
            ],
            [
              46.00353324334508,
              15.55030186570599
            ],
            [
              46.00298183404256,
              15.550304375240277
            ],
            [
              46.00297665828044,
              15.549235278891024
            ],
            [
              46.0024252517221,
              15.549237786865676
            ],
            [
              46.00241232117871,
              15.546565045080122
            ],
            [
              46.002963720627214,
              15.546562537557667
            ],
            [
              46.002955959236644,
              15.544958892442107
            ],
            [
              46.003507354319794,
              15.544956383812709
            ],
            [
              46.003504765968195,
              15.544421835478756
            ],
            [
              46.004056159529554,
              15.544419325561634
            ],
            [
              46.00405356985653,
              15.543884777291925
            ],
            [
              46.00515635383538,
              15.543879753504282
            ],
            [
              46.00515894635155,
              15.544414301592772
            ],
            [
              46.00571033961208,
              15.544411787541037
            ],
            [
              46.00571293365021,
              15.544946335512543
            ],
            [
              46.006264328231985,
              15.544943819991868
            ],
            [
              46.00628769188975,
              15.549754749735483
            ],
            [
              46.00739050634617,
              15.549749712924772
            ],
            [
              46.007393105654735,
              15.550284260360929
            ],
            [
              46.00904733085154,
              15.550276694531835
            ],
            [
              46.009044727276454,
              15.54974214736849
            ],
            [
              46.010698947300206,
              15.549734569403974
            ],
            [
              46.01070155514181,
              15.550269116294054
            ],
            [
              46.012907186116074,
              15.55025899267467
            ],
            [
              46.01290979974745,
              15.550793539173409
            ],
            [
              46.013461208660594,
              15.550791004730335
            ],
            [
              46.01346382381536,
              15.55132555111137
            ],
            [
              46.0140152340496,
              15.55132301519808
            ],
            [
              46.01401785072786,
              15.551857561461377
            ],
            [
              46.01456926228321,
              15.551855024077765
            ],
            [
              46.01457188048507,
              15.552389570223255
            ],
            [
              46.01512329336152,
              15.552387031369227
            ],
            [
              46.0151259130871,
              15.552921577396877
            ],
            [
              46.01567732728464,
              15.552919037072334
            ],
            [
              46.01567994853404,
              15.553453582982073
            ],
            [
              46.016231364052686,
              15.553451041186918
            ],
            [
              46.01623398682602,
              15.553985586978706
            ],
            [
              46.01678540366575,
              15.553983043712837
            ],
            [
              46.01679065236204,
              15.555052135034083
            ],
            [
              46.01734207194551,
              15.555049590205666
            ],
            [
              46.01735257624734,
              15.55718777216537
            ],
            [
              46.01790400142038,
              15.557185225590619
            ],
            [
              46.017906629172685,
              15.557719770922954
            ],
            [
              46.018458055667026,
              15.557717222876999
            ],
            [
              46.01846331432251,
              15.558786313279011
            ],
            [
              46.01901474356118,
              15.558783763669858
            ],
            [
              46.01902263657645,
              15.560387398799751
            ],
            [
              46.01847120306836,
              15.560389948684579
            ],
            [
              46.01847383285367,
              15.56092449376711
            ],
            [
              46.01792239782064,
              15.560927042364112
            ],
            [
              46.01792502628434,
              15.561461587512156
            ],
            [
              46.01847646274068,
              15.561459038823312
            ],
            [
              46.01847909272937,
              15.561993583853193
            ],
            [
              46.019030530507386,
              15.56199103369269
            ],
            [
              46.01903842535402,
              15.563594668348633
            ],
            [
              46.01848698330559,
              15.563597218784821
            ],
            [
              46.01848961370105,
              15.564131763709362
            ],
            [
              46.019041057173055,
              15.564129213181282
            ],
            [
              46.01904368909385,
              15.564663757987603
            ],
            [
              46.01959513388775,
              15.564661205987566
            ],
            [
              46.01959776733398,
              15.565195750675597
            ],
            [
              46.02014921344975,
              15.5651931972035
            ],
            [
              46.020151848421534,
              15.565727741773213
            ],
            [
              46.02070329585919,
              15.565725186828956
            ],
            [
              46.02070593235663,
              15.566259731280269
            ],
            [
              46.02236027832926,
              15.566252057890129
            ],
            [
              46.02236291920017,
              15.566786602038672
            ],
            [
              46.02346581885262,
              15.566781479359664
            ],
            [
              46.02346846267342,
              15.567316023297323
            ],
            [
              46.02401991377028,
              15.567313459795097
            ],
            [
              46.024022559117235,
              15.56784800361407
            ],
            [
              46.0245740115358,
              15.567845438639148
            ],
            [
              46.02457136476489,
              15.567310894912566
            ],
            [
              46.02567426644712,
              15.5673057610066
            ],
            [
              46.02567691606593,
              15.567840304548241
            ],
            [
              46.0262283681774,
              15.567837735432263
            ],
            [
              46.02623101932264,
              15.568372278855007
            ],
            [
              46.02678247275564,
              15.56836970826609
            ],
            [
              46.026787778201715,
              15.569438794847356
            ],
            [
              46.02733923438036,
              15.569436222692746
            ],
            [
              46.02734454308495,
              15.570505308983329
            ],
            [
              46.02789600200939,
              15.570502735262838
            ],
            [
              46.02790397010872,
              15.572106364222973
            ],
            [
              46.028455433203504,
              15.572103788843652
            ],
            [
              46.028466064471104,
              15.574241960050545
            ],
            [
              46.02956900174869,
              15.574236804407104
            ],
            [
              46.02957166267168,
              15.574771346957288
            ],
            [
              46.030123132580925,
              15.574768766971262
            ],
            [
              46.030125795031445,
              15.575303309402184
            ],
            [
              46.03067726626253,
              15.575300727942228
            ],
            [
              46.03068525850582,
              15.576904354797982
            ],
            [
              46.031236733908436,
              15.576901771677992
            ],
            [
              46.031239399620326,
              15.577436313817515
            ],
            [
              46.03179087634488,
              15.577433729223294
            ],
            [
              46.03179354358475,
              15.577968271243394
            ],
            [
              46.03289649957462,
              15.577963097725007
            ],
            [
              46.03289916976761,
              15.578497639532506
            ],
            [
              46.033450649032865,
              15.578495050608195
            ],
            [
              46.033453320754106,
              15.579029592296115
            ],
            [
              46.03400480134124,
              15.579027001897225
            ],
            [
              46.034007474590844,
              15.579561543465534
            ],
            [
              46.03455895649984,
              15.579558951591968
            ],
            [
              46.03456430615932,
              15.580628034462858
            ],
            [
              46.03511579081544,
              15.580625441021171
            ],
            [
              46.03511846722547,
              15.58115998232371
            ],
            [
              46.035669953203524,
              15.581157387407092
            ],
            [
              46.03567530918452,
              15.58222646974624
            ],
            [
              46.036226797909904,
              15.582223873261153
            ],
            [
              46.03622947748104,
              15.582758414297714
            ],
            [
              46.03678096752839,
              15.582755816337453
            ],
            [
              46.03678364862854,
              15.58329035725413
            ],
            [
              46.03733513999786,
              15.583287757818601
            ],
            [
              46.03733782262715,
              15.583822298615347
            ],
            [
              46.03844080790604,
              15.583817095411737
            ],
            [
              46.038443493490206,
              15.584351635994848
            ],
            [
              46.038994987399725,
              15.584349032226617
            ],
            [
              46.03899767451329,
              15.584883572689645
            ],
            [
              46.03954916974471,
              15.584880967445802
            ],
            [
              46.039551858387796,
              15.58541550778869
            ],
            [
              46.040103354941124,
              15.585412901069141
            ],
            [
              46.04011142577094,
              15.58701652165809
            ],
            [
              46.03955992494008,
              15.587019128659058
            ],
            [
              46.03956530316079,
              15.588088209107369
            ],
            [
              46.039013799374125,
              15.588090814913732
            ],
            [
              46.03901648721417,
              15.588625355192054
            ],
            [
              46.03846498189765,
              15.588627959709921
            ],
            [
              46.03846766841537,
              15.589162500055561
            ],
            [
              46.03791616156899,
              15.589165103284818
            ],
            [
              46.03791884676426,
              15.589699643697733
            ],
            [
              46.03626432132471,
              15.589707445372296
            ],
            [
              46.03626700234495,
              15.590241986039489
            ],
            [
              46.03461247169502,
              15.590249775552993
            ],
            [
              46.034609794953504,
              15.589715234605569
            ],
            [
              46.03295526765215,
              15.58972301139752
            ],
            [
              46.03295259529255,
              15.589188470143934
            ],
            [
              46.03240108741185,
              15.589191059550012
            ],
            [
              46.03239841658157,
              15.58865651817688
            ],
            [
              46.03184691002387,
              15.588659106107528
            ],
            [
              46.031844240722805,
              15.588124564614906
            ],
            [
              46.03129273548812,
              15.588127151070218
            ],
            [
              46.03129006771616,
              15.587592609458158
            ],
            [
              46.03073856380449,
              15.587595194438228
            ],
            [
              46.03073589756152,
              15.587060652706779
            ],
            [
              46.02963289228131,
              15.587065818334526
            ],
            [
              46.02963022899314,
              15.586531276390824
            ],
            [
              46.02797572457938,
              15.586539014188036
            ],
            [
              46.02797838358977,
              15.587073556410164
            ],
            [
              46.02742688048715,
              15.58707613300444
            ],
            [
              46.02742953817424,
              15.587610675292902
            ],
            [
              46.02687803354301,
              15.587613250597705
            ],
            [
              46.02688068990669,
              15.588147792952451
            ],
            [
              46.02577767748446,
              15.588152939600665
            ],
            [
              46.02577502397286,
              15.587618397060748
            ],
            [
              46.02522351903407,
              15.58762096821899
            ],
            [
              46.02522617111963,
              15.58815551085142
            ],
            [
              46.02467466465238,
              15.58815808071993
            ],
            [
              46.02467996627847,
              15.589227166090582
            ],
            [
              46.02523147559797,
              15.589224596037145
            ],
            [
              46.025242085783624,
              15.591362766092052
            ],
            [
              46.02579360070588,
              15.59136019428622
            ],
            [
              46.02579890926613,
              15.592429278970362
            ],
            [
              46.025247391490964,
              15.592431850961223
            ],
            [
              46.02525004449826,
              15.59296639335623
            ],
            [
              46.02469852519413,
              15.59296896405692
            ],
            [
              46.02470117687726,
              15.59350350651802
            ],
            [
              46.024149656044166,
              15.59350607592844
            ],
            [
              46.024152306403,
              15.594040618455558
            ],
            [
              46.022497739010106,
              15.59404831866733
            ],
            [
              46.02249509293123,
              15.593513775863258
            ],
            [
              46.019185963948836,
              15.593529138398813
            ],
            [
              46.01918332653174,
              15.592994595015792
            ],
            [
              46.018631806104594,
              15.59299715050684
            ],
            [
              46.01862917021587,
              15.59246260700553
            ],
            [
              46.01807765111352,
              15.59246516102201
            ],
            [
              46.01807238249428,
              15.5913960737565
            ],
            [
              46.01752086614318,
              15.591398626206692
            ],
            [
              46.01751296825609,
              15.589794994835152
            ],
            [
              46.016961456082356,
              15.589797545627489
            ],
            [
              46.01696408718345,
              15.590332089536144
            ],
            [
              46.01641257348185,
              15.590334639037792
            ],
            [
              46.0164152032582,
              15.590869183011787
            ],
            [
              46.015863688028716,
              15.59087173122265
            ],
            [
              46.01586631648021,
              15.591406275261944
            ],
            [
              46.01476328286406,
              15.591411367719328
            ],
            [
              46.014760657265356,
              15.590876823496846
            ],
            [
              46.0142091417316,
              15.590879367560177
            ],
            [
              46.01420651766061,
              15.590344823219803
            ],
            [
              46.01365500345188,
              15.590347365809151
            ],
            [
              46.0136523809085,
              15.58981282135094
            ],
            [
              46.012549355039894,
              15.589817902199464
            ],
            [
              46.01254673545025,
              15.58928335753209
            ],
            [
              46.01199522379043,
              15.589285895791408
            ],
            [
              46.01200569705063,
              15.59142407466797
            ],
            [
              46.01145417958444,
              15.591426611910006
            ],
            [
              46.01146203131156,
              15.593030246064354
            ],
            [
              46.01091050946477,
              15.593032782197488
            ],
            [
              46.01091312548261,
              15.593567326954089
            ],
            [
              46.010361602108205,
              15.593569861795679
            ],
            [
              46.01036421680035,
              15.594104406617076
            ],
            [
              46.00870964179168,
              15.594112003118465
            ]
          ],
          [
            [
              46.008139855804366,
              15.59037271566703
            ],
            [
              46.00869137102321,
              15.590370186902357
            ],
            [
              46.0086887613165,
              15.589835641623155
            ],
            [
              46.00813724752395,
              15.589838170296858
            ],
            [
              46.008139855804366,
              15.59037271566703
            ]
          ],
          [
            [
              46.00414167496899,
              15.562059403707126
            ],
            [
              46.004693115373044,
              15.562056889422237
            ],
            [
              46.00469052096878,
              15.561522342111205
            ],
            [
              46.00524195984913,
              15.561519826537118
            ],
            [
              46.00523936412184,
              15.560985279290422
            ],
            [
              46.00579080147849,
              15.560982762427239
            ],
            [
              46.005788204428285,
              15.560448215244918
            ],
            [
              46.0068910759937,
              15.560443177560872
            ],
            [
              46.006888476197474,
              15.559908630533787
            ],
            [
              46.00633704188822,
              15.559911149974855
            ],
            [
              46.00633444361569,
              15.559376602830646
            ],
            [
              46.00578301062914,
              15.559379120801326
            ],
            [
              46.00577781723166,
              15.558310026252466
            ],
            [
              46.00522638699087,
              15.55831254266216
            ],
            [
              46.00522379186577,
              15.557777995257558
            ],
            [
              46.00467236294761,
              15.557780510197109
            ],
            [
              46.00466976934582,
              15.557245962675548
            ],
            [
              46.00411834175032,
              15.557248476145055
            ],
            [
              46.00411315769337,
              15.55617938084181
            ],
            [
              46.003561732843366,
              15.556181892750825
            ],
            [
              46.003556552032926,
              15.555112797161248
            ],
            [
              46.003005129928255,
              15.555115307509972
            ],
            [
              46.003002541095995,
              15.554580759585226
            ],
            [
              46.00245112031387,
              15.554583268464302
            ],
            [
              46.002453707723454,
              15.555117816479493
            ],
            [
              46.00190228541858,
              15.555120324069808
            ],
            [
              46.001904871505495,
              15.555654872149088
            ],
            [
              46.000802023750246,
              15.555659883372744
            ],
            [
              46.00080977407406,
              15.557263527994666
            ],
            [
              46.00136120227021,
              15.55726102280157
            ],
            [
              46.00136378733427,
              15.557795570865961
            ],
            [
              46.00191521685342,
              15.557793064203116
            ],
            [
              46.00191780344047,
              15.558327612150851
            ],
            [
              46.0024692342826,
              15.558325104018149
            ],
            [
              46.0024769989133,
              15.559928747432279
            ],
            [
              46.001925563801805,
              15.559931255836176
            ],
            [
              46.001928150788984,
              15.56046580367865
            ],
            [
              46.00247958732371,
              15.560463295184357
            ],
            [
              46.00248217583422,
              15.560997842910124
            ],
            [
              46.003033613692146,
              15.560995332945676
            ],
            [
              46.003036203726076,
              15.561529880554678
            ],
            [
              46.00413908198812,
              15.561524856305489
            ],
            [
              46.00414167496899,
              15.562059403707126
            ]
          ],
          [
            [
              45.99692661526201,
              15.552470085470768
            ],
            [
              45.9974780313522,
              15.552467590743065
            ],
            [
              45.997475457244704,
              15.551933041784613
            ],
            [
              45.99692404257694,
              15.551935536422365
            ],
            [
              45.99692661526201,
              15.552470085470768
            ]
          ]
        ]
      }
    }
  ]
}
