{
  "type": "FeatureCollection",
  "name": "emi20241023t083741p06026-A_l3a-vis-ch4-mfa-v3_plume-outline",
  "crs": {
    "type": "name",
    "properties": {
      "name": "urn:ogc:def:crs:OGC:1.3:CRS84"
    }
  },
  "features": [
    {
      "type": "Feature",
      "properties": {
        "plume_id": "emi20241023t083741p06026-A",
        "plume_lat": 15.58481761026998,
        "plume_lon": 46.03614163755776,
        "plume_area_sqm": 4308575.59613033
      },
      "geometry": {
        "type": "Polygon",
        "coordinates": [
          [
            [
              46.02720793374197,
              15.589849717340794
            ],
            [
              46.02720527614201,
              15.589315158020472
            ],
            [
              46.02389611341428,
              15.589330587878626
            ],
            [
              46.023893464474476,
              15.58879602797679
            ],
            [
              46.023341938421126,
              15.588798594688937
            ],
            [
              46.023339291009805,
              15.588264034668374
            ],
            [
              46.02278776628042,
              15.588266599905829
            ],
            [
              46.02278512039749,
              15.587732039766598
            ],
            [
              46.02223359699209,
              15.587734603529459
            ],
            [
              46.02222830838486,
              15.586665482987366
            ],
            [
              46.02167678772948,
              15.586668045183542
            ],
            [
              46.021674145005036,
              15.586133484780735
            ],
            [
              46.021122625673584,
              15.586136045502569
            ],
            [
              46.02111998447713,
              15.585601484981245
            ],
            [
              46.02056846646961,
              15.585604044228837
            ],
            [
              46.02055262998734,
              15.582396679994567
            ],
            [
              46.02110413944041,
              15.582394121299547
            ],
            [
              46.02110149895795,
              15.581859560593648
            ],
            [
              46.02165300688347,
              15.581857000608977
            ],
            [
              46.021650365077505,
              15.581322439968847
            ],
            [
              46.02220187147548,
              15.581319878694622
            ],
            [
              46.02219922834613,
              15.580785318120327
            ],
            [
              46.021096218299,
              15.58079043910275
            ],
            [
              46.021098858577474,
              15.581324999861376
            ],
            [
              46.02054735197546,
              15.581327558372204
            ],
            [
              46.020549990930434,
              15.581862119196566
            ],
            [
              46.01999848280098,
              15.581864676417739
            ],
            [
              46.02000112043234,
              15.582399237307778
            ],
            [
              46.01889810101673,
              15.582404347788804
            ],
            [
              46.01889546623648,
              15.581869786714824
            ],
            [
              46.01834395780154,
              15.581872339790738
            ],
            [
              46.018346591156245,
              15.58240690095661
            ],
            [
              46.01669206096466,
              15.582414552169205
            ],
            [
              46.01669469014424,
              15.582949113584107
            ],
            [
              46.01393713066649,
              15.582961838426899
            ],
            [
              46.01393975281927,
              15.583496400273418
            ],
            [
              46.013388239193986,
              15.58349894118784
            ],
            [
              46.01339086002231,
              15.58403350309945
            ],
            [
              46.012287829616646,
              15.584038580965297
            ],
            [
              46.012290447694625,
              15.584573143033294
            ],
            [
              46.00953286278288,
              15.584585813969476
            ],
            [
              46.00953808498346,
              15.585654938938395
            ],
            [
              46.0089865648466,
              15.585657469161678
            ],
            [
              46.008989174672195,
              15.586192031697644
            ],
            [
              46.008437653008585,
              15.586194560629805
            ],
            [
              46.00844026150896,
              15.586729123230418
            ],
            [
              46.006785691635855,
              15.586736702006567
            ],
            [
              46.006783087413545,
              15.586202139133238
            ],
            [
              46.00623156534732,
              15.586204662536701
            ],
            [
              46.00622896265155,
              15.585670099546213
            ],
            [
              46.00567744191076,
              15.585672621476744
            ],
            [
              46.00567484074143,
              15.585138058369145
            ],
            [
              46.0040202821943,
              15.585145615595978
            ],
            [
              46.00401768540299,
              15.584611052190064
            ],
            [
              46.003466167112485,
              15.58461356841096
            ],
            [
              46.003463571847284,
              15.584079004888132
            ],
            [
              46.002912054882344,
              15.584081519636488
            ],
            [
              46.00290427396527,
              15.582477828638371
            ],
            [
              46.00345578665311,
              15.582475314161522
            ],
            [
              46.00345059702483,
              15.581406186878691
            ],
            [
              46.00289908718811,
              15.581408701174535
            ],
            [
              46.0028964939498,
              15.580874137403098
            ],
            [
              46.00234498543839,
              15.58087665022675
            ],
            [
              46.00234239372567,
              15.58034208633851
            ],
            [
              46.00179088653957,
              15.580344597690074
            ],
            [
              46.00178570626518,
              15.579275469653748
            ],
            [
              46.0023372106006,
              15.579272958482987
            ],
            [
              46.00233461918823,
              15.578738394515705
            ],
            [
              46.00288612199828,
              15.578735882053852
            ],
            [
              46.00288352926083,
              15.578201318150684
            ],
            [
              46.003435030545496,
              15.578198804397841
            ],
            [
              46.003427248658866,
              15.576595112801744
            ],
            [
              46.003978745568034,
              15.57659259793911
            ],
            [
              46.00397615038128,
              15.576058034111611
            ],
            [
              46.004527645765194,
              15.576055517958288
            ],
            [
              46.004525049253786,
              15.575520954195031
            ],
            [
              46.00617953052856,
              15.57551339771974
            ],
            [
              46.00618213131474,
              15.576047961210904
            ],
            [
              46.007285121178725,
              15.576042916473147
            ],
            [
              46.007282517542706,
              15.575508353163626
            ],
            [
              46.007834010898904,
              15.575505828813792
            ],
            [
              46.00782619632003,
              15.573902138999856
            ],
            [
              46.008377685301156,
              15.573899613541677
            ],
            [
              46.00837507921815,
              15.573365050308617
            ],
            [
              46.00892656667385,
              15.573362523560403
            ],
            [
              46.00892395926691,
              15.572827960391999
            ],
            [
              46.00947544519722,
              15.572825432353852
            ],
            [
              46.00947283646645,
              15.572290869250144
            ],
            [
              46.01112728937851,
              15.572283277123544
            ],
            [
              46.01112467647498,
              15.571748714266919
            ],
            [
              46.012779124204634,
              15.571741109986325
            ],
            [
              46.01278174138173,
              15.572275672569077
            ],
            [
              46.01333322518059,
              15.57227313495585
            ],
            [
              46.013335843883404,
              15.57280769742087
            ],
            [
              46.013887329005634,
              15.572805158335326
            ],
            [
              46.01388994923429,
              15.573339720682565
            ],
            [
              46.0144414356799,
              15.573337180124618
            ],
            [
              46.01444667929041,
              15.574406304557076
            ],
            [
              46.016652635456786,
              15.574396127782698
            ],
            [
              46.01665526311318,
              15.57493068959295
            ],
            [
              46.01775824343695,
              15.574925592735859
            ],
            [
              46.01775561293098,
              15.574391031109133
            ],
            [
              46.01830710151563,
              15.574388480700764
            ],
            [
              46.01830446968658,
              15.57385391913953
            ],
            [
              46.01940744370128,
              15.573848814363439
            ],
            [
              46.019410078379785,
              15.574383375740837
            ],
            [
              46.021064542912285,
              15.57437570794304
            ],
            [
              46.021061903959605,
              15.573841146841742
            ],
            [
              46.022164876955365,
              15.573836028255597
            ],
            [
              46.02216751875749,
              15.574370589172572
            ],
            [
              46.022719006527,
              15.574368027715757
            ],
            [
              46.02272164985599,
              15.574902588514139
            ],
            [
              46.02327313894812,
              15.574900025583995
            ],
            [
              46.023275783804074,
              15.575434586263729
            ],
            [
              46.023827274218846,
              15.575432021860145
            ],
            [
              46.02383521367474,
              15.577035703464198
            ],
            [
              46.02438670826206,
              15.577033137402308
            ],
            [
              46.024389356376915,
              15.57756769779189
            ],
            [
              46.02494085228697,
              15.577565130256264
            ],
            [
              46.024938202747066,
              15.57703056995913
            ],
            [
              46.0254896971297,
              15.577028001134652
            ],
            [
              46.02548704626717,
              15.576493440903635
            ],
            [
              46.02714152452537,
              15.576485726420215
            ],
            [
              46.027144179662855,
              15.577020286373468
            ],
            [
              46.02769567363546,
              15.57701771202383
            ],
            [
              46.02769833030058,
              15.577552271858028
            ],
            [
              46.02824982559559,
              15.577549696034366
            ],
            [
              46.02825248378844,
              15.578084255749475
            ],
            [
              46.02880398040585,
              15.578081678451687
            ],
            [
              46.02880664012655,
              15.578616238047632
            ],
            [
              46.029358138066335,
              15.578613659275625
            ],
            [
              46.02936079931499,
              15.579148218752378
            ],
            [
              46.03046379773648,
              15.579143056878241
            ],
            [
              46.03046646193846,
              15.57967761614279
            ],
            [
              46.031017962420094,
              15.579675033040512
            ],
            [
              46.031020628150316,
              15.580209592185714
            ],
            [
              46.03157212995427,
              15.580207007608866
            ],
            [
              46.031574797212826,
              15.580741566634657
            ],
            [
              46.03378080909919,
              15.580731214138865
            ],
            [
              46.033783482162434,
              15.581265772765628
            ],
            [
              46.03488649033711,
              15.581260588041365
            ],
            [
              46.03488916635454,
              15.581795146455145
            ],
            [
              46.03709518716486,
              15.581784760052734
            ],
            [
              46.03709786898772,
              15.58231931806628
            ],
            [
              46.03875238778448,
              15.582311513475554
            ],
            [
              46.03875507398763,
              15.582846071181818
            ],
            [
              46.039306581471344,
              15.58284346679431
            ],
            [
              46.039309269203876,
              15.583378024380453
            ],
            [
              46.03986077800939,
              15.583375418517349
            ],
            [
              46.0398634672714,
              15.583909975983326
            ],
            [
              46.040414977398726,
              15.58390736864453
            ],
            [
              46.04041766819034,
              15.584441925990285
            ],
            [
              46.04096917963945,
              15.584439317175697
            ],
            [
              46.040974564386076,
              15.585508431600271
            ],
            [
              46.04042305008535,
              15.585511040602631
            ],
            [
              46.04042843239609,
              15.586580155109429
            ],
            [
              46.039876915139594,
              15.58658276291741
            ],
            [
              46.03987960502486,
              15.587117320225065
            ],
            [
              46.039328086238484,
              15.587119926744675
            ],
            [
              46.03933077480157,
              15.587654484119737
            ],
            [
              46.038779254485306,
              15.587657089350875
            ],
            [
              46.03878194172611,
              15.588191646793282
            ],
            [
              46.03767889793011,
              15.588196853296113
            ],
            [
              46.03768158242233,
              15.588731410899461
            ],
            [
              46.03437243999117,
              15.588746997793276
            ],
            [
              46.03437511602966,
              15.589281555931043
            ],
            [
              46.03327206487289,
              15.58928674068992
            ],
            [
              46.03326939168686,
              15.588752182365623
            ],
            [
              46.03271786737985,
              15.588754772578236
            ],
            [
              46.03271519572323,
              15.588220214134353
            ],
            [
              46.03161214965213,
              15.588225390226231
            ],
            [
              46.03161481845638,
              15.588759948856351
            ],
            [
              46.0305117691207,
              15.588765119604975
            ],
            [
              46.030514435175526,
              15.589299678394744
            ],
            [
              46.02996290892698,
              15.589302261788436
            ],
            [
              46.02996557365846,
              15.589836820644773
            ],
            [
              46.02720793374197,
              15.589849717340794
            ]
          ],
          [
            [
              46.02219922834613,
              15.580785318120327
            ],
            [
              46.02440524721472,
              15.580775059575739
            ],
            [
              46.024402598485956,
              15.580240499344333
            ],
            [
              46.02385109534753,
              15.58024306596056
            ],
            [
              46.02384844814641,
              15.579708505610405
            ],
            [
              46.02274544441346,
              15.579713634513444
            ],
            [
              46.02274808876394,
              15.580248195048231
            ],
            [
              46.02219658531888,
              15.580250757519664
            ],
            [
              46.02219922834613,
              15.580785318120327
            ]
          ]
        ]
      }
    }
  ]
}
