{"type":"FeatureCollection","features":[{"type":"Feature","properties":{"lower":0.0,"upper":500.0,"color":"#160b39"},"geometry":{"type":"Polygon","coordinates":[[[-70.873238565,-33.519702424],[-70.873217457,-33.519683413],[-70.872893707,-33.519592524],[-70.872887158,-33.519702424],[-70.872893707,-33.519714021],[-70.873144071,-33.519972332],[-70.873217457,-33.520026813],[-70.873267821,-33.519972332],[-70.873238565,-33.519702424]]]}},{"type":"Feature","properties":{"lower":0.0,"upper":500.0,"color":"#160b39"},"geometry":{"type":"Polygon","coordinates":[[[-70.874676884,-33.520512146],[-70.874512456,-33.520479931],[-70.874377627,-33.520512146],[-70.874512456,-33.520599218],[-70.874676884,-33.520512146]]]}},{"type":"Feature","properties":{"lower":0.0,"upper":500.0,"color":"#160b39"},"geometry":{"type":"Polygon","coordinates":[[[-70.872031874,-33.521051957],[-70.871922458,-33.520935349],[-70.871922458,-33.521051957],[-70.871922458,-33.52130797],[-70.872031874,-33.521051957]]]}},{"type":"Feature","properties":{"lower":0.0,"upper":500.0,"color":"#160b39"},"geometry":{"type":"Polygon","coordinates":[[[-70.871274959,-33.521051957],[-70.871274959,-33.52098887],[-70.871133095,-33.521051957],[-70.871274959,-33.521051957]]]}},{"type":"Feature","properties":{"lower":0.0,"upper":500.0,"color":"#160b39"},"geometry":{"type":"Polygon","coordinates":[[[-70.87030577,-33.521051957],[-70.87030371,-33.521051359],[-70.870299495,-33.521051957],[-70.87030371,-33.521051957],[-70.87030577,-33.521051957]]]}},{"type":"Feature","properties":{"lower":0.0,"upper":500.0,"color":"#160b39"},"geometry":{"type":"Polygon","coordinates":[[[-70.87095121,-33.521321861],[-70.87095121,-33.521176203],[-70.87062746,-33.52118606],[-70.87062746,-33.521321861],[-70.87062746,-33.521591765],[-70.87062746,-33.521861667],[-70.87062746,-33.522065309],[-70.870711253,-33.521861667],[-70.870896934,-33.521591765],[-70.87095121,-33.521519649],[-70.87095121,-33.521321861]]]}},{"type":"Feature","properties":{"lower":0.0,"upper":500.0,"color":"#160b39"},"geometry":{"type":"Polygon","coordinates":[[[-70.869656211,-33.521321861],[-70.869656211,-33.521176418],[-70.86954903,-33.521321861],[-70.869437202,-33.521591765],[-70.869398147,-33.521861667],[-70.869628718,-33.522131569],[-70.869656211,-33.522175096],[-70.869656211,-33.522131569],[-70.869656211,-33.521861667],[-70.869656211,-33.521591765],[-70.869656211,-33.521321861]]]}},{"type":"Feature","properties":{"lower":0.0,"upper":500.0,"color":"#160b39"},"geometry":{"type":"Polygon","coordinates":[[[-70.875826508,-33.521591765],[-70.875807454,-33.521558772],[-70.875766652,-33.521591765],[-70.875483704,-33.521704797],[-70.875189662,-33.521591765],[-70.875159955,-33.521488748],[-70.874836205,-33.521426183],[-70.874512456,-33.521589673],[-70.874511978,-33.521591765],[-70.874512456,-33.521592168],[-70.874836205,-33.521813841],[-70.874901466,-33.521861667],[-70.874877531,-33.522131569],[-70.874836205,-33.522203476],[-70.874768953,-33.52240147],[-70.874836205,-33.52252684],[-70.874959317,-33.522671369],[-70.875159955,-33.52285371],[-70.875276453,-33.522671369],[-70.875483704,-33.522562034],[-70.875648899,-33.522671369],[-70.875807454,-33.522848352],[-70.875931514,-33.522671369],[-70.876058293,-33.52240147],[-70.875839096,-33.522131569],[-70.875885733,-33.521861667],[-70.875826508,-33.521591765]],[[-70.875483704,-33.521861667],[-70.875807454,-33.521861667],[-70.875807454,-33.522131569],[-70.875807454,-33.52240147],[-70.875483704,-33.52240147],[-70.875159955,-33.52240147],[-70.875159955,-33.522131569],[-70.875159955,-33.521861667],[-70.875483704,-33.521861667]]]}},{"type":"Feature","properties":{"lower":0.0,"upper":500.0,"color":"#160b39"},"geometry":{"type":"Polygon","coordinates":[[[-70.872037304,-33.521591765],[-70.871922458,-33.521335962],[-70.871922458,-33.521591765],[-70.871598709,-33.521591765],[-70.871274959,-33.521591765],[-70.87105973,-33.521591765],[-70.871274959,-33.521852374],[-70.871279859,-33.521861667],[-70.871598709,-33.521861667],[-70.871922458,-33.521861667],[-70.871922458,-33.522131569],[-70.872029348,-33.522131569],[-70.872105662,-33.521861667],[-70.872037304,-33.521591765]]]}},{"type":"Feature","properties":{"lower":0.0,"upper":500.0,"color":"#160b39"},"geometry":{"type":"Polygon","coordinates":[[[-70.872955915,-33.52240147],[-70.872893707,-33.522163726],[-70.872857323,-33.52240147],[-70.872893707,-33.52256351],[-70.872955915,-33.52240147]]]}},{"type":"Feature","properties":{"lower":0.0,"upper":500.0,"color":"#160b39"},"geometry":{"type":"Polygon","coordinates":[[[-70.872276006,-33.52240147],[-70.872246208,-33.522365701],[-70.872246208,-33.52240147],[-70.872246208,-33.522455641],[-70.872276006,-33.52240147]]]}},{"type":"Feature","properties":{"lower":0.0,"upper":500.0,"color":"#160b39"},"geometry":{"type":"Polygon","coordinates":[[[-70.871274959,-33.52240147],[-70.871274959,-33.522173794],[-70.871225737,-33.52240147],[-70.871274959,-33.52244412],[-70.871274959,-33.52240147]]]}},{"type":"Feature","properties":{"lower":0.0,"upper":500.0,"color":"#160b39"},"geometry":{"type":"Polygon","coordinates":[[[-70.870608822,-33.522131569],[-70.87030371,-33.522131569],[-70.87030371,-33.52240147],[-70.870502999,-33.52240147],[-70.870608822,-33.522131569]]]}},{"type":"Feature","properties":{"lower":0.0,"upper":500.0,"color":"#160b39"},"geometry":{"type":"Polygon","coordinates":[[[-70.870673497,-33.522671369],[-70.87062746,-33.522645008],[-70.87062746,-33.522671369],[-70.87062746,-33.522783534],[-70.870673497,-33.522671369]]]}},{"type":"Feature","properties":{"lower":0.0,"upper":500.0,"color":"#160b39"},"geometry":{"type":"Polygon","coordinates":[[[-70.872065056,-33.522671369],[-70.871922458,-33.522671369],[-70.871681714,-33.522671369],[-70.871922458,-33.522886831],[-70.872065056,-33.522671369]]]}},{"type":"Feature","properties":{"lower":0.0,"upper":500.0,"color":"#160b39"},"geometry":{"type":"Polygon","coordinates":[[[-70.876940496,-33.523481064],[-70.876778703,-33.523438636],[-70.876707881,-33.523481064],[-70.876705045,-33.523750961],[-70.876680361,-33.524020856],[-70.876778703,-33.52415444],[-70.877102453,-33.524071491],[-70.877250153,-33.524020856],[-70.877271635,-33.523750961],[-70.877102453,-33.523533291],[-70.876940496,-33.523481064]]]}},{"type":"Feature","properties":{"lower":0.0,"upper":500.0,"color":"#160b39"},"geometry":{"type":"Polygon","coordinates":[[[-70.870423809,-33.523211167],[-70.87030371,-33.523211167],[-70.870249772,-33.523211167],[-70.87030371,-33.523237842],[-70.870423809,-33.523211167]]]}},{"type":"Feature","properties":{"lower":0.0,"upper":500.0,"color":"#160b39"},"geometry":{"type":"Polygon","coordinates":[[[-70.87295643,-33.525100431],[-70.872893707,-33.525085867],[-70.872826436,-33.525100431],[-70.872893707,-33.525100431],[-70.87295643,-33.525100431]]]}},{"type":"Feature","properties":{"lower":0.0,"upper":500.0,"color":"#160b39"},"geometry":{"type":"Polygon","coordinates":[[[-70.873478761,-33.525370322],[-70.873217457,-33.525189317],[-70.873217457,-33.525370322],[-70.873217457,-33.525640213],[-70.872893707,-33.525640213],[-70.872569958,-33.525640213],[-70.872569958,-33.525370322],[-70.872569958,-33.525190303],[-70.872352584,-33.525370322],[-70.872326829,-33.525640213],[-70.872246208,-33.525882268],[-70.872230966,-33.525910103],[-70.872246208,-33.525923825],[-70.872569958,-33.526053601],[-70.872666332,-33.525910103],[-70.872893707,-33.525846278],[-70.873217457,-33.525748571],[-70.873240289,-33.525640213],[-70.873478761,-33.525370322]]]}},{"type":"Feature","properties":{"lower":0.0,"upper":500.0,"color":"#160b39"},"geometry":{"type":"Polygon","coordinates":[[[-70.875729272,-33.525640213],[-70.875483704,-33.525455878],[-70.875159955,-33.525511344],[-70.874836205,-33.525580206],[-70.874588428,-33.525640213],[-70.874836205,-33.52571515],[-70.875159955,-33.525784525],[-70.875483704,-33.525783906],[-70.875729272,-33.525640213]]]}},{"type":"Feature","properties":{"lower":0.0,"upper":500.0,"color":"#160b39"},"geometry":{"type":"Polygon","coordinates":[[[-70.873631945,-33.525910103],[-70.873541207,-33.525860537],[-70.873325773,-33.525910103],[-70.873217457,-33.526163249],[-70.873203372,-33.526179992],[-70.873217457,-33.526182888],[-70.873541207,-33.526262191],[-70.873628741,-33.526179992],[-70.873631945,-33.525910103]]]}},{"type":"Feature","properties":{"lower":0.0,"upper":500.0,"color":"#160b39"},"geometry":{"type":"Polygon","coordinates":[[[-70.874309598,-33.526179992],[-70.874188706,-33.52599185],[-70.874113998,-33.526179992],[-70.874188706,-33.52639992],[-70.874309598,-33.526179992]]]}},{"type":"Feature","properties":{"lower":0.0,"upper":500.0,"color":"#160b39"},"geometry":{"type":"Polygon","coordinates":[[[-70.874857876,-33.527259539],[-70.874836205,-33.527242207],[-70.874831646,-33.527259539],[-70.874836205,-33.527276193],[-70.874857876,-33.527259539]]]}},{"type":"Feature","properties":{"lower":0.0,"upper":500.0,"color":"#160b39"},"geometry":{"type":"Polygon","coordinates":[[[-70.871600991,-33.527259539],[-70.871598709,-33.527253606],[-70.871596358,-33.527259539],[-70.871598709,-33.527261793],[-70.871600991,-33.527259539]]]}},{"type":"Feature","properties":{"lower":500.0,"upper":1000.0,"color":"#6a176e"},"geometry":{"type":"Polygon","coordinates":[[[-70.873217457,-33.518082956],[-70.872893707,-33.518082956],[-70.872893707,-33.51835287],[-70.872996073,-33.51835287],[-70.873217457,-33.518112432],[-70.873217457,-33.518082956]]]}},{"type":"Feature","properties":{"lower":500.0,"upper":1000.0,"color":"#6a176e"},"geometry":{"type":"Polygon","coordinates":[[[-70.872893707,-33.51835287],[-70.872569958,-33.51835287],[-70.872246208,-33.51835287],[-70.872246208,-33.518472201],[-70.87236719,-33.518622782],[-70.872246208,-33.518733389],[-70.871984481,-33.518892694],[-70.872246208,-33.518892694],[-70.872246208,-33.51903755],[-70.872569958,-33.51913063],[-70.872893707,-33.519021027],[-70.872893707,-33.518892694],[-70.872893707,-33.518622782],[-70.872893707,-33.51835287]]]}},{"type":"Feature","properties":{"lower":500.0,"upper":1000.0,"color":"#6a176e"},"geometry":{"type":"Polygon","coordinates":[[[-70.874011356,-33.519162605],[-70.873864956,-33.519000527],[-70.873658752,-33.518892694],[-70.873541207,-33.518892694],[-70.873541207,-33.519162605],[-70.873386976,-33.519162605],[-70.873217457,-33.519256603],[-70.872893707,-33.519223174],[-70.872569958,-33.519201599],[-70.872468636,-33.519432515],[-70.872412342,-33.519702424],[-70.872569958,-33.519789813],[-70.87274729,-33.519972332],[-70.872878512,-33.52024224],[-70.872893707,-33.520275636],[-70.873217457,-33.520470408],[-70.873277681,-33.520512146],[-70.873541207,-33.520666163],[-70.873845234,-33.520782052],[-70.873864956,-33.520789897],[-70.874188706,-33.520891272],[-70.874493232,-33.521051957],[-70.874188706,-33.521244817],[-70.874119837,-33.521321861],[-70.874120676,-33.521591765],[-70.874188706,-33.521692231],[-70.87438366,-33.521861667],[-70.874375514,-33.522131569],[-70.874237445,-33.52240147],[-70.874188706,-33.522469142],[-70.873864956,-33.522403236],[-70.873743593,-33.522671369],[-70.87381016,-33.522941269],[-70.873864956,-33.522962265],[-70.874188706,-33.522958095],[-70.874512456,-33.52295215],[-70.874836205,-33.523070838],[-70.875159955,-33.523090745],[-70.875438239,-33.523211167],[-70.875483704,-33.52336643],[-70.875722644,-33.523211167],[-70.875807454,-33.523196807],[-70.876021851,-33.522941269],[-70.876131204,-33.522714665],[-70.876262624,-33.522671369],[-70.876454953,-33.522583427],[-70.876767308,-33.52240147],[-70.876454953,-33.522244917],[-70.876400226,-33.522131569],[-70.876282967,-33.521861667],[-70.876131204,-33.521731042],[-70.87607619,-33.521591765],[-70.876042685,-33.521321861],[-70.876131204,-33.521232559],[-70.876454953,-33.521203822],[-70.876668775,-33.521321861],[-70.876657181,-33.521591765],[-70.876778703,-33.521848436],[-70.876778703,-33.521591765],[-70.876778703,-33.521321861],[-70.876778703,-33.521051957],[-70.876778703,-33.520782052],[-70.877102453,-33.520782052],[-70.877102453,-33.520704738],[-70.876778703,-33.520601533],[-70.876614023,-33.520512146],[-70.876454953,-33.520512146],[-70.876131204,-33.520512146],[-70.875807454,-33.520512146],[-70.875483704,-33.520512146],[-70.875469182,-33.520512146],[-70.875483704,-33.520520092],[-70.875692486,-33.520782052],[-70.87568265,-33.521051957],[-70.875483704,-33.521146395],[-70.875159955,-33.521072175],[-70.874836205,-33.52106349],[-70.874687629,-33.521051957],[-70.874836205,-33.521021429],[-70.875102579,-33.520782052],[-70.875048322,-33.520512146],[-70.874836205,-33.520257944],[-70.874695807,-33.52024224],[-70.874759584,-33.519972332],[-70.874512456,-33.519972332],[-70.874274686,-33.519972332],[-70.874188706,-33.520004697],[-70.874030022,-33.519972332],[-70.874188706,-33.519874881],[-70.874188706,-33.519702424],[-70.874188706,-33.519432515],[-70.874188706,-33.519328053],[-70.874011356,-33.519162605]],[[-70.873217457,-33.519683413],[-70.873238565,-33.519702424],[-70.873267821,-33.519972332],[-70.873217457,-33.520026813],[-70.873144071,-33.519972332],[-70.872893707,-33.519714021],[-70.872887158,-33.519702424],[-70.872893707,-33.519592524],[-70.873217457,-33.519683413]],[[-70.875807454,-33.521558772],[-70.875826508,-33.521591765],[-70.875885733,-33.521861667],[-70.875839096,-33.522131569],[-70.876058293,-33.52240147],[-70.875931514,-33.522671369],[-70.875807454,-33.522848352],[-70.875648899,-33.522671369],[-70.875483704,-33.522562034],[-70.875276453,-33.522671369],[-70.875159955,-33.52285371],[-70.874959317,-33.522671369],[-70.874836205,-33.52252684],[-70.874768953,-33.52240147],[-70.874836205,-33.522203476],[-70.874877531,-33.522131569],[-70.874901466,-33.521861667],[-70.874836205,-33.521813841],[-70.874512456,-33.521592168],[-70.874511978,-33.521591765],[-70.874512456,-33.521589673],[-70.874836205,-33.521426183],[-70.875159955,-33.521488748],[-70.875189662,-33.521591765],[-70.875483704,-33.521704797],[-70.875766652,-33.521591765],[-70.875807454,-33.521558772]],[[-70.874512456,-33.520479931],[-70.874676884,-33.520512146],[-70.874512456,-33.520599218],[-70.874377627,-33.520512146],[-70.874512456,-33.520479931]],[[-70.874512456,-33.522647111],[-70.874524561,-33.522671369],[-70.874512456,-33.522797251],[-70.874461575,-33.522671369],[-70.874512456,-33.522647111]]]}},{"type":"Feature","properties":{"lower":500.0,"upper":1000.0,"color":"#6a176e"},"geometry":{"type":"Polygon","coordinates":[[[-70.875483704,-33.519432515],[-70.875483704,-33.519367017],[-70.875336717,-33.519432515],[-70.875483704,-33.519432515]]]}},{"type":"Feature","properties":{"lower":500.0,"upper":1000.0,"color":"#6a176e"},"geometry":{"type":"Polygon","coordinates":[[[-70.875159955,-33.519972332],[-70.874892313,-33.519972332],[-70.875159955,-33.520085131],[-70.875159955,-33.519972332]]]}},{"type":"Feature","properties":{"lower":500.0,"upper":1000.0,"color":"#6a176e"},"geometry":{"type":"Polygon","coordinates":[[[-70.869979961,-33.519972332],[-70.869656211,-33.519972332],[-70.86951274,-33.519972332],[-70.869514883,-33.52024224],[-70.869656211,-33.520510674],[-70.8696613,-33.520512146],[-70.869979961,-33.520582323],[-70.87030371,-33.520622832],[-70.87062746,-33.520685489],[-70.870741292,-33.520782052],[-70.87062746,-33.520831753],[-70.87030371,-33.520854194],[-70.869979961,-33.520868406],[-70.869656211,-33.520936935],[-70.869456259,-33.521051957],[-70.869347739,-33.521321861],[-70.869332461,-33.521351704],[-70.869136841,-33.521591765],[-70.869186592,-33.521861667],[-70.869332461,-33.522038228],[-70.869421019,-33.522131569],[-70.86960171,-33.52240147],[-70.869656211,-33.522577],[-70.869656211,-33.52240147],[-70.869656211,-33.522175096],[-70.869628718,-33.522131569],[-70.869398147,-33.521861667],[-70.869437202,-33.521591765],[-70.86954903,-33.521321861],[-70.869656211,-33.521176418],[-70.869656211,-33.521051957],[-70.869979961,-33.521051957],[-70.870299495,-33.521051957],[-70.87030371,-33.521051359],[-70.87030577,-33.521051957],[-70.87062746,-33.521051957],[-70.87062746,-33.52118606],[-70.87095121,-33.521176203],[-70.87095121,-33.521051957],[-70.871133095,-33.521051957],[-70.871274959,-33.52098887],[-70.871274959,-33.520782052],[-70.871598709,-33.520782052],[-70.871922458,-33.520782052],[-70.871922458,-33.520935349],[-70.872031874,-33.521051957],[-70.871922458,-33.52130797],[-70.871922458,-33.521321861],[-70.871922458,-33.521335962],[-70.872037304,-33.521591765],[-70.872105662,-33.521861667],[-70.872029348,-33.522131569],[-70.872225499,-33.522131569],[-70.872246208,-33.522082501],[-70.872324609,-33.521861667],[-70.872266515,-33.521591765],[-70.872278874,-33.521321861],[-70.872266757,-33.521051957],[-70.872268162,-33.520782052],[-70.872246208,-33.520756229],[-70.871922458,-33.52066912],[-70.871598709,-33.520740374],[-70.871274959,-33.520726029],[-70.87095121,-33.520562112],[-70.870889951,-33.520512146],[-70.87062746,-33.520512146],[-70.87030371,-33.520512146],[-70.87030371,-33.52024224],[-70.870145659,-33.52024224],[-70.869979961,-33.520434977],[-70.869830441,-33.52024224],[-70.869979961,-33.520096941],[-70.869979961,-33.519972332]]]}},{"type":"Feature","properties":{"lower":500.0,"upper":1000.0,"color":"#6a176e"},"geometry":{"type":"Polygon","coordinates":[[[-70.86913875,-33.519972332],[-70.869008712,-33.519972332],[-70.868684962,-33.519972332],[-70.868361212,-33.519972332],[-70.868361212,-33.52024224],[-70.86843928,-33.52024224],[-70.868684962,-33.520076095],[-70.869008712,-33.52004023],[-70.86913875,-33.519972332]]]}},{"type":"Feature","properties":{"lower":500.0,"upper":1000.0,"color":"#6a176e"},"geometry":{"type":"Polygon","coordinates":[[[-70.877749952,-33.520512146],[-70.877749952,-33.520392321],[-70.877426202,-33.520270956],[-70.877314532,-33.520512146],[-70.877426202,-33.520512146],[-70.877749952,-33.520512146]]]}},{"type":"Feature","properties":{"lower":500.0,"upper":1000.0,"color":"#6a176e"},"geometry":{"type":"Polygon","coordinates":[[[-70.868361212,-33.52024224],[-70.868037463,-33.52024224],[-70.868037463,-33.520364298],[-70.868151116,-33.520512146],[-70.868361212,-33.520512146],[-70.868361212,-33.52024224]]]}},{"type":"Feature","properties":{"lower":500.0,"upper":1000.0,"color":"#6a176e"},"geometry":{"type":"Polygon","coordinates":[[[-70.869072531,-33.521051957],[-70.869008712,-33.52099026],[-70.869008712,-33.521051957],[-70.868822314,-33.521051957],[-70.869008712,-33.521210196],[-70.869072531,-33.521051957]]]}},{"type":"Feature","properties":{"lower":500.0,"upper":1000.0,"color":"#6a176e"},"geometry":{"type":"Polygon","coordinates":[[[-70.87095121,-33.521591765],[-70.87095121,-33.521519649],[-70.870896934,-33.521591765],[-70.870711253,-33.521861667],[-70.87062746,-33.522065309],[-70.87062746,-33.522131569],[-70.870608822,-33.522131569],[-70.870502999,-33.52240147],[-70.87062746,-33.52240147],[-70.87062746,-33.522645008],[-70.870673497,-33.522671369],[-70.87062746,-33.522783534],[-70.87062746,-33.522941269],[-70.87062746,-33.523211167],[-70.870423809,-33.523211167],[-70.87030371,-33.523237842],[-70.870249772,-33.523211167],[-70.869979961,-33.523211167],[-70.869954303,-33.523211167],[-70.869979961,-33.523249759],[-70.87030371,-33.523387785],[-70.87062746,-33.52339052],[-70.87095121,-33.523243192],[-70.870986177,-33.523211167],[-70.87095121,-33.523117852],[-70.870890105,-33.522941269],[-70.87095121,-33.52287102],[-70.871136225,-33.522671369],[-70.871274959,-33.522600897],[-70.871274959,-33.52244412],[-70.871225737,-33.52240147],[-70.871274959,-33.522173794],[-70.871274959,-33.522131569],[-70.871274959,-33.521861667],[-70.871279859,-33.521861667],[-70.871274959,-33.521852374],[-70.87105973,-33.521591765],[-70.87095121,-33.521591765]],[[-70.87095121,-33.522266283],[-70.871044805,-33.52240147],[-70.87095121,-33.52252649],[-70.870765927,-33.52240147],[-70.87095121,-33.522266283]]]}},{"type":"Feature","properties":{"lower":500.0,"upper":1000.0,"color":"#6a176e"},"geometry":{"type":"Polygon","coordinates":[[[-70.868389381,-33.521591765],[-70.868361212,-33.521437555],[-70.868361212,-33.521591765],[-70.868361212,-33.521607651],[-70.868389381,-33.521591765]]]}},{"type":"Feature","properties":{"lower":500.0,"upper":1000.0,"color":"#6a176e"},"geometry":{"type":"Polygon","coordinates":[[[-70.874007815,-33.521861667],[-70.873864956,-33.521791053],[-70.873606151,-33.521861667],[-70.873541207,-33.521890719],[-70.873217457,-33.522068139],[-70.873034917,-33.521861667],[-70.872893707,-33.521678018],[-70.872778018,-33.521861667],[-70.872749552,-33.522131569],[-70.872684851,-33.52240147],[-70.872701445,-33.522671369],[-70.872867979,-33.522941269],[-70.872893707,-33.522969448],[-70.873039738,-33.523211167],[-70.873217457,-33.523333989],[-70.873354396,-33.523211167],[-70.873425623,-33.522941269],[-70.873217457,-33.522675444],[-70.873213448,-33.522671369],[-70.873217457,-33.522647882],[-70.873302061,-33.52240147],[-70.873541207,-33.522261775],[-70.873864956,-33.522385905],[-70.873905957,-33.522131569],[-70.874007815,-33.521861667]],[[-70.872893707,-33.522163726],[-70.872955915,-33.52240147],[-70.872893707,-33.52256351],[-70.872857323,-33.52240147],[-70.872893707,-33.522163726]]]}},{"type":"Feature","properties":{"lower":500.0,"upper":1000.0,"color":"#6a176e"},"geometry":{"type":"Polygon","coordinates":[[[-70.868099798,-33.521861667],[-70.868037463,-33.521861667],[-70.868037463,-33.521943387],[-70.868099798,-33.521861667]]]}},{"type":"Feature","properties":{"lower":500.0,"upper":1000.0,"color":"#6a176e"},"geometry":{"type":"Polygon","coordinates":[[[-70.877102453,-33.522131569],[-70.8769887,-33.522131569],[-70.876788976,-33.52240147],[-70.877102453,-33.522556124],[-70.877102453,-33.52240147],[-70.877102453,-33.522131569]]]}},{"type":"Feature","properties":{"lower":500.0,"upper":1000.0,"color":"#6a176e"},"geometry":{"type":"Polygon","coordinates":[[[-70.872452431,-33.52240147],[-70.872246208,-33.522153928],[-70.872246208,-33.522365701],[-70.872276006,-33.52240147],[-70.872246208,-33.522455641],[-70.872246208,-33.522671369],[-70.872065056,-33.522671369],[-70.871922458,-33.522886831],[-70.871681714,-33.522671369],[-70.871598709,-33.522671369],[-70.871389824,-33.522671369],[-70.871598709,-33.522850388],[-70.871703572,-33.522941269],[-70.871922458,-33.523067972],[-70.872188127,-33.522941269],[-70.872246208,-33.522842357],[-70.872362011,-33.522671369],[-70.872452431,-33.52240147]]]}},{"type":"Feature","properties":{"lower":500.0,"upper":1000.0,"color":"#6a176e"},"geometry":{"type":"Polygon","coordinates":[[[-70.867075598,-33.522671369],[-70.867066214,-33.522652773],[-70.866742464,-33.522665778],[-70.866735499,-33.522671369],[-70.866667681,-33.522941269],[-70.866742464,-33.52298533],[-70.867066214,-33.523055979],[-70.86720707,-33.522941269],[-70.867075598,-33.522671369]]]}},{"type":"Feature","properties":{"lower":500.0,"upper":1000.0,"color":"#6a176e"},"geometry":{"type":"Polygon","coordinates":[[[-70.865600213,-33.522671369],[-70.865447466,-33.52242325],[-70.865447466,-33.522671369],[-70.865447466,-33.522849011],[-70.865600213,-33.522671369]]]}},{"type":"Feature","properties":{"lower":500.0,"upper":1000.0,"color":"#6a176e"},"geometry":{"type":"Polygon","coordinates":[[[-70.869656211,-33.522941269],[-70.869656211,-33.522745144],[-70.869609512,-33.522941269],[-70.869656211,-33.523010959],[-70.869656211,-33.522941269]]]}},{"type":"Feature","properties":{"lower":500.0,"upper":1000.0,"color":"#6a176e"},"geometry":{"type":"Polygon","coordinates":[[[-70.877346318,-33.523481064],[-70.877102453,-33.523232234],[-70.876778703,-33.523224961],[-70.876454953,-33.523405625],[-70.876330454,-33.523481064],[-70.876454953,-33.523596815],[-70.876524779,-33.523750961],[-70.876454953,-33.523983136],[-70.876444375,-33.524020856],[-70.876381849,-33.524290751],[-70.876364771,-33.524560645],[-70.876280088,-33.524830539],[-70.876131204,-33.524974211],[-70.875855282,-33.525100431],[-70.875807454,-33.525115085],[-70.875483704,-33.525106138],[-70.875455688,-33.525100431],[-70.875159955,-33.524997944],[-70.874836205,-33.525096783],[-70.87482341,-33.525100431],[-70.874836205,-33.52510576],[-70.875102097,-33.525370322],[-70.874836205,-33.525444852],[-70.874512456,-33.525454378],[-70.874317607,-33.525370322],[-70.874188706,-33.525228777],[-70.873864956,-33.525259141],[-70.87374382,-33.525100431],[-70.873559615,-33.524830539],[-70.873541207,-33.524786361],[-70.873522495,-33.524830539],[-70.873217457,-33.524934506],[-70.872893707,-33.524898031],[-70.872569958,-33.524930963],[-70.872246208,-33.525038718],[-70.872117699,-33.525100431],[-70.871922458,-33.525324194],[-70.871853392,-33.525370322],[-70.871598709,-33.525470208],[-70.871451225,-33.525640213],[-70.871303654,-33.525910103],[-70.871274959,-33.525981249],[-70.871225844,-33.526179992],[-70.871134508,-33.52644988],[-70.87095121,-33.526604459],[-70.87062746,-33.526614917],[-70.870332281,-33.526719767],[-70.870377435,-33.526989654],[-70.87030371,-33.527126073],[-70.870259643,-33.527259539],[-70.87030371,-33.527294664],[-70.870376563,-33.527259539],[-70.87062746,-33.527125035],[-70.870865066,-33.526989654],[-70.87095121,-33.526936757],[-70.871274959,-33.526888943],[-70.871399176,-33.526989654],[-70.871399469,-33.527259539],[-70.871598709,-33.527450535],[-70.871792152,-33.527259539],[-70.8717737,-33.526989654],[-70.87178358,-33.526719767],[-70.871825869,-33.52644988],[-70.871922458,-33.526334187],[-70.872246208,-33.526407153],[-70.872321888,-33.52644988],[-70.872246208,-33.52667527],[-70.872228994,-33.526719767],[-70.872246208,-33.526844343],[-70.872284141,-33.526989654],[-70.872526994,-33.527259539],[-70.872569958,-33.527259539],[-70.872893707,-33.527259539],[-70.87318655,-33.527259539],[-70.873217457,-33.527254299],[-70.873265927,-33.527259539],[-70.873217457,-33.52728271],[-70.873217457,-33.527529424],[-70.873541207,-33.527529424],[-70.873541207,-33.527259539],[-70.873864956,-33.527259539],[-70.874188706,-33.527259539],[-70.874512456,-33.527259539],[-70.874512456,-33.527416741],[-70.874554766,-33.527529424],[-70.874512456,-33.527613234],[-70.874512456,-33.527799308],[-70.874823102,-33.527799308],[-70.874836205,-33.527795561],[-70.875159955,-33.527751331],[-70.875159955,-33.527529424],[-70.875429423,-33.527529424],[-70.875483704,-33.527479454],[-70.875659776,-33.527529424],[-70.875807454,-33.527529424],[-70.875807454,-33.527259539],[-70.876131204,-33.527259539],[-70.876131204,-33.526989654],[-70.876435731,-33.526989654],[-70.876454953,-33.526965592],[-70.876454953,-33.526719767],[-70.876454953,-33.526584697],[-70.876281391,-33.526719767],[-70.876131204,-33.52681643],[-70.876086307,-33.526719767],[-70.875967259,-33.52644988],[-70.876121167,-33.526179992],[-70.876131204,-33.526172617],[-70.876454953,-33.526128197],[-70.876454953,-33.525910103],[-70.876454953,-33.525684134],[-70.876421967,-33.525640213],[-70.87618552,-33.525370322],[-70.876281706,-33.525100431],[-70.876454953,-33.524975561],[-70.876559764,-33.524830539],[-70.876677084,-33.524560645],[-70.876778703,-33.524502645],[-70.877070633,-33.524290751],[-70.877102453,-33.524277655],[-70.877426202,-33.524279884],[-70.877749952,-33.52414923],[-70.878073702,-33.52409238],[-70.878381119,-33.524290751],[-70.878397451,-33.524300623],[-70.878721201,-33.524320789],[-70.878721201,-33.524290751],[-70.878721201,-33.524162739],[-70.878593216,-33.524020856],[-70.878721201,-33.523857094],[-70.878721201,-33.523750961],[-70.878549794,-33.523750961],[-70.878397451,-33.523824794],[-70.878397451,-33.524020856],[-70.878073702,-33.524020856],[-70.877749952,-33.524020856],[-70.877749952,-33.523750961],[-70.877749952,-33.523731817],[-70.877426202,-33.523621168],[-70.877346318,-33.523481064]],[[-70.876778703,-33.523438636],[-70.876940496,-33.523481064],[-70.877102453,-33.523533291],[-70.877271635,-33.523750961],[-70.877250153,-33.524020856],[-70.877102453,-33.524071491],[-70.876778703,-33.52415444],[-70.876680361,-33.524020856],[-70.876705045,-33.523750961],[-70.876707881,-33.523481064],[-70.876778703,-33.523438636]],[[-70.875483704,-33.525455878],[-70.875729272,-33.525640213],[-70.875483704,-33.525783906],[-70.875159955,-33.525784525],[-70.874836205,-33.52571515],[-70.874588428,-33.525640213],[-70.874836205,-33.525580206],[-70.875159955,-33.525511344],[-70.875483704,-33.525455878]],[[-70.874188706,-33.52599185],[-70.874309598,-33.526179992],[-70.874188706,-33.52639992],[-70.874113998,-33.526179992],[-70.874188706,-33.52599185]],[[-70.873864956,-33.52607274],[-70.873925699,-33.526179992],[-70.873982616,-33.52644988],[-70.873864956,-33.526657319],[-70.873541207,-33.526506882],[-70.873465475,-33.52644988],[-70.873541207,-33.526429904],[-70.873807342,-33.526179992],[-70.873864956,-33.52607274]],[[-70.873541207,-33.525860537],[-70.873631945,-33.525910103],[-70.873628741,-33.526179992],[-70.873541207,-33.526262191],[-70.873217457,-33.526182888],[-70.873203372,-33.526179992],[-70.873217457,-33.526163249],[-70.873325773,-33.525910103],[-70.873541207,-33.525860537]],[[-70.872893707,-33.525085867],[-70.87295643,-33.525100431],[-70.873217457,-33.525100431],[-70.873217457,-33.525189317],[-70.873478761,-33.525370322],[-70.873240289,-33.525640213],[-70.873217457,-33.525748571],[-70.872893707,-33.525846278],[-70.872666332,-33.525910103],[-70.872569958,-33.526053601],[-70.872246208,-33.525923825],[-70.872230966,-33.525910103],[-70.872246208,-33.525882268],[-70.872326829,-33.525640213],[-70.872352584,-33.525370322],[-70.872569958,-33.525190303],[-70.872569958,-33.525100431],[-70.872826436,-33.525100431],[-70.872893707,-33.525085867]],[[-70.871598709,-33.527253606],[-70.871600991,-33.527259539],[-70.871598709,-33.527261793],[-70.871596358,-33.527259539],[-70.871598709,-33.527253606]],[[-70.874836205,-33.525884178],[-70.87494571,-33.525910103],[-70.874836205,-33.525971044],[-70.874512456,-33.525942305],[-70.87449566,-33.525910103],[-70.874512456,-33.525896663],[-70.874836205,-33.525884178]],[[-70.874836205,-33.527242207],[-70.874857876,-33.527259539],[-70.874836205,-33.527276193],[-70.874831646,-33.527259539],[-70.874836205,-33.527242207]]]}},{"type":"Feature","properties":{"lower":500.0,"upper":1000.0,"color":"#6a176e"},"geometry":{"type":"Polygon","coordinates":[[[-70.873722551,-33.523481064],[-70.873541207,-33.523428428],[-70.873471178,-33.523481064],[-70.873217457,-33.523701325],[-70.873091367,-33.523750961],[-70.873217457,-33.523791105],[-70.873541207,-33.523766579],[-70.873559005,-33.523750961],[-70.873722551,-33.523481064]]]}},{"type":"Feature","properties":{"lower":500.0,"upper":1000.0,"color":"#6a176e"},"geometry":{"type":"Polygon","coordinates":[[[-70.865678371,-33.523481064],[-70.865447466,-33.523223608],[-70.865123716,-33.523365736],[-70.864925411,-33.523481064],[-70.865123716,-33.523481064],[-70.865123716,-33.523518196],[-70.865447466,-33.523704615],[-70.865678371,-33.523481064]]]}},{"type":"Feature","properties":{"lower":500.0,"upper":1000.0,"color":"#6a176e"},"geometry":{"type":"Polygon","coordinates":[[[-70.867761088,-33.523750961],[-70.867713713,-33.523734238],[-70.867586919,-33.523750961],[-70.867427356,-33.524020856],[-70.867389963,-33.524060623],[-70.867389963,-33.524290751],[-70.867530077,-33.524290751],[-70.867713713,-33.524156457],[-70.868037463,-33.524065912],[-70.868053277,-33.524020856],[-70.868037463,-33.523992395],[-70.867761088,-33.523750961]]]}},{"type":"Feature","properties":{"lower":500.0,"upper":1000.0,"color":"#6a176e"},"geometry":{"type":"Polygon","coordinates":[[[-70.871605964,-33.524020856],[-70.871598709,-33.523993336],[-70.871274959,-33.523936542],[-70.871196908,-33.524020856],[-70.871158077,-33.524290751],[-70.871274959,-33.524435978],[-70.871474819,-33.524290751],[-70.871598709,-33.524034102],[-70.871605964,-33.524020856]]]}},{"type":"Feature","properties":{"lower":500.0,"upper":1000.0,"color":"#6a176e"},"geometry":{"type":"Polygon","coordinates":[[[-70.865852373,-33.524020856],[-70.865771215,-33.524000046],[-70.865756237,-33.524020856],[-70.865771215,-33.524020856],[-70.865852373,-33.524020856]]]}},{"type":"Feature","properties":{"lower":500.0,"upper":1000.0,"color":"#6a176e"},"geometry":{"type":"Polygon","coordinates":[[[-70.866418715,-33.524290751],[-70.866418715,-33.524081029],[-70.866094965,-33.524255174],[-70.866094965,-33.524290751],[-70.866094965,-33.524560645],[-70.866418715,-33.524560645],[-70.866418715,-33.524290751]]]}},{"type":"Feature","properties":{"lower":500.0,"upper":1000.0,"color":"#6a176e"},"geometry":{"type":"Polygon","coordinates":[[[-70.865447466,-33.524290751],[-70.865447466,-33.524247091],[-70.865415086,-33.524290751],[-70.865447466,-33.524290751]]]}},{"type":"Feature","properties":{"lower":500.0,"upper":1000.0,"color":"#6a176e"},"geometry":{"type":"Polygon","coordinates":[[[-70.864473363,-33.524290751],[-70.864152467,-33.524255323],[-70.864104226,-33.524290751],[-70.864152467,-33.524290751],[-70.864473363,-33.524290751]]]}},{"type":"Feature","properties":{"lower":500.0,"upper":1000.0,"color":"#6a176e"},"geometry":{"type":"Polygon","coordinates":[[[-70.863681628,-33.524020856],[-70.863504968,-33.524020856],[-70.863504968,-33.524152958],[-70.863681628,-33.524020856]]]}},{"type":"Feature","properties":{"lower":500.0,"upper":1000.0,"color":"#6a176e"},"geometry":{"type":"Polygon","coordinates":[[[-70.878191515,-33.524560645],[-70.878073702,-33.524440643],[-70.877749952,-33.524390215],[-70.877597403,-33.524560645],[-70.877507607,-33.524830539],[-70.877749952,-33.524830539],[-70.878073702,-33.524830539],[-70.878397451,-33.524830539],[-70.878489795,-33.524830539],[-70.878397451,-33.524814851],[-70.878191515,-33.524560645]]]}},{"type":"Feature","properties":{"lower":500.0,"upper":1000.0,"color":"#6a176e"},"geometry":{"type":"Polygon","coordinates":[[[-70.873900201,-33.524560645],[-70.873864956,-33.52451137],[-70.873809075,-33.524560645],[-70.873864956,-33.524576941],[-70.873900201,-33.524560645]]]}},{"type":"Feature","properties":{"lower":500.0,"upper":1000.0,"color":"#6a176e"},"geometry":{"type":"Polygon","coordinates":[[[-70.871620954,-33.524560645],[-70.871598709,-33.524537173],[-70.871577873,-33.524560645],[-70.871598709,-33.524570858],[-70.871620954,-33.524560645]]]}},{"type":"Feature","properties":{"lower":500.0,"upper":1000.0,"color":"#6a176e"},"geometry":{"type":"Polygon","coordinates":[[[-70.875511752,-33.524830539],[-70.875483704,-33.524809347],[-70.875437261,-33.524830539],[-70.875483704,-33.525031009],[-70.875511752,-33.524830539]]]}},{"type":"Feature","properties":{"lower":500.0,"upper":1000.0,"color":"#6a176e"},"geometry":{"type":"Polygon","coordinates":[[[-70.877102453,-33.525100431],[-70.877102453,-33.52500606],[-70.876994983,-33.525100431],[-70.877064819,-33.525370322],[-70.877102453,-33.525370322],[-70.877102453,-33.525100431]]]}},{"type":"Feature","properties":{"lower":500.0,"upper":1000.0,"color":"#6a176e"},"geometry":{"type":"Polygon","coordinates":[[[-70.867506478,-33.524830539],[-70.867389963,-33.524830539],[-70.867389963,-33.524879613],[-70.867506478,-33.524830539]]]}},{"type":"Feature","properties":{"lower":500.0,"upper":1000.0,"color":"#6a176e"},"geometry":{"type":"Polygon","coordinates":[[[-70.876778703,-33.525640213],[-70.876778703,-33.525546609],[-70.876509104,-33.525640213],[-70.876778703,-33.525640213]]]}},{"type":"Feature","properties":{"lower":500.0,"upper":1000.0,"color":"#6a176e"},"geometry":{"type":"Polygon","coordinates":[[[-70.869030157,-33.525910103],[-70.869008712,-33.525901102],[-70.868906978,-33.525910103],[-70.868925485,-33.526179992],[-70.869008712,-33.526259432],[-70.869127251,-33.526179992],[-70.869030157,-33.525910103]]]}},{"type":"Feature","properties":{"lower":500.0,"upper":1000.0,"color":"#6a176e"},"geometry":{"type":"Polygon","coordinates":[[[-70.866327113,-33.525910103],[-70.866094965,-33.525910103],[-70.866094965,-33.526021594],[-70.866327113,-33.525910103]]]}},{"type":"Feature","properties":{"lower":500.0,"upper":1000.0,"color":"#6a176e"},"geometry":{"type":"Polygon","coordinates":[[[-70.868478713,-33.527259539],[-70.868361212,-33.527204436],[-70.868072695,-33.527259539],[-70.868361212,-33.52738749],[-70.868478713,-33.527259539]]]}},{"type":"Feature","properties":{"lower":500.0,"upper":1000.0,"color":"#6a176e"},"geometry":{"type":"Polygon","coordinates":[[[-70.866457038,-33.527259539],[-70.866418715,-33.527079973],[-70.866418715,-33.527259539],[-70.866418715,-33.527529424],[-70.866500504,-33.527529424],[-70.866457038,-33.527259539]]]}},{"type":"Feature","properties":{"lower":500.0,"upper":1000.0,"color":"#6a176e"},"geometry":{"type":"Polygon","coordinates":[[[-70.872246208,-33.527529424],[-70.872246208,-33.527521792],[-70.872227073,-33.527529424],[-70.872246208,-33.527529424]]]}},{"type":"Feature","properties":{"lower":500.0,"upper":1000.0,"color":"#6a176e"},"geometry":{"type":"Polygon","coordinates":[[[-70.869020759,-33.527529424],[-70.869008712,-33.527521628],[-70.868993,-33.527529424],[-70.868684962,-33.527781182],[-70.868622782,-33.527799308],[-70.868684962,-33.527815239],[-70.86897382,-33.528069191],[-70.869008712,-33.528069191],[-70.869171546,-33.528069191],[-70.869187852,-33.527799308],[-70.869020759,-33.527529424]]]}},{"type":"Feature","properties":{"lower":500.0,"upper":1000.0,"color":"#6a176e"},"geometry":{"type":"Polygon","coordinates":[[[-70.867205448,-33.528069191],[-70.867066214,-33.527863783],[-70.867066214,-33.528069191],[-70.867205448,-33.528069191]]]}},{"type":"Feature","properties":{"lower":500.0,"upper":1000.0,"color":"#6a176e"},"geometry":{"type":"Polygon","coordinates":[[[-70.872246208,-33.528339073],[-70.872214736,-33.528339073],[-70.872246208,-33.528371535],[-70.872246208,-33.528339073]]]}},{"type":"Feature","properties":{"lower":500.0,"upper":1000.0,"color":"#6a176e"},"geometry":{"type":"Polygon","coordinates":[[[-70.870649096,-33.528608955],[-70.87062746,-33.528584782],[-70.870376418,-33.528608955],[-70.87062746,-33.528608955],[-70.870649096,-33.528608955]]]}},{"type":"Feature","properties":{"lower":500.0,"upper":1000.0,"color":"#6a176e"},"geometry":{"type":"Polygon","coordinates":[[[-70.869979961,-33.528878835],[-70.869979961,-33.528803271],[-70.869656211,-33.528800592],[-70.869332461,-33.528794152],[-70.869332461,-33.528878835],[-70.869656211,-33.528878835],[-70.869979961,-33.528878835]]]}},{"type":"Feature","properties":{"lower":500.0,"upper":1000.0,"color":"#6a176e"},"geometry":{"type":"Polygon","coordinates":[[[-70.871698025,-33.529148715],[-70.871598709,-33.529101167],[-70.871598709,-33.529148715],[-70.871598709,-33.529215482],[-70.871698025,-33.529148715]]]}},{"type":"Feature","properties":{"lower":500.0,"upper":1000.0,"color":"#6a176e"},"geometry":{"type":"Polygon","coordinates":[[[-70.869332461,-33.528878835],[-70.869008712,-33.528878835],[-70.869008712,-33.528933097],[-70.869313579,-33.529148715],[-70.869332461,-33.529148715],[-70.869332461,-33.528878835]]]}},{"type":"Feature","properties":{"lower":500.0,"upper":1000.0,"color":"#6a176e"},"geometry":{"type":"Polygon","coordinates":[[[-70.871922458,-33.529418594],[-70.871922458,-33.529277389],[-70.871777066,-33.529418594],[-70.871922458,-33.529418594]]]}},{"type":"Feature","properties":{"lower":500.0,"upper":1000.0,"color":"#6a176e"},"geometry":{"type":"Polygon","coordinates":[[[-70.872569958,-33.529688472],[-70.872246208,-33.529688472],[-70.871957517,-33.529688472],[-70.872246208,-33.529743194],[-70.872569958,-33.529826331],[-70.872569958,-33.529688472]]]}},{"type":"Feature","properties":{"lower":500.0,"upper":1000.0,"color":"#6a176e"},"geometry":{"type":"Polygon","coordinates":[[[-70.872893707,-33.529958349],[-70.872714862,-33.529958349],[-70.872893707,-33.530073149],[-70.872893707,-33.529958349]]]}},{"type":"Feature","properties":{"lower":500.0,"upper":1000.0,"color":"#6a176e"},"geometry":{"type":"Polygon","coordinates":[[[-70.871954058,-33.530228226],[-70.871922458,-33.530164902],[-70.871922458,-33.530228226],[-70.871922458,-33.530498101],[-70.871922458,-33.530767976],[-70.871922458,-33.53103785],[-70.872246208,-33.53103785],[-70.872246208,-33.530767976],[-70.872246208,-33.530623078],[-70.872021223,-33.530498101],[-70.871954058,-33.530228226]]]}},{"type":"Feature","properties":{"lower":500.0,"upper":1000.0,"color":"#6a176e"},"geometry":{"type":"Polygon","coordinates":[[[-70.87095121,-33.530498101],[-70.87062746,-33.530498101],[-70.87062746,-33.530767976],[-70.87095121,-33.530767976],[-70.87095121,-33.530498101]]]}},{"type":"Feature","properties":{"lower":1000.0,"upper":1500.0,"color":"#bc3754"},"geometry":{"type":"Polygon","coordinates":[[[-70.873217457,-33.51835287],[-70.873217457,-33.518112432],[-70.872996073,-33.51835287],[-70.873217457,-33.51835287]]]}},{"type":"Feature","properties":{"lower":1000.0,"upper":1500.0,"color":"#bc3754"},"geometry":{"type":"Polygon","coordinates":[[[-70.87236719,-33.518622782],[-70.872246208,-33.518472201],[-70.872246208,-33.518622782],[-70.871922458,-33.518622782],[-70.871922458,-33.518892694],[-70.871984481,-33.518892694],[-70.872246208,-33.518733389],[-70.87236719,-33.518622782]]]}},{"type":"Feature","properties":{"lower":1000.0,"upper":1500.0,"color":"#bc3754"},"geometry":{"type":"Polygon","coordinates":[[[-70.874481215,-33.518892694],[-70.874188706,-33.518892694],[-70.873864956,-33.518892694],[-70.873658752,-33.518892694],[-70.873864956,-33.519000527],[-70.874011356,-33.519162605],[-70.874188706,-33.519328053],[-70.874188706,-33.519162605],[-70.874512456,-33.519162605],[-70.874512456,-33.518912153],[-70.874481215,-33.518892694]]]}},{"type":"Feature","properties":{"lower":1000.0,"upper":1500.0,"color":"#bc3754"},"geometry":{"type":"Polygon","coordinates":[[[-70.872893707,-33.519162605],[-70.872893707,-33.519021027],[-70.872569958,-33.51913063],[-70.872246208,-33.51903755],[-70.872246208,-33.519162605],[-70.872246208,-33.519432515],[-70.871922458,-33.519432515],[-70.871922458,-33.519702424],[-70.871598709,-33.519702424],[-70.871598709,-33.519972332],[-70.871598709,-33.52024224],[-70.871274959,-33.52024224],[-70.87095121,-33.52024224],[-70.87095121,-33.520512146],[-70.870889951,-33.520512146],[-70.87095121,-33.520562112],[-70.871274959,-33.520726029],[-70.871598709,-33.520740374],[-70.871922458,-33.52066912],[-70.872246208,-33.520756229],[-70.872268162,-33.520782052],[-70.872266757,-33.521051957],[-70.872278874,-33.521321861],[-70.872266515,-33.521591765],[-70.872324609,-33.521861667],[-70.872246208,-33.522082501],[-70.872225499,-33.522131569],[-70.872246208,-33.522131569],[-70.872246208,-33.522153928],[-70.872452431,-33.52240147],[-70.872362011,-33.522671369],[-70.872246208,-33.522842357],[-70.872188127,-33.522941269],[-70.871922458,-33.523067972],[-70.871703572,-33.522941269],[-70.871598709,-33.522850388],[-70.871389824,-33.522671369],[-70.871274959,-33.522671369],[-70.871274959,-33.522600897],[-70.871136225,-33.522671369],[-70.87095121,-33.52287102],[-70.870890105,-33.522941269],[-70.87095121,-33.523117852],[-70.870986177,-33.523211167],[-70.87095121,-33.523243192],[-70.87062746,-33.52339052],[-70.87030371,-33.523387785],[-70.869979961,-33.523249759],[-70.869954303,-33.523211167],[-70.869721284,-33.523211167],[-70.869656211,-33.523355889],[-70.869332461,-33.523458086],[-70.869307467,-33.523481064],[-70.869332461,-33.523535564],[-70.869656211,-33.523607392],[-70.869979961,-33.523649056],[-70.87030371,-33.523594354],[-70.870523489,-33.523750961],[-70.87062746,-33.523954032],[-70.870766962,-33.523750961],[-70.87095121,-33.523574241],[-70.871155178,-33.523750961],[-70.870984377,-33.524020856],[-70.87095121,-33.524104082],[-70.870785547,-33.524290751],[-70.87062746,-33.524553935],[-70.870618825,-33.524560645],[-70.87030371,-33.524635778],[-70.870064649,-33.524830539],[-70.869979961,-33.524932214],[-70.869656211,-33.525081726],[-70.869642634,-33.525100431],[-70.869514376,-33.525370322],[-70.869332461,-33.52554126],[-70.869048293,-33.525640213],[-70.869008712,-33.525648444],[-70.868989081,-33.525640213],[-70.868841221,-33.525370322],[-70.868684962,-33.525239542],[-70.868535874,-33.525370322],[-70.868361212,-33.525508467],[-70.868037463,-33.525488961],[-70.867932911,-33.525370322],[-70.868037463,-33.525286208],[-70.868171968,-33.525100431],[-70.868043728,-33.524830539],[-70.868127682,-33.524560645],[-70.868361212,-33.524300329],[-70.868370582,-33.524290751],[-70.868469355,-33.524020856],[-70.868390023,-33.523750961],[-70.868379012,-33.523481064],[-70.868361212,-33.523460318],[-70.868037463,-33.523478224],[-70.867713713,-33.523408835],[-70.867475455,-33.523211167],[-70.867713713,-33.523035353],[-70.868037463,-33.523110383],[-70.868260828,-33.522941269],[-70.868361212,-33.522864998],[-70.868601744,-33.522941269],[-70.868684962,-33.522954372],[-70.86871666,-33.522941269],[-70.868684962,-33.522716261],[-70.868676393,-33.522671369],[-70.868361212,-33.522538973],[-70.868123491,-33.52240147],[-70.868157726,-33.522131569],[-70.868361212,-33.521902588],[-70.868434282,-33.521861667],[-70.868684962,-33.52171207],[-70.868999464,-33.521861667],[-70.869008712,-33.521867336],[-70.86919411,-33.522131569],[-70.869332461,-33.522270694],[-70.869426782,-33.52240147],[-70.869534878,-33.522671369],[-70.869504639,-33.522941269],[-70.869656211,-33.523167461],[-70.869656211,-33.523010959],[-70.869609512,-33.522941269],[-70.869656211,-33.522745144],[-70.869656211,-33.522671369],[-70.869656211,-33.522577],[-70.86960171,-33.52240147],[-70.869421019,-33.522131569],[-70.869332461,-33.522038228],[-70.869186592,-33.521861667],[-70.869136841,-33.521591765],[-70.869332461,-33.521351704],[-70.869347739,-33.521321861],[-70.869456259,-33.521051957],[-70.869656211,-33.520936935],[-70.869979961,-33.520868406],[-70.87030371,-33.520854194],[-70.87062746,-33.520831753],[-70.870741292,-33.520782052],[-70.87062746,-33.520685489],[-70.87030371,-33.520622832],[-70.869979961,-33.520582323],[-70.8696613,-33.520512146],[-70.869656211,-33.520510674],[-70.869514883,-33.52024224],[-70.86951274,-33.519972332],[-70.869332461,-33.519972332],[-70.86913875,-33.519972332],[-70.869008712,-33.52004023],[-70.868684962,-33.520076095],[-70.86843928,-33.52024224],[-70.868684962,-33.52024224],[-70.869008712,-33.52024224],[-70.869008712,-33.520512146],[-70.869008712,-33.520782052],[-70.869008712,-33.52099026],[-70.869072531,-33.521051957],[-70.869008712,-33.521210196],[-70.868822314,-33.521051957],[-70.868684962,-33.521051957],[-70.868361212,-33.521051957],[-70.868361212,-33.521321861],[-70.868361212,-33.521437555],[-70.868389381,-33.521591765],[-70.868361212,-33.521607651],[-70.868361212,-33.521861667],[-70.868099798,-33.521861667],[-70.868037463,-33.521943387],[-70.868037463,-33.522131569],[-70.867713713,-33.522131569],[-70.867389963,-33.522131569],[-70.867066214,-33.522131569],[-70.866742464,-33.522131569],[-70.866742464,-33.521861667],[-70.866742464,-33.521591765],[-70.866418715,-33.521591765],[-70.866418715,-33.521861667],[-70.866094965,-33.521861667],[-70.866094965,-33.522131569],[-70.866094965,-33.52240147],[-70.865771215,-33.52240147],[-70.865447466,-33.52240147],[-70.865447466,-33.52242325],[-70.865600213,-33.522671369],[-70.865447466,-33.522849011],[-70.865447466,-33.522941269],[-70.865447466,-33.523211167],[-70.865123716,-33.523211167],[-70.864799966,-33.523211167],[-70.864799966,-33.523481064],[-70.864925411,-33.523481064],[-70.865123716,-33.523365736],[-70.865447466,-33.523223608],[-70.865678371,-33.523481064],[-70.865447466,-33.523704615],[-70.865123716,-33.523518196],[-70.865123716,-33.523750961],[-70.865123716,-33.524020856],[-70.865123716,-33.524157668],[-70.865260431,-33.524290751],[-70.865415086,-33.524290751],[-70.865447466,-33.524247091],[-70.865447466,-33.524038555],[-70.865419812,-33.524020856],[-70.865447466,-33.52399645],[-70.865471622,-33.524020856],[-70.865756237,-33.524020856],[-70.865771215,-33.524000046],[-70.865852373,-33.524020856],[-70.866094965,-33.524020856],[-70.866094965,-33.524255174],[-70.866418715,-33.524081029],[-70.866418715,-33.524020856],[-70.866742464,-33.524020856],[-70.867066214,-33.524020856],[-70.867389963,-33.524020856],[-70.867389963,-33.524060623],[-70.867427356,-33.524020856],[-70.867586919,-33.523750961],[-70.867713713,-33.523734238],[-70.867761088,-33.523750961],[-70.868037463,-33.523992395],[-70.868053277,-33.524020856],[-70.868037463,-33.524065912],[-70.867713713,-33.524156457],[-70.867530077,-33.524290751],[-70.867713713,-33.524290751],[-70.867713713,-33.524560645],[-70.867713713,-33.524830539],[-70.867506478,-33.524830539],[-70.867389963,-33.524879613],[-70.867389963,-33.525100431],[-70.867389963,-33.525370322],[-70.867066214,-33.525370322],[-70.867066214,-33.525640213],[-70.867066214,-33.525910103],[-70.866742464,-33.525910103],[-70.866418715,-33.525910103],[-70.866327113,-33.525910103],[-70.866094965,-33.526021594],[-70.866094965,-33.526179992],[-70.866094965,-33.52644988],[-70.866351663,-33.52644988],[-70.866418715,-33.526239859],[-70.866742464,-33.526240883],[-70.866829116,-33.52644988],[-70.866742464,-33.526568996],[-70.866418715,-33.526583807],[-70.866418715,-33.526719767],[-70.866418715,-33.526989654],[-70.866418715,-33.527079973],[-70.866457038,-33.527259539],[-70.866500504,-33.527529424],[-70.866742464,-33.527529424],[-70.86704191,-33.527529424],[-70.866742464,-33.527322405],[-70.866691922,-33.527259539],[-70.866742464,-33.527137552],[-70.867066214,-33.527082359],[-70.867389963,-33.527071466],[-70.86764418,-33.526989654],[-70.867713713,-33.526942435],[-70.867805212,-33.526989654],[-70.867748354,-33.527259539],[-70.867713713,-33.527466941],[-70.867682767,-33.527529424],[-70.867389963,-33.527648927],[-70.867066214,-33.527545085],[-70.867066214,-33.527799308],[-70.867066214,-33.527863783],[-70.867205448,-33.528069191],[-70.867389963,-33.528069191],[-70.867713713,-33.528069191],[-70.868037463,-33.528069191],[-70.868361212,-33.528069191],[-70.86858596,-33.528069191],[-70.868684962,-33.528023836],[-70.868736551,-33.528069191],[-70.86897382,-33.528069191],[-70.868684962,-33.527815239],[-70.868622782,-33.527799308],[-70.868684962,-33.527781182],[-70.868993,-33.527529424],[-70.869008712,-33.527521628],[-70.869020759,-33.527529424],[-70.869187852,-33.527799308],[-70.869171546,-33.528069191],[-70.869332461,-33.528069191],[-70.869332461,-33.528339073],[-70.869332461,-33.528608955],[-70.869332461,-33.528794152],[-70.869656211,-33.528800592],[-70.869979961,-33.528803271],[-70.869979961,-33.528608955],[-70.87030371,-33.528608955],[-70.870376418,-33.528608955],[-70.87062746,-33.528584782],[-70.870649096,-33.528608955],[-70.87095121,-33.528608955],[-70.87095121,-33.528878835],[-70.871274959,-33.528878835],[-70.871598709,-33.528878835],[-70.871598709,-33.529101167],[-70.871698025,-33.529148715],[-70.871598709,-33.529215482],[-70.871598709,-33.529418594],[-70.871777066,-33.529418594],[-70.871922458,-33.529277389],[-70.871922458,-33.529148715],[-70.871922458,-33.528878835],[-70.871922458,-33.528608955],[-70.872246208,-33.528608955],[-70.872246208,-33.528371535],[-70.872214736,-33.528339073],[-70.871922458,-33.528339073],[-70.871922458,-33.528069191],[-70.871922458,-33.527799308],[-70.871922458,-33.527529424],[-70.872227073,-33.527529424],[-70.872246208,-33.527521792],[-70.872246208,-33.527259539],[-70.872526994,-33.527259539],[-70.872284141,-33.526989654],[-70.872246208,-33.526844343],[-70.872228994,-33.526719767],[-70.872246208,-33.52667527],[-70.872321888,-33.52644988],[-70.872246208,-33.526407153],[-70.871922458,-33.526334187],[-70.871825869,-33.52644988],[-70.87178358,-33.526719767],[-70.8717737,-33.526989654],[-70.871792152,-33.527259539],[-70.871598709,-33.527450535],[-70.871399469,-33.527259539],[-70.871399176,-33.526989654],[-70.871274959,-33.526888943],[-70.87095121,-33.526936757],[-70.870865066,-33.526989654],[-70.87062746,-33.527125035],[-70.870376563,-33.527259539],[-70.87030371,-33.527294664],[-70.870259643,-33.527259539],[-70.87030371,-33.527126073],[-70.870377435,-33.526989654],[-70.870332281,-33.526719767],[-70.87062746,-33.526614917],[-70.87095121,-33.526604459],[-70.871134508,-33.52644988],[-70.871225844,-33.526179992],[-70.871274959,-33.525981249],[-70.871303654,-33.525910103],[-70.871451225,-33.525640213],[-70.871598709,-33.525470208],[-70.871853392,-33.525370322],[-70.871922458,-33.525324194],[-70.872117699,-33.525100431],[-70.872246208,-33.525038718],[-70.872569958,-33.524930963],[-70.872893707,-33.524898031],[-70.873217457,-33.524934506],[-70.873522495,-33.524830539],[-70.873541207,-33.524786361],[-70.873559615,-33.524830539],[-70.87374382,-33.525100431],[-70.873864956,-33.525259141],[-70.874188706,-33.525228777],[-70.874317607,-33.525370322],[-70.874512456,-33.525454378],[-70.874836205,-33.525444852],[-70.875102097,-33.525370322],[-70.874836205,-33.52510576],[-70.87482341,-33.525100431],[-70.874836205,-33.525096783],[-70.875159955,-33.524997944],[-70.875455688,-33.525100431],[-70.875483704,-33.525106138],[-70.875807454,-33.525115085],[-70.875855282,-33.525100431],[-70.876131204,-33.524974211],[-70.876280088,-33.524830539],[-70.876364771,-33.524560645],[-70.876381849,-33.524290751],[-70.876444375,-33.524020856],[-70.876454953,-33.523983136],[-70.876524779,-33.523750961],[-70.876454953,-33.523596815],[-70.876330454,-33.523481064],[-70.876454953,-33.523405625],[-70.876778703,-33.523224961],[-70.877102453,-33.523232234],[-70.877346318,-33.523481064],[-70.877426202,-33.523621168],[-70.877749952,-33.523731817],[-70.877749952,-33.523481064],[-70.877426202,-33.523481064],[-70.877426202,-33.523211167],[-70.877102453,-33.523211167],[-70.876778703,-33.523211167],[-70.876778703,-33.522941269],[-70.876778703,-33.522671369],[-70.877102453,-33.522671369],[-70.877102453,-33.522556124],[-70.876788976,-33.52240147],[-70.8769887,-33.522131569],[-70.876778703,-33.522131569],[-70.876778703,-33.521861667],[-70.876778703,-33.521848436],[-70.876657181,-33.521591765],[-70.876668775,-33.521321861],[-70.876454953,-33.521203822],[-70.876131204,-33.521232559],[-70.876042685,-33.521321861],[-70.87607619,-33.521591765],[-70.876131204,-33.521731042],[-70.876282967,-33.521861667],[-70.876400226,-33.522131569],[-70.876454953,-33.522244917],[-70.876767308,-33.52240147],[-70.876454953,-33.522583427],[-70.876262624,-33.522671369],[-70.876131204,-33.522714665],[-70.876021851,-33.522941269],[-70.875807454,-33.523196807],[-70.875722644,-33.523211167],[-70.875483704,-33.52336643],[-70.875438239,-33.523211167],[-70.875159955,-33.523090745],[-70.874836205,-33.523070838],[-70.874512456,-33.52295215],[-70.874188706,-33.522958095],[-70.873864956,-33.522962265],[-70.87381016,-33.522941269],[-70.873743593,-33.522671369],[-70.873864956,-33.522403236],[-70.874188706,-33.522469142],[-70.874237445,-33.52240147],[-70.874375514,-33.522131569],[-70.87438366,-33.521861667],[-70.874188706,-33.521692231],[-70.874120676,-33.521591765],[-70.874119837,-33.521321861],[-70.874188706,-33.521244817],[-70.874493232,-33.521051957],[-70.874188706,-33.520891272],[-70.873864956,-33.520789897],[-70.873845234,-33.520782052],[-70.873541207,-33.520666163],[-70.873277681,-33.520512146],[-70.873217457,-33.520470408],[-70.872893707,-33.520275636],[-70.872878512,-33.52024224],[-70.87274729,-33.519972332],[-70.872569958,-33.519789813],[-70.872412342,-33.519702424],[-70.872468636,-33.519432515],[-70.872569958,-33.519201599],[-70.872893707,-33.519223174],[-70.873217457,-33.519256603],[-70.873386976,-33.519162605],[-70.873217457,-33.519162605],[-70.872893707,-33.519162605]],[[-70.871274959,-33.522771912],[-70.871473468,-33.522941269],[-70.871598709,-33.523054794],[-70.871914227,-33.523211167],[-70.871598709,-33.52342499],[-70.871304021,-33.523211167],[-70.871274959,-33.523189862],[-70.871100051,-33.522941269],[-70.871274959,-33.522771912]],[[-70.869979961,-33.526930321],[-70.870030028,-33.526989654],[-70.869979961,-33.527132679],[-70.869920261,-33.527259539],[-70.869979961,-33.527352379],[-70.870219226,-33.527529424],[-70.869979961,-33.527659218],[-70.8697114,-33.527799308],[-70.869656211,-33.527819668],[-70.869603017,-33.527799308],[-70.869332461,-33.527683468],[-70.869243419,-33.527529424],[-70.869008712,-33.527377541],[-70.868780364,-33.527259539],[-70.869008712,-33.527076138],[-70.869332461,-33.527184666],[-70.869527276,-33.526989654],[-70.869656211,-33.526887314],[-70.869979961,-33.526930321]],[[-70.869008712,-33.525901102],[-70.869030157,-33.525910103],[-70.869127251,-33.526179992],[-70.869008712,-33.526259432],[-70.868925485,-33.526179992],[-70.868906978,-33.525910103],[-70.869008712,-33.525901102]],[[-70.868684962,-33.526366678],[-70.868774737,-33.52644988],[-70.868725397,-33.526719767],[-70.868684962,-33.526977308],[-70.868682495,-33.526989654],[-70.868361212,-33.527057406],[-70.868109643,-33.526989654],[-70.868361212,-33.526739364],[-70.868467504,-33.526719767],[-70.868462592,-33.52644988],[-70.868684962,-33.526366678]],[[-70.868037463,-33.527710881],[-70.868094781,-33.527799308],[-70.868037463,-33.527835619],[-70.867713713,-33.527848499],[-70.867646642,-33.527799308],[-70.867713713,-33.52759507],[-70.868037463,-33.527710881]],[[-70.867066214,-33.522652773],[-70.867075598,-33.522671369],[-70.86720707,-33.522941269],[-70.867066214,-33.523055979],[-70.866742464,-33.52298533],[-70.866667681,-33.522941269],[-70.866735499,-33.522671369],[-70.866742464,-33.522665778],[-70.867066214,-33.522652773]],[[-70.866094965,-33.523637569],[-70.866353493,-33.523750961],[-70.866094965,-33.523833504],[-70.865932837,-33.523750961],[-70.866094965,-33.523637569]],[[-70.867713713,-33.525618505],[-70.867754425,-33.525640213],[-70.867713713,-33.525672345],[-70.867389963,-33.525840563],[-70.867272656,-33.525640213],[-70.867389963,-33.525538163],[-70.867713713,-33.525618505]],[[-70.871598709,-33.527750795],[-70.871635408,-33.527799308],[-70.87163497,-33.528069191],[-70.871598709,-33.528216487],[-70.871564321,-33.528339073],[-70.871598709,-33.52850711],[-70.871644503,-33.528608955],[-70.871598709,-33.528659554],[-70.871547413,-33.528608955],[-70.871274959,-33.528534275],[-70.87095121,-33.528348837],[-70.870942488,-33.528339073],[-70.87062746,-33.528075058],[-70.870618193,-33.528069191],[-70.870462418,-33.527799308],[-70.87062746,-33.527711639],[-70.87095121,-33.527624394],[-70.871056436,-33.527799308],[-70.871274959,-33.527980755],[-70.87154677,-33.527799308],[-70.871598709,-33.527750795]],[[-70.87095121,-33.527187521],[-70.871097216,-33.527259539],[-70.87095121,-33.527430579],[-70.870834153,-33.527259539],[-70.87095121,-33.527187521]],[[-70.876131204,-33.523586662],[-70.87631762,-33.523750961],[-70.87627628,-33.524020856],[-70.876200037,-33.524290751],[-70.876131204,-33.524505678],[-70.875807454,-33.524553519],[-70.875483704,-33.524401911],[-70.875263097,-33.524290751],[-70.875241624,-33.524020856],[-70.875478604,-33.523750961],[-70.875483704,-33.523749701],[-70.875807454,-33.523608205],[-70.876131204,-33.523586662]],[[-70.874836205,-33.52455585],[-70.874845725,-33.524560645],[-70.874836205,-33.524571674],[-70.874825201,-33.524560645],[-70.874836205,-33.52455585]],[[-70.874512456,-33.523415659],[-70.874641389,-33.523481064],[-70.874722975,-33.523750961],[-70.874709815,-33.524020856],[-70.874512456,-33.524095003],[-70.874188706,-33.524141609],[-70.873966634,-33.524020856],[-70.874188706,-33.52388856],[-70.874453638,-33.523750961],[-70.874413637,-33.523481064],[-70.874512456,-33.523415659]],[[-70.873864956,-33.52451137],[-70.873900201,-33.524560645],[-70.873864956,-33.524576941],[-70.873809075,-33.524560645],[-70.873864956,-33.52451137]],[[-70.873864956,-33.521791053],[-70.874007815,-33.521861667],[-70.873905957,-33.522131569],[-70.873864956,-33.522385905],[-70.873541207,-33.522261775],[-70.873302061,-33.52240147],[-70.873217457,-33.522647882],[-70.873213448,-33.522671369],[-70.873217457,-33.522675444],[-70.873425623,-33.522941269],[-70.873354396,-33.523211167],[-70.873217457,-33.523333989],[-70.873039738,-33.523211167],[-70.872893707,-33.522969448],[-70.872867979,-33.522941269],[-70.872701445,-33.522671369],[-70.872684851,-33.52240147],[-70.872749552,-33.522131569],[-70.872778018,-33.521861667],[-70.872893707,-33.521678018],[-70.873034917,-33.521861667],[-70.873217457,-33.522068139],[-70.873541207,-33.521890719],[-70.873606151,-33.521861667],[-70.873864956,-33.521791053]],[[-70.872569958,-33.519997737],[-70.872727193,-33.52024224],[-70.87280955,-33.520512146],[-70.872893707,-33.520687616],[-70.873217457,-33.520739583],[-70.873288327,-33.520782052],[-70.873541207,-33.520951385],[-70.873796035,-33.521051957],[-70.873812339,-33.521321861],[-70.873541207,-33.521494548],[-70.873302765,-33.521591765],[-70.87323903,-33.521861667],[-70.873217457,-33.521874963],[-70.873205703,-33.521861667],[-70.873164041,-33.521591765],[-70.873017179,-33.521321861],[-70.872893707,-33.521240481],[-70.872705314,-33.521321861],[-70.872764002,-33.521591765],[-70.872638098,-33.521861667],[-70.872601163,-33.522131569],[-70.872569958,-33.522235878],[-70.872508329,-33.522131569],[-70.872489605,-33.521861667],[-70.872424964,-33.521591765],[-70.872537164,-33.521321861],[-70.872569958,-33.521244756],[-70.872711366,-33.521051957],[-70.872632844,-33.520782052],[-70.872569958,-33.520770288],[-70.87234056,-33.520512146],[-70.872292845,-33.52024224],[-70.872569958,-33.519997737]],[[-70.871598709,-33.523993336],[-70.871605964,-33.524020856],[-70.871598709,-33.524034102],[-70.871474819,-33.524290751],[-70.871274959,-33.524435978],[-70.871158077,-33.524290751],[-70.871196908,-33.524020856],[-70.871274959,-33.523936542],[-70.871598709,-33.523993336]],[[-70.868684962,-33.527488747],[-70.868702596,-33.527529424],[-70.868684962,-33.527543836],[-70.868654483,-33.527529424],[-70.868684962,-33.527488747]],[[-70.868361212,-33.527204436],[-70.868478713,-33.527259539],[-70.868361212,-33.52738749],[-70.868072695,-33.527259539],[-70.868361212,-33.527204436]],[[-70.866742464,-33.523210378],[-70.866760369,-33.523211167],[-70.866742464,-33.523212271],[-70.866737724,-33.523211167],[-70.866742464,-33.523210378]],[[-70.875483704,-33.524809347],[-70.875511752,-33.524830539],[-70.875483704,-33.525031009],[-70.875437261,-33.524830539],[-70.875483704,-33.524809347]],[[-70.873541207,-33.523428428],[-70.873722551,-33.523481064],[-70.873559005,-33.523750961],[-70.873541207,-33.523766579],[-70.873217457,-33.523791105],[-70.873091367,-33.523750961],[-70.873217457,-33.523701325],[-70.873471178,-33.523481064],[-70.873541207,-33.523428428]],[[-70.872893707,-33.52345017],[-70.872986914,-33.523481064],[-70.872893707,-33.523499912],[-70.872803384,-33.523481064],[-70.872893707,-33.52345017]],[[-70.872569958,-33.523183023],[-70.87258705,-33.523211167],[-70.872569958,-33.523249759],[-70.872560524,-33.523211167],[-70.872569958,-33.523183023]],[[-70.871598709,-33.524537173],[-70.871620954,-33.524560645],[-70.871598709,-33.524570858],[-70.871577873,-33.524560645],[-70.871598709,-33.524537173]],[[-70.871274959,-33.524806471],[-70.871317051,-33.524830539],[-70.871454601,-33.525100431],[-70.871274959,-33.525364813],[-70.87095121,-33.525167455],[-70.870918744,-33.525100431],[-70.87095121,-33.525066453],[-70.871227937,-33.524830539],[-70.871274959,-33.524806471]],[[-70.873217457,-33.523995518],[-70.873311489,-33.524020856],[-70.873217457,-33.524076695],[-70.873160082,-33.524020856],[-70.873217457,-33.523995518]],[[-70.87095121,-33.526169269],[-70.870955461,-33.526179992],[-70.87095121,-33.526233691],[-70.870945522,-33.526179992],[-70.87095121,-33.526169269]]]}},{"type":"Feature","properties":{"lower":1000.0,"upper":1500.0,"color":"#bc3754"},"geometry":{"type":"Polygon","coordinates":[[[-70.875483704,-33.519162605],[-70.875159955,-33.519162605],[-70.875159955,-33.519432515],[-70.875336717,-33.519432515],[-70.875483704,-33.519367017],[-70.875483704,-33.519162605]]]}},{"type":"Feature","properties":{"lower":1000.0,"upper":1500.0,"color":"#bc3754"},"geometry":{"type":"Polygon","coordinates":[[[-70.874188706,-33.519972332],[-70.874188706,-33.519874881],[-70.874030022,-33.519972332],[-70.874188706,-33.520004697],[-70.874274686,-33.519972332],[-70.874188706,-33.519972332]]]}},{"type":"Feature","properties":{"lower":1000.0,"upper":1500.0,"color":"#bc3754"},"geometry":{"type":"Polygon","coordinates":[[[-70.874892313,-33.519972332],[-70.874836205,-33.519972332],[-70.874759584,-33.519972332],[-70.874695807,-33.52024224],[-70.874836205,-33.520257944],[-70.875048322,-33.520512146],[-70.875102579,-33.520782052],[-70.874836205,-33.521021429],[-70.874687629,-33.521051957],[-70.874836205,-33.52106349],[-70.875159955,-33.521072175],[-70.875483704,-33.521146395],[-70.87568265,-33.521051957],[-70.875692486,-33.520782052],[-70.875483704,-33.520520092],[-70.875469182,-33.520512146],[-70.875159955,-33.520512146],[-70.875159955,-33.52024224],[-70.875159955,-33.520085131],[-70.874892313,-33.519972332]]]}},{"type":"Feature","properties":{"lower":1000.0,"upper":1500.0,"color":"#bc3754"},"geometry":{"type":"Polygon","coordinates":[[[-70.869979961,-33.52024224],[-70.869979961,-33.520096941],[-70.869830441,-33.52024224],[-70.869979961,-33.520434977],[-70.870145659,-33.52024224],[-70.869979961,-33.52024224]]]}},{"type":"Feature","properties":{"lower":1000.0,"upper":1500.0,"color":"#bc3754"},"geometry":{"type":"Polygon","coordinates":[[[-70.877749952,-33.52024224],[-70.877426202,-33.52024224],[-70.877102453,-33.52024224],[-70.877102453,-33.520512146],[-70.877314532,-33.520512146],[-70.877426202,-33.520270956],[-70.877749952,-33.520392321],[-70.877749952,-33.52024224]]]}},{"type":"Feature","properties":{"lower":1000.0,"upper":1500.0,"color":"#bc3754"},"geometry":{"type":"Polygon","coordinates":[[[-70.868151116,-33.520512146],[-70.868037463,-33.520364298],[-70.868037463,-33.520512146],[-70.868151116,-33.520512146]]]}},{"type":"Feature","properties":{"lower":1000.0,"upper":1500.0,"color":"#bc3754"},"geometry":{"type":"Polygon","coordinates":[[[-70.877102453,-33.520512146],[-70.876778703,-33.520512146],[-70.876614023,-33.520512146],[-70.876778703,-33.520601533],[-70.877102453,-33.520704738],[-70.877102453,-33.520512146]]]}},{"type":"Feature","properties":{"lower":1000.0,"upper":1500.0,"color":"#bc3754"},"geometry":{"type":"Polygon","coordinates":[[[-70.871044805,-33.52240147],[-70.87095121,-33.522266283],[-70.870765927,-33.52240147],[-70.87095121,-33.52252649],[-70.871044805,-33.52240147]]]}},{"type":"Feature","properties":{"lower":1000.0,"upper":1500.0,"color":"#bc3754"},"geometry":{"type":"Polygon","coordinates":[[[-70.874524561,-33.522671369],[-70.874512456,-33.522647111],[-70.874461575,-33.522671369],[-70.874512456,-33.522797251],[-70.874524561,-33.522671369]]]}},{"type":"Feature","properties":{"lower":1000.0,"upper":1500.0,"color":"#bc3754"},"geometry":{"type":"Polygon","coordinates":[[[-70.878549794,-33.523750961],[-70.878397451,-33.523750961],[-70.878397451,-33.523824794],[-70.878549794,-33.523750961]]]}},{"type":"Feature","properties":{"lower":1000.0,"upper":1500.0,"color":"#bc3754"},"geometry":{"type":"Polygon","coordinates":[[[-70.878721201,-33.524020856],[-70.878721201,-33.523857094],[-70.878593216,-33.524020856],[-70.878721201,-33.524162739],[-70.878721201,-33.524020856]]]}},{"type":"Feature","properties":{"lower":1000.0,"upper":1500.0,"color":"#bc3754"},"geometry":{"type":"Polygon","coordinates":[[[-70.878381119,-33.524290751],[-70.878073702,-33.52409238],[-70.877749952,-33.52414923],[-70.877426202,-33.524279884],[-70.877102453,-33.524277655],[-70.877070633,-33.524290751],[-70.876778703,-33.524502645],[-70.876677084,-33.524560645],[-70.876559764,-33.524830539],[-70.876454953,-33.524975561],[-70.876281706,-33.525100431],[-70.87618552,-33.525370322],[-70.876421967,-33.525640213],[-70.876454953,-33.525684134],[-70.876454953,-33.525640213],[-70.876509104,-33.525640213],[-70.876778703,-33.525546609],[-70.876778703,-33.525370322],[-70.877064819,-33.525370322],[-70.876994983,-33.525100431],[-70.877102453,-33.52500606],[-70.877102453,-33.524830539],[-70.877426202,-33.524830539],[-70.877507607,-33.524830539],[-70.877597403,-33.524560645],[-70.877749952,-33.524390215],[-70.878073702,-33.524440643],[-70.878191515,-33.524560645],[-70.878397451,-33.524814851],[-70.878489795,-33.524830539],[-70.878721201,-33.524830539],[-70.878721201,-33.524573732],[-70.87860687,-33.524560645],[-70.878721201,-33.524550601],[-70.878721201,-33.524320789],[-70.878397451,-33.524300623],[-70.878381119,-33.524290751]],[[-70.877102453,-33.524549614],[-70.877132017,-33.524560645],[-70.877102453,-33.524579591],[-70.877087777,-33.524560645],[-70.877102453,-33.524549614]]]}},{"type":"Feature","properties":{"lower":1000.0,"upper":1500.0,"color":"#bc3754"},"geometry":{"type":"Polygon","coordinates":[[[-70.864476217,-33.524020856],[-70.864152467,-33.524020856],[-70.863828717,-33.524020856],[-70.863681628,-33.524020856],[-70.863504968,-33.524152958],[-70.863504968,-33.524290751],[-70.863828717,-33.524290751],[-70.864104226,-33.524290751],[-70.864152467,-33.524255323],[-70.864473363,-33.524290751],[-70.864476217,-33.524290751],[-70.864476217,-33.524020856]]]}},{"type":"Feature","properties":{"lower":1000.0,"upper":1500.0,"color":"#bc3754"},"geometry":{"type":"Polygon","coordinates":[[[-70.87494571,-33.525910103],[-70.874836205,-33.525884178],[-70.874512456,-33.525896663],[-70.87449566,-33.525910103],[-70.874512456,-33.525942305],[-70.874836205,-33.525971044],[-70.87494571,-33.525910103]]]}},{"type":"Feature","properties":{"lower":1000.0,"upper":1500.0,"color":"#bc3754"},"geometry":{"type":"Polygon","coordinates":[[[-70.876454953,-33.526179992],[-70.876454953,-33.526128197],[-70.876131204,-33.526172617],[-70.876121167,-33.526179992],[-70.875967259,-33.52644988],[-70.876086307,-33.526719767],[-70.876131204,-33.52681643],[-70.876281391,-33.526719767],[-70.876454953,-33.526584697],[-70.876454953,-33.52644988],[-70.876454953,-33.526179992]]]}},{"type":"Feature","properties":{"lower":1000.0,"upper":1500.0,"color":"#bc3754"},"geometry":{"type":"Polygon","coordinates":[[[-70.873925699,-33.526179992],[-70.873864956,-33.52607274],[-70.873807342,-33.526179992],[-70.873541207,-33.526429904],[-70.873465475,-33.52644988],[-70.873541207,-33.526506882],[-70.873864956,-33.526657319],[-70.873982616,-33.52644988],[-70.873925699,-33.526179992]]]}},{"type":"Feature","properties":{"lower":1000.0,"upper":1500.0,"color":"#bc3754"},"geometry":{"type":"Polygon","coordinates":[[[-70.876454953,-33.526989654],[-70.876454953,-33.526965592],[-70.876435731,-33.526989654],[-70.876454953,-33.526989654]]]}},{"type":"Feature","properties":{"lower":1000.0,"upper":1500.0,"color":"#bc3754"},"geometry":{"type":"Polygon","coordinates":[[[-70.873265927,-33.527259539],[-70.873217457,-33.527254299],[-70.87318655,-33.527259539],[-70.873217457,-33.527259539],[-70.873217457,-33.52728271],[-70.873265927,-33.527259539]]]}},{"type":"Feature","properties":{"lower":1000.0,"upper":1500.0,"color":"#bc3754"},"geometry":{"type":"Polygon","coordinates":[[[-70.875659776,-33.527529424],[-70.875483704,-33.527479454],[-70.875429423,-33.527529424],[-70.875483704,-33.527529424],[-70.875659776,-33.527529424]]]}},{"type":"Feature","properties":{"lower":1000.0,"upper":1500.0,"color":"#bc3754"},"geometry":{"type":"Polygon","coordinates":[[[-70.874554766,-33.527529424],[-70.874512456,-33.527416741],[-70.874512456,-33.527529424],[-70.874512456,-33.527613234],[-70.874554766,-33.527529424]]]}},{"type":"Feature","properties":{"lower":1000.0,"upper":1500.0,"color":"#bc3754"},"geometry":{"type":"Polygon","coordinates":[[[-70.875159955,-33.527799308],[-70.875159955,-33.527751331],[-70.874836205,-33.527795561],[-70.874823102,-33.527799308],[-70.874836205,-33.527799308],[-70.875159955,-33.527799308]]]}},{"type":"Feature","properties":{"lower":1000.0,"upper":1500.0,"color":"#bc3754"},"geometry":{"type":"Polygon","coordinates":[[[-70.869313579,-33.529148715],[-70.869008712,-33.528933097],[-70.869008712,-33.529148715],[-70.869313579,-33.529148715]]]}},{"type":"Feature","properties":{"lower":1000.0,"upper":1500.0,"color":"#bc3754"},"geometry":{"type":"Polygon","coordinates":[[[-70.872569958,-33.529958349],[-70.872569958,-33.529826331],[-70.872246208,-33.529743194],[-70.871957517,-33.529688472],[-70.871922458,-33.529688472],[-70.871922458,-33.529958349],[-70.871922458,-33.530164902],[-70.871954058,-33.530228226],[-70.872021223,-33.530498101],[-70.872246208,-33.530623078],[-70.872246208,-33.530498101],[-70.872569958,-33.530498101],[-70.872893707,-33.530498101],[-70.872893707,-33.530228226],[-70.872893707,-33.530073149],[-70.872714862,-33.529958349],[-70.872569958,-33.529958349]]]}},{"type":"Feature","properties":{"lower":1500.0,"upper":2000.0,"color":"#f37819"},"geometry":{"type":"Polygon","coordinates":[[[-70.874512456,-33.518892694],[-70.874481215,-33.518892694],[-70.874512456,-33.518912153],[-70.874512456,-33.518892694]]]}},{"type":"Feature","properties":{"lower":1500.0,"upper":2000.0,"color":"#f37819"},"geometry":{"type":"Polygon","coordinates":[[[-70.872727193,-33.52024224],[-70.872569958,-33.519997737],[-70.872292845,-33.52024224],[-70.87234056,-33.520512146],[-70.872569958,-33.520770288],[-70.872632844,-33.520782052],[-70.872711366,-33.521051957],[-70.872569958,-33.521244756],[-70.872537164,-33.521321861],[-70.872424964,-33.521591765],[-70.872489605,-33.521861667],[-70.872508329,-33.522131569],[-70.872569958,-33.522235878],[-70.872601163,-33.522131569],[-70.872638098,-33.521861667],[-70.872764002,-33.521591765],[-70.872705314,-33.521321861],[-70.872893707,-33.521240481],[-70.873017179,-33.521321861],[-70.873164041,-33.521591765],[-70.873205703,-33.521861667],[-70.873217457,-33.521874963],[-70.87323903,-33.521861667],[-70.873302765,-33.521591765],[-70.873541207,-33.521494548],[-70.873812339,-33.521321861],[-70.873796035,-33.521051957],[-70.873541207,-33.520951385],[-70.873288327,-33.520782052],[-70.873217457,-33.520739583],[-70.872893707,-33.520687616],[-70.87280955,-33.520512146],[-70.872727193,-33.52024224]],[[-70.872569958,-33.520233038],[-70.872575875,-33.52024224],[-70.872569958,-33.520290921],[-70.872559529,-33.52024224],[-70.872569958,-33.520233038]],[[-70.873217457,-33.521011963],[-70.873276369,-33.521051957],[-70.873217457,-33.521097708],[-70.873153431,-33.521051957],[-70.873217457,-33.521011963]]]}},{"type":"Feature","properties":{"lower":1500.0,"upper":2000.0,"color":"#f37819"},"geometry":{"type":"Polygon","coordinates":[[[-70.868999464,-33.521861667],[-70.868684962,-33.52171207],[-70.868434282,-33.521861667],[-70.868361212,-33.521902588],[-70.868157726,-33.522131569],[-70.868123491,-33.52240147],[-70.868361212,-33.522538973],[-70.868676393,-33.522671369],[-70.868684962,-33.522716261],[-70.86871666,-33.522941269],[-70.868684962,-33.522954372],[-70.868601744,-33.522941269],[-70.868361212,-33.522864998],[-70.868260828,-33.522941269],[-70.868037463,-33.523110383],[-70.867713713,-33.523035353],[-70.867475455,-33.523211167],[-70.867713713,-33.523408835],[-70.868037463,-33.523478224],[-70.868361212,-33.523460318],[-70.868379012,-33.523481064],[-70.868390023,-33.523750961],[-70.868469355,-33.524020856],[-70.868370582,-33.524290751],[-70.868361212,-33.524300329],[-70.868127682,-33.524560645],[-70.868043728,-33.524830539],[-70.868171968,-33.525100431],[-70.868037463,-33.525286208],[-70.867932911,-33.525370322],[-70.868037463,-33.525488961],[-70.868361212,-33.525508467],[-70.868535874,-33.525370322],[-70.868684962,-33.525239542],[-70.868841221,-33.525370322],[-70.868989081,-33.525640213],[-70.869008712,-33.525648444],[-70.869048293,-33.525640213],[-70.869332461,-33.52554126],[-70.869514376,-33.525370322],[-70.869642634,-33.525100431],[-70.869656211,-33.525081726],[-70.869979961,-33.524932214],[-70.870064649,-33.524830539],[-70.87030371,-33.524635778],[-70.870618825,-33.524560645],[-70.87062746,-33.524553935],[-70.870785547,-33.524290751],[-70.87095121,-33.524104082],[-70.870984377,-33.524020856],[-70.871155178,-33.523750961],[-70.87095121,-33.523574241],[-70.870766962,-33.523750961],[-70.87062746,-33.523954032],[-70.870523489,-33.523750961],[-70.87030371,-33.523594354],[-70.869979961,-33.523649056],[-70.869656211,-33.523607392],[-70.869332461,-33.523535564],[-70.869307467,-33.523481064],[-70.869332461,-33.523458086],[-70.869656211,-33.523355889],[-70.869721284,-33.523211167],[-70.869656211,-33.523211167],[-70.869656211,-33.523167461],[-70.869504639,-33.522941269],[-70.869534878,-33.522671369],[-70.869426782,-33.52240147],[-70.869332461,-33.522270694],[-70.86919411,-33.522131569],[-70.869008712,-33.521867336],[-70.868999464,-33.521861667]],[[-70.868684962,-33.521983902],[-70.868910412,-33.522131569],[-70.869008712,-33.522336963],[-70.8690528,-33.52240147],[-70.869332461,-33.522547851],[-70.869389132,-33.522671369],[-70.869399767,-33.522941269],[-70.869332461,-33.52313396],[-70.869111199,-33.523211167],[-70.869008712,-33.523320948],[-70.868890966,-33.523481064],[-70.868684962,-33.523589341],[-70.868613647,-33.523481064],[-70.868407389,-33.523211167],[-70.868684962,-33.523121694],[-70.869008712,-33.523130307],[-70.869106677,-33.522941269],[-70.869008712,-33.522809384],[-70.868934763,-33.522671369],[-70.868684962,-33.522421523],[-70.868631915,-33.52240147],[-70.868406009,-33.522131569],[-70.868684962,-33.521983902]],[[-70.869332461,-33.523977119],[-70.869470335,-33.524020856],[-70.869477099,-33.524290751],[-70.869332461,-33.524381758],[-70.869008712,-33.52448114],[-70.86882604,-33.524560645],[-70.869008712,-33.52471972],[-70.869068691,-33.524830539],[-70.869105046,-33.525100431],[-70.869008712,-33.525184434],[-70.868909205,-33.525100431],[-70.868684962,-33.524988982],[-70.868387805,-33.524830539],[-70.868595653,-33.524560645],[-70.868684962,-33.524451576],[-70.868789301,-33.524290751],[-70.869004737,-33.524020856],[-70.869008712,-33.524017741],[-70.869332461,-33.523977119]]]}},{"type":"Feature","properties":{"lower":1500.0,"upper":2000.0,"color":"#f37819"},"geometry":{"type":"Polygon","coordinates":[[[-70.871473468,-33.522941269],[-70.871274959,-33.522771912],[-70.871100051,-33.522941269],[-70.871274959,-33.523189862],[-70.871304021,-33.523211167],[-70.871598709,-33.52342499],[-70.871914227,-33.523211167],[-70.871598709,-33.523054794],[-70.871473468,-33.522941269]]]}},{"type":"Feature","properties":{"lower":1500.0,"upper":2000.0,"color":"#f37819"},"geometry":{"type":"Polygon","coordinates":[[[-70.87258705,-33.523211167],[-70.872569958,-33.523183023],[-70.872560524,-33.523211167],[-70.872569958,-33.523249759],[-70.87258705,-33.523211167]]]}},{"type":"Feature","properties":{"lower":1500.0,"upper":2000.0,"color":"#f37819"},"geometry":{"type":"Polygon","coordinates":[[[-70.866760369,-33.523211167],[-70.866742464,-33.523210378],[-70.866737724,-33.523211167],[-70.866742464,-33.523212271],[-70.866760369,-33.523211167]]]}},{"type":"Feature","properties":{"lower":1500.0,"upper":2000.0,"color":"#f37819"},"geometry":{"type":"Polygon","coordinates":[[[-70.874641389,-33.523481064],[-70.874512456,-33.523415659],[-70.874413637,-33.523481064],[-70.874453638,-33.523750961],[-70.874188706,-33.52388856],[-70.873966634,-33.524020856],[-70.874188706,-33.524141609],[-70.874512456,-33.524095003],[-70.874709815,-33.524020856],[-70.874722975,-33.523750961],[-70.874641389,-33.523481064]]]}},{"type":"Feature","properties":{"lower":1500.0,"upper":2000.0,"color":"#f37819"},"geometry":{"type":"Polygon","coordinates":[[[-70.872986914,-33.523481064],[-70.872893707,-33.52345017],[-70.872803384,-33.523481064],[-70.872893707,-33.523499912],[-70.872986914,-33.523481064]]]}},{"type":"Feature","properties":{"lower":1500.0,"upper":2000.0,"color":"#f37819"},"geometry":{"type":"Polygon","coordinates":[[[-70.87631762,-33.523750961],[-70.876131204,-33.523586662],[-70.875807454,-33.523608205],[-70.875483704,-33.523749701],[-70.875478604,-33.523750961],[-70.875241624,-33.524020856],[-70.875263097,-33.524290751],[-70.875483704,-33.524401911],[-70.875807454,-33.524553519],[-70.876131204,-33.524505678],[-70.876200037,-33.524290751],[-70.87627628,-33.524020856],[-70.87631762,-33.523750961]],[[-70.875807454,-33.52399693],[-70.875891745,-33.524020856],[-70.875807454,-33.524052025],[-70.87578493,-33.524020856],[-70.875807454,-33.52399693]]]}},{"type":"Feature","properties":{"lower":1500.0,"upper":2000.0,"color":"#f37819"},"geometry":{"type":"Polygon","coordinates":[[[-70.866353493,-33.523750961],[-70.866094965,-33.523637569],[-70.865932837,-33.523750961],[-70.866094965,-33.523833504],[-70.866353493,-33.523750961]]]}},{"type":"Feature","properties":{"lower":1500.0,"upper":2000.0,"color":"#f37819"},"geometry":{"type":"Polygon","coordinates":[[[-70.873311489,-33.524020856],[-70.873217457,-33.523995518],[-70.873160082,-33.524020856],[-70.873217457,-33.524076695],[-70.873311489,-33.524020856]]]}},{"type":"Feature","properties":{"lower":1500.0,"upper":2000.0,"color":"#f37819"},"geometry":{"type":"Polygon","coordinates":[[[-70.865471622,-33.524020856],[-70.865447466,-33.52399645],[-70.865419812,-33.524020856],[-70.865447466,-33.524038555],[-70.865447466,-33.524020856],[-70.865471622,-33.524020856]]]}},{"type":"Feature","properties":{"lower":1500.0,"upper":2000.0,"color":"#f37819"},"geometry":{"type":"Polygon","coordinates":[[[-70.865260431,-33.524290751],[-70.865123716,-33.524157668],[-70.865123716,-33.524290751],[-70.865260431,-33.524290751]]]}},{"type":"Feature","properties":{"lower":1500.0,"upper":2000.0,"color":"#f37819"},"geometry":{"type":"Polygon","coordinates":[[[-70.878721201,-33.524560645],[-70.878721201,-33.524550601],[-70.87860687,-33.524560645],[-70.878721201,-33.524573732],[-70.878721201,-33.524560645]]]}},{"type":"Feature","properties":{"lower":1500.0,"upper":2000.0,"color":"#f37819"},"geometry":{"type":"Polygon","coordinates":[[[-70.877132017,-33.524560645],[-70.877102453,-33.524549614],[-70.877087777,-33.524560645],[-70.877102453,-33.524579591],[-70.877132017,-33.524560645]]]}},{"type":"Feature","properties":{"lower":1500.0,"upper":2000.0,"color":"#f37819"},"geometry":{"type":"Polygon","coordinates":[[[-70.874845725,-33.524560645],[-70.874836205,-33.52455585],[-70.874825201,-33.524560645],[-70.874836205,-33.524571674],[-70.874845725,-33.524560645]]]}},{"type":"Feature","properties":{"lower":1500.0,"upper":2000.0,"color":"#f37819"},"geometry":{"type":"Polygon","coordinates":[[[-70.871317051,-33.524830539],[-70.871274959,-33.524806471],[-70.871227937,-33.524830539],[-70.87095121,-33.525066453],[-70.870918744,-33.525100431],[-70.87095121,-33.525167455],[-70.871274959,-33.525364813],[-70.871454601,-33.525100431],[-70.871317051,-33.524830539]]]}},{"type":"Feature","properties":{"lower":1500.0,"upper":2000.0,"color":"#f37819"},"geometry":{"type":"Polygon","coordinates":[[[-70.867754425,-33.525640213],[-70.867713713,-33.525618505],[-70.867389963,-33.525538163],[-70.867272656,-33.525640213],[-70.867389963,-33.525840563],[-70.867713713,-33.525672345],[-70.867754425,-33.525640213]]]}},{"type":"Feature","properties":{"lower":1500.0,"upper":2000.0,"color":"#f37819"},"geometry":{"type":"Polygon","coordinates":[[[-70.870955461,-33.526179992],[-70.87095121,-33.526169269],[-70.870945522,-33.526179992],[-70.87095121,-33.526233691],[-70.870955461,-33.526179992]]]}},{"type":"Feature","properties":{"lower":1500.0,"upper":2000.0,"color":"#f37819"},"geometry":{"type":"Polygon","coordinates":[[[-70.868774737,-33.52644988],[-70.868684962,-33.526366678],[-70.868462592,-33.52644988],[-70.868467504,-33.526719767],[-70.868361212,-33.526739364],[-70.868109643,-33.526989654],[-70.868361212,-33.527057406],[-70.868682495,-33.526989654],[-70.868684962,-33.526977308],[-70.868725397,-33.526719767],[-70.868774737,-33.52644988]]]}},{"type":"Feature","properties":{"lower":1500.0,"upper":2000.0,"color":"#f37819"},"geometry":{"type":"Polygon","coordinates":[[[-70.866829116,-33.52644988],[-70.866742464,-33.526240883],[-70.866418715,-33.526239859],[-70.866351663,-33.52644988],[-70.866418715,-33.52644988],[-70.866418715,-33.526583807],[-70.866742464,-33.526568996],[-70.866829116,-33.52644988]]]}},{"type":"Feature","properties":{"lower":1500.0,"upper":2000.0,"color":"#f37819"},"geometry":{"type":"Polygon","coordinates":[[[-70.870030028,-33.526989654],[-70.869979961,-33.526930321],[-70.869656211,-33.526887314],[-70.869527276,-33.526989654],[-70.869332461,-33.527184666],[-70.869008712,-33.527076138],[-70.868780364,-33.527259539],[-70.869008712,-33.527377541],[-70.869243419,-33.527529424],[-70.869332461,-33.527683468],[-70.869603017,-33.527799308],[-70.869656211,-33.527819668],[-70.8697114,-33.527799308],[-70.869979961,-33.527659218],[-70.870219226,-33.527529424],[-70.869979961,-33.527352379],[-70.869920261,-33.527259539],[-70.869979961,-33.527132679],[-70.870030028,-33.526989654]]]}},{"type":"Feature","properties":{"lower":1500.0,"upper":2000.0,"color":"#f37819"},"geometry":{"type":"Polygon","coordinates":[[[-70.867805212,-33.526989654],[-70.867713713,-33.526942435],[-70.86764418,-33.526989654],[-70.867389963,-33.527071466],[-70.867066214,-33.527082359],[-70.866742464,-33.527137552],[-70.866691922,-33.527259539],[-70.866742464,-33.527322405],[-70.86704191,-33.527529424],[-70.867066214,-33.527529424],[-70.867066214,-33.527545085],[-70.867389963,-33.527648927],[-70.867682767,-33.527529424],[-70.867713713,-33.527466941],[-70.867748354,-33.527259539],[-70.867805212,-33.526989654]]]}},{"type":"Feature","properties":{"lower":1500.0,"upper":2000.0,"color":"#f37819"},"geometry":{"type":"Polygon","coordinates":[[[-70.871097216,-33.527259539],[-70.87095121,-33.527187521],[-70.870834153,-33.527259539],[-70.87095121,-33.527430579],[-70.871097216,-33.527259539]]]}},{"type":"Feature","properties":{"lower":1500.0,"upper":2000.0,"color":"#f37819"},"geometry":{"type":"Polygon","coordinates":[[[-70.868702596,-33.527529424],[-70.868684962,-33.527488747],[-70.868654483,-33.527529424],[-70.868684962,-33.527543836],[-70.868702596,-33.527529424]]]}},{"type":"Feature","properties":{"lower":1500.0,"upper":2000.0,"color":"#f37819"},"geometry":{"type":"Polygon","coordinates":[[[-70.871635408,-33.527799308],[-70.871598709,-33.527750795],[-70.87154677,-33.527799308],[-70.871274959,-33.527980755],[-70.871056436,-33.527799308],[-70.87095121,-33.527624394],[-70.87062746,-33.527711639],[-70.870462418,-33.527799308],[-70.870618193,-33.528069191],[-70.87062746,-33.528075058],[-70.870942488,-33.528339073],[-70.87095121,-33.528348837],[-70.871274959,-33.528534275],[-70.871547413,-33.528608955],[-70.871598709,-33.528659554],[-70.871644503,-33.528608955],[-70.871598709,-33.52850711],[-70.871564321,-33.528339073],[-70.871598709,-33.528216487],[-70.87163497,-33.528069191],[-70.871635408,-33.527799308]]]}},{"type":"Feature","properties":{"lower":1500.0,"upper":2000.0,"color":"#f37819"},"geometry":{"type":"Polygon","coordinates":[[[-70.868094781,-33.527799308],[-70.868037463,-33.527710881],[-70.867713713,-33.52759507],[-70.867646642,-33.527799308],[-70.867713713,-33.527848499],[-70.868037463,-33.527835619],[-70.868094781,-33.527799308]]]}},{"type":"Feature","properties":{"lower":1500.0,"upper":2000.0,"color":"#f37819"},"geometry":{"type":"Polygon","coordinates":[[[-70.868736551,-33.528069191],[-70.868684962,-33.528023836],[-70.86858596,-33.528069191],[-70.868684962,-33.528069191],[-70.868736551,-33.528069191]]]}},{"type":"Feature","properties":{"lower":2000.0,"upper":2500.0,"color":"#f6d746"},"geometry":{"type":"Polygon","coordinates":[[[-70.872575875,-33.52024224],[-70.872569958,-33.520233038],[-70.872559529,-33.52024224],[-70.872569958,-33.520290921],[-70.872575875,-33.52024224]]]}},{"type":"Feature","properties":{"lower":2000.0,"upper":2500.0,"color":"#f6d746"},"geometry":{"type":"Polygon","coordinates":[[[-70.873276369,-33.521051957],[-70.873217457,-33.521011963],[-70.873153431,-33.521051957],[-70.873217457,-33.521097708],[-70.873276369,-33.521051957]]]}},{"type":"Feature","properties":{"lower":2000.0,"upper":2500.0,"color":"#f6d746"},"geometry":{"type":"Polygon","coordinates":[[[-70.868910412,-33.522131569],[-70.868684962,-33.521983902],[-70.868406009,-33.522131569],[-70.868631915,-33.52240147],[-70.868684962,-33.522421523],[-70.868934763,-33.522671369],[-70.869008712,-33.522809384],[-70.869106677,-33.522941269],[-70.869008712,-33.523130307],[-70.868684962,-33.523121694],[-70.868407389,-33.523211167],[-70.868613647,-33.523481064],[-70.868684962,-33.523589341],[-70.868890966,-33.523481064],[-70.869008712,-33.523320948],[-70.869111199,-33.523211167],[-70.869332461,-33.52313396],[-70.869399767,-33.522941269],[-70.869389132,-33.522671369],[-70.869332461,-33.522547851],[-70.8690528,-33.52240147],[-70.869008712,-33.522336963],[-70.868910412,-33.522131569]]]}},{"type":"Feature","properties":{"lower":2000.0,"upper":2500.0,"color":"#f6d746"},"geometry":{"type":"Polygon","coordinates":[[[-70.875891745,-33.524020856],[-70.875807454,-33.52399693],[-70.87578493,-33.524020856],[-70.875807454,-33.524052025],[-70.875891745,-33.524020856]]]}},{"type":"Feature","properties":{"lower":2000.0,"upper":2500.0,"color":"#f6d746"},"geometry":{"type":"Polygon","coordinates":[[[-70.869470335,-33.524020856],[-70.869332461,-33.523977119],[-70.869008712,-33.524017741],[-70.869004737,-33.524020856],[-70.868789301,-33.524290751],[-70.868684962,-33.524451576],[-70.868595653,-33.524560645],[-70.868387805,-33.524830539],[-70.868684962,-33.524988982],[-70.868909205,-33.525100431],[-70.869008712,-33.525184434],[-70.869105046,-33.525100431],[-70.869068691,-33.524830539],[-70.869008712,-33.52471972],[-70.86882604,-33.524560645],[-70.869008712,-33.52448114],[-70.869332461,-33.524381758],[-70.869477099,-33.524290751],[-70.869470335,-33.524020856]]]}}]}
