{"type":"FeatureCollection","features":[{"type":"Feature","properties":{"lower":0.0,"upper":500.0,"color":"#160b39"},"geometry":{"type":"Polygon","coordinates":[[[-70.860507497,-33.517712709],[-70.860350258,-33.517712709],[-70.860183657,-33.517981788],[-70.860183215,-33.517982699],[-70.860183657,-33.517983337],[-70.860507497,-33.518073811],[-70.860598195,-33.517982699],[-70.860507497,-33.517982699],[-70.860507497,-33.517712709]]]}},{"type":"Feature","properties":{"lower":0.0,"upper":500.0,"color":"#160b39"},"geometry":{"type":"Polygon","coordinates":[[[-70.859007515,-33.517712709],[-70.858888296,-33.517712709],[-70.858888296,-33.517982699],[-70.859018888,-33.517982699],[-70.859007515,-33.517712709]]]}},{"type":"Feature","properties":{"lower":0.0,"upper":500.0,"color":"#160b39"},"geometry":{"type":"Polygon","coordinates":[[[-70.859952975,-33.518792665],[-70.859859816,-33.518744683],[-70.859859816,-33.518792665],[-70.859859816,-33.519062651],[-70.859859816,-33.519332637],[-70.859859816,-33.519460168],[-70.860183657,-33.519502614],[-70.8604089,-33.519332637],[-70.860295168,-33.519062651],[-70.860183657,-33.51892967],[-70.859952975,-33.518792665]]]}},{"type":"Feature","properties":{"lower":0.0,"upper":500.0,"color":"#160b39"},"geometry":{"type":"Polygon","coordinates":[[[-70.863098219,-33.519062651],[-70.862775891,-33.519062651],[-70.863098219,-33.519285492],[-70.863098219,-33.519062651]]]}},{"type":"Feature","properties":{"lower":0.0,"upper":500.0,"color":"#160b39"},"geometry":{"type":"Polygon","coordinates":[[[-70.861802858,-33.519332637],[-70.861802858,-33.519322204],[-70.861788226,-33.519332637],[-70.861802858,-33.519332637]]]}},{"type":"Feature","properties":{"lower":0.0,"upper":500.0,"color":"#160b39"},"geometry":{"type":"Polygon","coordinates":[[[-70.863422059,-33.519332637],[-70.863153931,-33.519332637],[-70.863422059,-33.51947105],[-70.863422059,-33.519332637]]]}},{"type":"Feature","properties":{"lower":0.0,"upper":500.0,"color":"#160b39"},"geometry":{"type":"Polygon","coordinates":[[[-70.862843875,-33.519602622],[-70.862774379,-33.519573614],[-70.862774379,-33.519602622],[-70.862843875,-33.519602622]]]}},{"type":"Feature","properties":{"lower":0.0,"upper":500.0,"color":"#160b39"},"geometry":{"type":"Polygon","coordinates":[[[-70.860897554,-33.519872607],[-70.860831337,-33.519786526],[-70.860507497,-33.519870699],[-70.860492011,-33.519872607],[-70.860507497,-33.519872607],[-70.860507497,-33.52014259],[-70.860831337,-33.52014259],[-70.860831337,-33.520412573],[-70.860831337,-33.520682554],[-70.860899899,-33.520682554],[-70.860993654,-33.520412573],[-70.860839907,-33.52014259],[-70.860897554,-33.519872607]]]}},{"type":"Feature","properties":{"lower":0.0,"upper":500.0,"color":"#160b39"},"geometry":{"type":"Polygon","coordinates":[[[-70.864262663,-33.519872607],[-70.86406974,-33.519872607],[-70.86406974,-33.519897133],[-70.864215389,-33.52014259],[-70.864176618,-33.520412573],[-70.86439358,-33.520412573],[-70.86439358,-33.52014259],[-70.86439358,-33.519886784],[-70.864262663,-33.519872607]]]}},{"type":"Feature","properties":{"lower":0.0,"upper":500.0,"color":"#160b39"},"geometry":{"type":"Polygon","coordinates":[[[-70.861479018,-33.52014259],[-70.861479018,-33.520065228],[-70.861445425,-33.52014259],[-70.861479018,-33.52014259]]]}},{"type":"Feature","properties":{"lower":0.0,"upper":500.0,"color":"#160b39"},"geometry":{"type":"Polygon","coordinates":[[[-70.863486823,-33.520412573],[-70.863422059,-33.520412573],[-70.863364431,-33.520412573],[-70.863422059,-33.52062298],[-70.863486823,-33.520412573]]]}},{"type":"Feature","properties":{"lower":0.0,"upper":500.0,"color":"#160b39"},"geometry":{"type":"Polygon","coordinates":[[[-70.8637459,-33.520682554],[-70.8637459,-33.520589175],[-70.863460291,-33.520682554],[-70.863422059,-33.5206974],[-70.863394428,-33.520682554],[-70.863098219,-33.520575501],[-70.863098219,-33.520682554],[-70.862774379,-33.520682554],[-70.862679884,-33.520682554],[-70.862774379,-33.520909989],[-70.862793392,-33.520952535],[-70.86290049,-33.521222515],[-70.863098219,-33.521222515],[-70.863098219,-33.521389646],[-70.863422059,-33.521425189],[-70.8637459,-33.521227486],[-70.8637459,-33.521222515],[-70.863749024,-33.521222515],[-70.8637459,-33.521215976],[-70.863645214,-33.520952535],[-70.8637459,-33.520815032],[-70.8637459,-33.520682554]]]}},{"type":"Feature","properties":{"lower":0.0,"upper":500.0,"color":"#160b39"},"geometry":{"type":"Polygon","coordinates":[[[-70.8637459,-33.52203245],[-70.8637459,-33.521817658],[-70.863587009,-33.52203245],[-70.863422059,-33.522277469],[-70.863323118,-33.522302427],[-70.863422059,-33.522302427],[-70.8637459,-33.522302427],[-70.8637459,-33.52203245]]]}},{"type":"Feature","properties":{"lower":0.0,"upper":500.0,"color":"#160b39"},"geometry":{"type":"Polygon","coordinates":[[[-70.865365101,-33.522572403],[-70.865365101,-33.522491492],[-70.865296131,-33.522572403],[-70.865118167,-33.522842378],[-70.865284268,-33.523112352],[-70.865365101,-33.523175585],[-70.865688941,-33.523152971],[-70.865704549,-33.523112352],[-70.866012782,-33.522919106],[-70.866231891,-33.522842378],[-70.866012782,-33.522842378],[-70.866012782,-33.522572403],[-70.865688941,-33.522572403],[-70.865365101,-33.522572403]]]}},{"type":"Feature","properties":{"lower":0.0,"upper":500.0,"color":"#160b39"},"geometry":{"type":"Polygon","coordinates":[[[-70.86411076,-33.523382325],[-70.86406974,-33.523288637],[-70.86406974,-33.523382325],[-70.86411076,-33.523382325]]]}},{"type":"Feature","properties":{"lower":0.0,"upper":500.0,"color":"#160b39"},"geometry":{"type":"Polygon","coordinates":[[[-70.864484552,-33.523922269],[-70.86439358,-33.52388747],[-70.86439358,-33.523922269],[-70.864484552,-33.523922269]]]}},{"type":"Feature","properties":{"lower":0.0,"upper":500.0,"color":"#160b39"},"geometry":{"type":"Polygon","coordinates":[[[-70.865727033,-33.524732179],[-70.865688941,-33.524677122],[-70.865688941,-33.524732179],[-70.865727033,-33.524732179]]]}},{"type":"Feature","properties":{"lower":0.0,"upper":500.0,"color":"#160b39"},"geometry":{"type":"Polygon","coordinates":[[[-70.866780546,-33.525542081],[-70.866660462,-33.525503894],[-70.866660462,-33.525542081],[-70.866780546,-33.525542081]]]}},{"type":"Feature","properties":{"lower":0.0,"upper":500.0,"color":"#160b39"},"geometry":{"type":"Polygon","coordinates":[[[-70.867168696,-33.526082011],[-70.866984302,-33.526082011],[-70.866910259,-33.526082011],[-70.866958914,-33.526351975],[-70.866984302,-33.526351975],[-70.867308143,-33.526351975],[-70.867308143,-33.526195435],[-70.867168696,-33.526082011]]]}},{"type":"Feature","properties":{"lower":500.0,"upper":1000.0,"color":"#6a176e"},"geometry":{"type":"Polygon","coordinates":[[[-70.860350258,-33.517712709],[-70.860183657,-33.517712709],[-70.859859816,-33.517712709],[-70.859535976,-33.517712709],[-70.859212136,-33.517712709],[-70.859007515,-33.517712709],[-70.859018888,-33.517982699],[-70.859212136,-33.517982699],[-70.859212136,-33.518252689],[-70.859535976,-33.518252689],[-70.859535976,-33.518522677],[-70.859859816,-33.518522677],[-70.859859816,-33.518744683],[-70.859952975,-33.518792665],[-70.860183657,-33.51892967],[-70.860295168,-33.519062651],[-70.8604089,-33.519332637],[-70.860183657,-33.519502614],[-70.859859816,-33.519460168],[-70.859859816,-33.519602622],[-70.860183657,-33.519602622],[-70.860183657,-33.519872607],[-70.860492011,-33.519872607],[-70.860507497,-33.519870699],[-70.860831337,-33.519786526],[-70.860897554,-33.519872607],[-70.860839907,-33.52014259],[-70.860993654,-33.520412573],[-70.860899899,-33.520682554],[-70.861155178,-33.520682554],[-70.861155178,-33.520412573],[-70.861155178,-33.52014259],[-70.861445425,-33.52014259],[-70.861479018,-33.520065228],[-70.861479018,-33.519872607],[-70.861479018,-33.519602622],[-70.861479018,-33.519332637],[-70.861788226,-33.519332637],[-70.861802858,-33.519322204],[-70.861802858,-33.519062651],[-70.861802858,-33.518792665],[-70.861479018,-33.518792665],[-70.861479018,-33.518522677],[-70.861479018,-33.518252689],[-70.861479018,-33.517982699],[-70.861155178,-33.517982699],[-70.860831337,-33.517982699],[-70.860598195,-33.517982699],[-70.860507497,-33.518073811],[-70.860183657,-33.517983337],[-70.860183215,-33.517982699],[-70.860183657,-33.517981788],[-70.860350258,-33.517712709]],[[-70.861155178,-33.518498611],[-70.861180742,-33.518522677],[-70.86127553,-33.518792665],[-70.861479018,-33.519003862],[-70.861523156,-33.519062651],[-70.861479018,-33.519091875],[-70.861155178,-33.519299735],[-70.860831337,-33.519209446],[-70.860690795,-33.519062651],[-70.860831337,-33.518918117],[-70.861037829,-33.518792665],[-70.861127551,-33.518522677],[-70.861155178,-33.518498611]]]}},{"type":"Feature","properties":{"lower":500.0,"upper":1000.0,"color":"#6a176e"},"geometry":{"type":"Polygon","coordinates":[[[-70.862775891,-33.519062651],[-70.862774379,-33.519062651],[-70.862774379,-33.519332637],[-70.862774379,-33.519573614],[-70.862843875,-33.519602622],[-70.863098219,-33.519602622],[-70.863098219,-33.519872607],[-70.863422059,-33.519872607],[-70.863422059,-33.519602622],[-70.863422059,-33.51947105],[-70.863153931,-33.519332637],[-70.863098219,-33.519332637],[-70.863098219,-33.519285492],[-70.862775891,-33.519062651]]]}},{"type":"Feature","properties":{"lower":500.0,"upper":1000.0,"color":"#6a176e"},"geometry":{"type":"Polygon","coordinates":[[[-70.86439358,-33.519872607],[-70.864262663,-33.519872607],[-70.86439358,-33.519886784],[-70.86439358,-33.519872607]]]}},{"type":"Feature","properties":{"lower":500.0,"upper":1000.0,"color":"#6a176e"},"geometry":{"type":"Polygon","coordinates":[[[-70.864215389,-33.52014259],[-70.86406974,-33.519897133],[-70.86406974,-33.52014259],[-70.8637459,-33.52014259],[-70.8637459,-33.520412573],[-70.86406974,-33.520412573],[-70.864176618,-33.520412573],[-70.864215389,-33.52014259]]]}},{"type":"Feature","properties":{"lower":500.0,"upper":1000.0,"color":"#6a176e"},"geometry":{"type":"Polygon","coordinates":[[[-70.8637459,-33.520412573],[-70.863486823,-33.520412573],[-70.863422059,-33.52062298],[-70.863364431,-33.520412573],[-70.863098219,-33.520412573],[-70.863098219,-33.520575501],[-70.863394428,-33.520682554],[-70.863422059,-33.5206974],[-70.863460291,-33.520682554],[-70.8637459,-33.520589175],[-70.8637459,-33.520412573]]]}},{"type":"Feature","properties":{"lower":500.0,"upper":1000.0,"color":"#6a176e"},"geometry":{"type":"Polygon","coordinates":[[[-70.8637459,-33.520952535],[-70.8637459,-33.520815032],[-70.863645214,-33.520952535],[-70.8637459,-33.521215976],[-70.863749024,-33.521222515],[-70.86406974,-33.521222515],[-70.86406974,-33.520952535],[-70.8637459,-33.520952535]]]}},{"type":"Feature","properties":{"lower":500.0,"upper":1000.0,"color":"#6a176e"},"geometry":{"type":"Polygon","coordinates":[[[-70.862793392,-33.520952535],[-70.862774379,-33.520909989],[-70.862679884,-33.520682554],[-70.862450539,-33.520682554],[-70.862450539,-33.520952535],[-70.862450539,-33.521222515],[-70.862774379,-33.521222515],[-70.86290049,-33.521222515],[-70.862793392,-33.520952535]]]}},{"type":"Feature","properties":{"lower":500.0,"upper":1000.0,"color":"#6a176e"},"geometry":{"type":"Polygon","coordinates":[[[-70.861479018,-33.520682554],[-70.861155178,-33.520682554],[-70.861155178,-33.520952535],[-70.861479018,-33.520952535],[-70.861479018,-33.520682554]]]}},{"type":"Feature","properties":{"lower":500.0,"upper":1000.0,"color":"#6a176e"},"geometry":{"type":"Polygon","coordinates":[[[-70.8637459,-33.521492494],[-70.8637459,-33.521227486],[-70.863422059,-33.521425189],[-70.863098219,-33.521389646],[-70.863098219,-33.521492494],[-70.863098219,-33.521762473],[-70.862774379,-33.521762473],[-70.862774379,-33.52203245],[-70.863098219,-33.52203245],[-70.863098219,-33.522302427],[-70.863323118,-33.522302427],[-70.863422059,-33.522277469],[-70.863587009,-33.52203245],[-70.8637459,-33.521817658],[-70.8637459,-33.521762473],[-70.8637459,-33.521492494]]]}},{"type":"Feature","properties":{"lower":500.0,"upper":1000.0,"color":"#6a176e"},"geometry":{"type":"Polygon","coordinates":[[[-70.865365101,-33.522302427],[-70.865041261,-33.522302427],[-70.865041261,-33.522572403],[-70.865041261,-33.522842378],[-70.864717421,-33.522842378],[-70.86439358,-33.522842378],[-70.86439358,-33.523112352],[-70.86406974,-33.523112352],[-70.86406974,-33.523288637],[-70.86411076,-33.523382325],[-70.864319773,-33.523382325],[-70.86439358,-33.523278396],[-70.864693323,-33.523112352],[-70.864717421,-33.52310016],[-70.864746229,-33.523112352],[-70.864905305,-33.523382325],[-70.864717421,-33.523546152],[-70.86439358,-33.523618815],[-70.86439358,-33.523652297],[-70.86439358,-33.52388747],[-70.864484552,-33.523922269],[-70.864717421,-33.523922269],[-70.864909274,-33.523922269],[-70.865041261,-33.52380699],[-70.86527558,-33.523652297],[-70.865365101,-33.523557558],[-70.865512739,-33.523652297],[-70.865688941,-33.523800176],[-70.866012782,-33.523839668],[-70.866142141,-33.523922269],[-70.866336622,-33.524067088],[-70.866660462,-33.524181258],[-70.866705776,-33.52419224],[-70.866822085,-33.52446221],[-70.866842104,-33.524732179],[-70.866679419,-33.525002147],[-70.866660462,-33.525028494],[-70.866610387,-33.525002147],[-70.866336622,-33.524791505],[-70.866244496,-33.524732179],[-70.866012782,-33.524633951],[-70.86589523,-33.52446221],[-70.865728978,-33.52419224],[-70.865688941,-33.524124873],[-70.865688941,-33.52419224],[-70.865688941,-33.52446221],[-70.865688941,-33.524677122],[-70.865727033,-33.524732179],[-70.866012782,-33.524732179],[-70.866012782,-33.525002147],[-70.866336622,-33.525002147],[-70.866336622,-33.525272114],[-70.866660462,-33.525272114],[-70.866660462,-33.525503894],[-70.866780546,-33.525542081],[-70.866984302,-33.525542081],[-70.866984302,-33.525272114],[-70.866984302,-33.525002147],[-70.866984302,-33.524732179],[-70.866984302,-33.52446221],[-70.867308143,-33.52446221],[-70.867308143,-33.52419224],[-70.866984302,-33.52419224],[-70.866984302,-33.523922269],[-70.866984302,-33.523652297],[-70.866686865,-33.523652297],[-70.866660462,-33.523671072],[-70.866490777,-33.523652297],[-70.866660462,-33.523623909],[-70.866660462,-33.523382325],[-70.866660462,-33.523112352],[-70.866984302,-33.523112352],[-70.867308143,-33.523112352],[-70.867308143,-33.522842378],[-70.866984302,-33.522842378],[-70.866660462,-33.522842378],[-70.866336622,-33.522842378],[-70.866231891,-33.522842378],[-70.866012782,-33.522919106],[-70.865704549,-33.523112352],[-70.865688941,-33.523152971],[-70.865365101,-33.523175585],[-70.865284268,-33.523112352],[-70.865118167,-33.522842378],[-70.865296131,-33.522572403],[-70.865365101,-33.522491492],[-70.865365101,-33.522302427]]]}},{"type":"Feature","properties":{"lower":500.0,"upper":1000.0,"color":"#6a176e"},"geometry":{"type":"Polygon","coordinates":[[[-70.865401761,-33.523922269],[-70.865365101,-33.523892104],[-70.865345483,-33.523922269],[-70.865365101,-33.523922269],[-70.865401761,-33.523922269]]]}},{"type":"Feature","properties":{"lower":500.0,"upper":1000.0,"color":"#6a176e"},"geometry":{"type":"Polygon","coordinates":[[[-70.867955823,-33.525812046],[-70.867631983,-33.525812046],[-70.867308143,-33.525812046],[-70.867308143,-33.526082011],[-70.867631983,-33.526082011],[-70.867955823,-33.526082011],[-70.867955823,-33.525812046]]]}},{"type":"Feature","properties":{"lower":500.0,"upper":1000.0,"color":"#6a176e"},"geometry":{"type":"Polygon","coordinates":[[[-70.867308143,-33.526082011],[-70.867168696,-33.526082011],[-70.867308143,-33.526195435],[-70.867308143,-33.526082011]]]}},{"type":"Feature","properties":{"lower":500.0,"upper":1000.0,"color":"#6a176e"},"geometry":{"type":"Polygon","coordinates":[[[-70.866910259,-33.526082011],[-70.866660462,-33.526082011],[-70.866336622,-33.526082011],[-70.866336622,-33.526351975],[-70.866660462,-33.526351975],[-70.866958914,-33.526351975],[-70.866910259,-33.526082011]]]}},{"type":"Feature","properties":{"lower":1000.0,"upper":1500.0,"color":"#bc3754"},"geometry":{"type":"Polygon","coordinates":[[[-70.861180742,-33.518522677],[-70.861155178,-33.518498611],[-70.861127551,-33.518522677],[-70.861037829,-33.518792665],[-70.860831337,-33.518918117],[-70.860690795,-33.519062651],[-70.860831337,-33.519209446],[-70.861155178,-33.519299735],[-70.861479018,-33.519091875],[-70.861523156,-33.519062651],[-70.861479018,-33.519003862],[-70.86127553,-33.518792665],[-70.861180742,-33.518522677]]]}},{"type":"Feature","properties":{"lower":1000.0,"upper":1500.0,"color":"#bc3754"},"geometry":{"type":"Polygon","coordinates":[[[-70.864746229,-33.523112352],[-70.864717421,-33.52310016],[-70.864693323,-33.523112352],[-70.86439358,-33.523278396],[-70.864319773,-33.523382325],[-70.86439358,-33.523382325],[-70.86439358,-33.523618815],[-70.864717421,-33.523546152],[-70.864905305,-33.523382325],[-70.864746229,-33.523112352]]]}},{"type":"Feature","properties":{"lower":1000.0,"upper":1500.0,"color":"#bc3754"},"geometry":{"type":"Polygon","coordinates":[[[-70.866660462,-33.523652297],[-70.866660462,-33.523623909],[-70.866490777,-33.523652297],[-70.866660462,-33.523671072],[-70.866686865,-33.523652297],[-70.866660462,-33.523652297]]]}},{"type":"Feature","properties":{"lower":1000.0,"upper":1500.0,"color":"#bc3754"},"geometry":{"type":"Polygon","coordinates":[[[-70.865512739,-33.523652297],[-70.865365101,-33.523557558],[-70.86527558,-33.523652297],[-70.865041261,-33.52380699],[-70.864909274,-33.523922269],[-70.865041261,-33.523922269],[-70.865345483,-33.523922269],[-70.865365101,-33.523892104],[-70.865401761,-33.523922269],[-70.865688941,-33.523922269],[-70.865688941,-33.524124873],[-70.865728978,-33.52419224],[-70.86589523,-33.52446221],[-70.866012782,-33.524633951],[-70.866244496,-33.524732179],[-70.866336622,-33.524791505],[-70.866610387,-33.525002147],[-70.866660462,-33.525028494],[-70.866679419,-33.525002147],[-70.866842104,-33.524732179],[-70.866822085,-33.52446221],[-70.866705776,-33.52419224],[-70.866660462,-33.524181258],[-70.866336622,-33.524067088],[-70.866142141,-33.523922269],[-70.866012782,-33.523839668],[-70.865688941,-33.523800176],[-70.865512739,-33.523652297]]]}}]}
