{"type":"FeatureCollection","features":[{"type":"Feature","properties":{"lower":0.0,"upper":500.0,"color":"#160b39"},"geometry":{"type":"Polygon","coordinates":[[[-70.870050724,-33.520654415],[-70.869833391,-33.520654415],[-70.869761063,-33.520654415],[-70.869833391,-33.520714338],[-70.870050724,-33.520654415]]]}},{"type":"Feature","properties":{"lower":0.0,"upper":500.0,"color":"#160b39"},"geometry":{"type":"Polygon","coordinates":[[[-70.87015769,-33.520924778],[-70.87015769,-33.520729401],[-70.870070945,-33.520924778],[-70.87015769,-33.520924778]]]}},{"type":"Feature","properties":{"lower":0.0,"upper":500.0,"color":"#160b39"},"geometry":{"type":"Polygon","coordinates":[[[-70.869520047,-33.520924778],[-70.869509092,-33.520915574],[-70.869509092,-33.520924778],[-70.869520047,-33.520924778]]]}},{"type":"Feature","properties":{"lower":0.0,"upper":500.0,"color":"#160b39"},"geometry":{"type":"Polygon","coordinates":[[[-70.869509092,-33.520924778],[-70.869184793,-33.520924778],[-70.869184793,-33.520990717],[-70.869509092,-33.520994294],[-70.869509092,-33.520924778]]]}},{"type":"Feature","properties":{"lower":0.0,"upper":500.0,"color":"#160b39"},"geometry":{"type":"Polygon","coordinates":[[[-70.869509092,-33.521465502],[-70.869509092,-33.521261159],[-70.869381501,-33.521465502],[-70.869509092,-33.521465502]]]}},{"type":"Feature","properties":{"lower":500.0,"upper":1000.0,"color":"#6a176e"},"geometry":{"type":"Polygon","coordinates":[[[-70.87015769,-33.520654415],[-70.870050724,-33.520654415],[-70.869833391,-33.520714338],[-70.869761063,-33.520654415],[-70.869509092,-33.520654415],[-70.869509092,-33.520915574],[-70.869520047,-33.520924778],[-70.869833391,-33.520924778],[-70.870070945,-33.520924778],[-70.87015769,-33.520729401],[-70.87015769,-33.520654415]]]}},{"type":"Feature","properties":{"lower":500.0,"upper":1000.0,"color":"#6a176e"},"geometry":{"type":"Polygon","coordinates":[[[-70.869509092,-33.521195141],[-70.869509092,-33.520994294],[-70.869184793,-33.520990717],[-70.869184793,-33.521195141],[-70.869184793,-33.521465502],[-70.869381501,-33.521465502],[-70.869509092,-33.521261159],[-70.869509092,-33.521195141]]]}},{"type":"Feature","properties":{"lower":500.0,"upper":1000.0,"color":"#6a176e"},"geometry":{"type":"Polygon","coordinates":[[[-70.869509092,-33.522006222],[-70.869184793,-33.522006222],[-70.868860495,-33.522006222],[-70.868860495,-33.522276581],[-70.869184793,-33.522276581],[-70.869509092,-33.522276581],[-70.869509092,-33.522006222]]]}},{"type":"Feature","properties":{"lower":500.0,"upper":1000.0,"color":"#6a176e"},"geometry":{"type":"Polygon","coordinates":[[[-70.869184793,-33.522817297],[-70.868860495,-33.522817297],[-70.868860495,-33.523087653],[-70.869184793,-33.523087653],[-70.869184793,-33.522817297]]]}},{"type":"Feature","properties":{"lower":500.0,"upper":1000.0,"color":"#6a176e"},"geometry":{"type":"Polygon","coordinates":[[[-70.869509092,-33.523358009],[-70.869184793,-33.523358009],[-70.869184793,-33.523628363],[-70.869509092,-33.523628363],[-70.869509092,-33.523358009]]]}}]}
